{
  "type": "FeatureCollection",
  "features": [
    {
      "type": "Feature",
      "properties": {
        "id": "d6d24439f24440908c5482f5279b84c3",
        "name": "Segment 001",
        "order": 1,
        "structure_type": "open",
        "structure_types": [
          "open"
        ],
        "display_mode": "single",
        "bicolor_colors": [],
        "water_status": "unknown",
        "continuous": false
      },
      "geometry": {
        "type": "MultiLineString",
        "coordinates": [
          [
            [
              7.7817379594780505,
              46.2672618846409
            ],
            [
              7.781725554727018,
              46.26735187927261
            ],
            [
              7.781726347282529,
              46.26747781643644
            ],
            [
              7.7816929779332895,
              46.267575543943
            ],
            [
              7.7815981660969555,
              46.267721087671816
            ],
            [
              7.781594614032656,
              46.267775072250515
            ],
            [
              7.781584083623358,
              46.267840689894946
            ],
            [
              7.78158610034734,
              46.26786505477503
            ],
            [
              7.781596821732819,
              46.267919895704836
            ],
            [
              7.781605541295477,
              46.267963065582656
            ],
            [
              7.781490206307836,
              46.2680631909421
            ],
            [
              7.781419174280018,
              46.268135429825634
            ],
            [
              7.781316084321588,
              46.268243689555675
            ],
            [
              7.78115873294297,
              46.26829125357811
            ],
            [
              7.781070220045478,
              46.26834873262935
            ],
            [
              7.780970797408372,
              46.268410253338516
            ],
            [
              7.780970266088843,
              46.26841033203527
            ],
            [
              7.780960266012698,
              46.26843033218756
            ],
            [
              7.7809502659365535,
              46.26846033195034
            ],
            [
              7.7809402658604085,
              46.26847033202648
            ],
            [
              7.7809402658604085,
              46.26855033170432
            ],
            [
              7.780930265784264,
              46.26861033169553
            ],
            [
              7.780870265793055,
              46.268690331839025
            ],
            [
              7.780850265640765,
              46.26873033167794
            ],
            [
              7.7808402655646205,
              46.26874033175409
            ],
            [
              7.780810265801847,
              46.26878033159301
            ],
            [
              7.780800265725702,
              46.26878033159301
            ],
            [
              7.780760265886784,
              46.26885033166036
            ],
            [
              7.780730265658349,
              46.268880331888795
            ],
            [
              7.780720265582204,
              46.26889033149928
            ],
            [
              7.780650265514851,
              46.26893033180386
            ],
            [
              7.780610265675932,
              46.26895033149049
            ],
            [
              7.780570265371352,
              46.26897033164278
            ],
            [
              7.780440265778452,
              46.26902033155784
            ],
            [
              7.780440265778452,
              46.26902033155784
            ],
            [
              7.780430265702307,
              46.26902033155784
            ],
            [
              7.780410265550017,
              46.269030331633985
            ],
            [
              7.780370265711099,
              46.26906033139676
            ],
            [
              7.780360265634954,
              46.2690703314729
            ],
            [
              7.780340265482664,
              46.26910033123568
            ],
            [
              7.780340265482664,
              46.26911033131182
            ],
            [
              7.780330265406519,
              46.26913033146411
            ],
            [
              7.780270265415311,
              46.26923033129424
            ],
            [
              7.780260265339166,
              46.26925033098087
            ],
            [
              7.780210264958441,
              46.26932033104822
            ],
            [
              7.780160265043378,
              46.269370330963284
            ],
            [
              7.780140264891088,
              46.26938033103943
            ],
            [
              7.780130264814943,
              46.269440330564976
            ],
            [
              7.780110264662653,
              46.269460330717266
            ],
            [
              7.780100264586508,
              46.26949033048004
            ],
            [
              7.78008026489988,
              46.269520330708474
            ],
            [
              7.7800602642819285,
              46.269630330149084
            ],
            [
              7.78002026444301,
              46.26979032997042
            ],
            [
              7.78000026429072,
              46.26982032973319
            ],
            [
              7.779940264299512,
              46.26986033003777
            ],
            [
              7.779910264071077,
              46.269930329639465
            ],
            [
              7.779910264071077,
              46.27000032970682
            ],
            [
              7.779910264071077,
              46.27007032977417
            ],
            [
              7.779900263994932,
              46.27014032937586
            ],
            [
              7.779810263775289,
              46.27032032934949
            ],
            [
              7.779810263775289,
              46.27034032950178
            ],
            [
              7.779790263622999,
              46.270400329027325
            ],
            [
              7.779790263622999,
              46.27048032917082
            ],
            [
              7.779760263394564,
              46.27060032868758
            ],
            [
              7.779760263394564,
              46.2706503290683
            ],
            [
              7.779760263394564,
              46.270700328517705
            ],
            [
              7.779790263157338,
              46.27076032850891
            ],
            [
              7.779820262920111,
              46.27084032818675
            ],
            [
              7.77982026245445,
              46.27093032794073
            ],
            [
              7.7798002627678216,
              46.271000328008085
            ],
            [
              7.779790262691677,
              46.27105032792315
            ],
            [
              7.779740262310952,
              46.27118032798171
            ],
            [
              7.779730262234807,
              46.27120032766834
            ],
            [
              7.779710262548178,
              46.2712503275834
            ],
            [
              7.779720262158662,
              46.271380327641964
            ],
            [
              7.7797002624720335,
              46.27144032763317
            ],
            [
              7.779690262395889,
              46.271470327395946
            ],
            [
              7.779670262243599,
              46.271490327548236
            ],
            [
              7.779660262167454,
              46.27150032762438
            ],
            [
              7.779650262091309,
              46.271530327852815
            ],
            [
              7.779640262480825,
              46.271570327691734
            ],
            [
              7.779650262091309,
              46.27160032745451
            ],
            [
              7.779670262243599,
              46.27165032736957
            ],
            [
              7.779710262082517,
              46.27179032750428
            ],
            [
              7.779720262158662,
              46.27182032726705
            ],
            [
              7.779720262158662,
              46.271830327343196
            ],
            [
              7.779710262082517,
              46.27193032717332
            ],
            [
              7.779710261616856,
              46.27205032715574
            ],
            [
              7.779730261769146,
              46.2721003270708
            ],
            [
              7.779740261845291,
              46.272170327138156
            ],
            [
              7.779750261921436,
              46.27222032705322
            ],
            [
              7.779780261684209,
              46.27229032712057
            ],
            [
              7.779790261760354,
              46.272340327035636
            ],
            [
              7.779790261760354,
              46.27237032679841
            ],
            [
              7.779780261684209,
              46.272400327026844
            ],
            [
              7.779760261531919,
              46.27243032678962
            ],
            [
              7.779750261921436,
              46.27246032701805
            ],
            [
              7.779750261921436,
              46.27250032685697
            ],
            [
              7.779736386457614,
              46.2725704962132
            ],
            [
              7.779760526338748,
              46.27261128461949
            ],
            [
              7.779773937383823,
              46.272635386845295
            ],
            [
              7.779787348428897,
              46.27265948906051
            ],
            [
              7.779806123892001,
              46.272686318969626
            ],
            [
              7.779808806101016,
              46.27273735768337
            ],
            [
              7.7798275815641205,
              46.27275960584101
            ],
            [
              7.779857085863284,
              46.272773168820514
            ],
            [
              7.779878543535403,
              46.27282137311916
            ],
            [
              7.779883907953433,
              46.27287699341106
            ],
            [
              7.7798758613263885,
              46.27290294952795
            ],
            [
              7.779870496908359,
              46.27291778158924
            ],
            [
              7.779878543535403,
              46.2729363216602
            ],
            [
              7.779894636789493,
              46.273017897897894
            ],
            [
              7.779999242941074,
              46.27314715485612
            ],
            [
              7.780076693277806,
              46.27332099666819
            ],
            [
              7.7801343174651265,
              46.27340808138251
            ],
            [
              7.78018802171573,
              46.27349067945033
            ],
            [
              7.780241720378399,
              46.273572377394885
            ],
            [
              7.780295419506729,
              46.27365407627076
            ],
            [
              7.780373839195818,
              46.27374739386141
            ],
            [
              7.780439185444266,
              46.273824559058994
            ],
            [
              7.7804270018823445,
              46.27395053487271
            ],
            [
              7.780476657208055,
              46.27400795696303
            ],
            [
              7.780544598586857,
              46.27408511471003
            ],
            [
              7.7805802607908845,
              46.274186657276005
            ],
            [
              7.78061064472422,
              46.27427382348105
            ],
            [
              7.780520570464432,
              46.27439103880897
            ],
            [
              7.780481212306768,
              46.274527891073376
            ],
            [
              7.780457117129117,
              46.274616121314466
            ],
            [
              7.7804199871607125,
              46.27469449536875
            ],
            [
              7.78038030769676,
              46.27478007413447
            ],
            [
              7.780380253214389,
              46.27478031627834
            ],
            [
              7.780380253214389,
              46.27482031611726
            ],
            [
              7.780350252985954,
              46.274900315795094
            ],
            [
              7.7802102523855865,
              46.2751703155227
            ],
            [
              7.780170252546668,
              46.27524031512439
            ],
            [
              7.780160252470523,
              46.27525031520054
            ],
            [
              7.780130252242088,
              46.275290315039456
            ],
            [
              7.780130252242088,
              46.2753003151156
            ],
            [
              7.7801102520897985,
              46.275330315344036
            ],
            [
              7.780080252327025,
              46.27536031510681
            ],
            [
              7.78005025209859,
              46.275370315182954
            ],
            [
              7.780010252259672,
              46.27539031486958
            ],
            [
              7.779980252031237,
              46.27541031502187
            ],
            [
              7.7799302521161735,
              46.275500314775854
            ],
            [
              7.779890251811594,
              46.27553031453863
            ],
            [
              7.7798302518203855,
              46.27560031460598
            ],
            [
              7.7798202517442405,
              46.275630314834416
            ],
            [
              7.779810251668096,
              46.275650314521044
            ],
            [
              7.779801989439875,
              46.275652597658336
            ],
            [
              7.7798283798620105,
              46.275723583996296
            ],
            [
              7.779861357994378,
              46.275810742750764
            ],
            [
              7.779894336126745,
              46.27589790150523
            ],
            [
              7.779927314259112,
              46.2759850602597
            ],
            [
              7.77996029285714,
              46.27607221901417
            ],
            [
              7.779993265401572,
              46.27615847857669
            ],
            [
              7.7800262439996,
              46.27624563733116
            ],
            [
              7.78004648629576,
              46.27637061616406
            ],
            [
              7.78006002260372,
              46.27646053209901
            ],
            [
              7.78006025031209,
              46.27646031277254
            ],
            [
              7.78006025031209,
              46.27652031276375
            ],
            [
              7.780060249846429,
              46.27663031220436
            ],
            [
              7.780060249846429,
              46.27665031235665
            ],
            [
              7.780030249617994,
              46.276790312025696
            ],
            [
              7.780010249465704,
              46.27680031163618
            ],
            [
              7.779990249779075,
              46.27680031163618
            ],
            [
              7.779990249779075,
              46.27680031163618
            ],
            [
              7.779950249474496,
              46.27685031155124
            ],
            [
              7.779940249398351,
              46.27686031116173
            ],
            [
              7.779810248874128,
              46.276920311152935
            ],
            [
              7.779780249111354,
              46.276940310839564
            ],
            [
              7.779784147627652,
              46.27694802824408
            ],
            [
              7.779712083283812,
              46.27704179985449
            ],
            [
              7.779651604127139,
              46.27712114294991
            ],
            [
              7.779591124970466,
              46.27720048651099
            ],
            [
              7.779561983421445,
              46.2773121194914
            ],
            [
              7.779537884984165,
              46.27740034926683
            ],
            [
              7.779515084344894,
              46.277488575316966
            ],
            [
              7.779554858338088,
              46.27762518869713
            ],
            [
              7.779581355396658,
              46.27771326620132
            ],
            [
              7.779515410773456,
              46.27774854749441
            ],
            [
              7.779413264710456,
              46.277803727891296
            ]
          ],
          [
            [
              7.781870502978563,
              46.28626035666093
            ],
            [
              7.781870231498033,
              46.286260289140046
            ],
            [
              7.781870231498033,
              46.286300289444625
            ],
            [
              7.781860231421888,
              46.28636028897017
            ],
            [
              7.781850231345743,
              46.28638028912246
            ],
            [
              7.781850231345743,
              46.286390288732946
            ],
            [
              7.7817602311261,
              46.28651028871536
            ],
            [
              7.78174023097381,
              46.28653028840199
            ],
            [
              7.781680230982602,
              46.286580288317055
            ],
            [
              7.781650230754167,
              46.286600288469344
            ],
            [
              7.781460230704397,
              46.286770288366824
            ],
            [
              7.78134023072198,
              46.28687028819695
            ],
            [
              7.781290230341256,
              46.28691028803587
            ],
            [
              7.781220230739564,
              46.28696028795093
            ],
            [
              7.781130230519921,
              46.28702028794214
            ],
            [
              7.781070230528712,
              46.28706028778106
            ],
            [
              7.781050230376422,
              46.287070287857205
            ],
            [
              7.781010230537504,
              46.287090288009495
            ],
            [
              7.780930230394006,
              46.28712028777227
            ],
            [
              7.780670230276883,
              46.287220287602395
            ],
            [
              7.7805202305316925,
              46.28729028766975
            ],
            [
              7.780390230473131,
              46.287350287660956
            ],
            [
              7.780310230329633,
              46.28738028788939
            ],
            [
              7.780200230423361,
              46.287410287652165
            ],
            [
              7.779940230306238,
              46.28749028779566
            ],
            [
              7.779900230001658,
              46.28750028787181
            ],
            [
              7.779710229951888,
              46.287580287549645
            ],
            [
              7.779560230206698,
              46.28764028754085
            ],
            [
              7.779560230206698,
              46.28764028754085
            ],
            [
              7.779560230206698,
              46.28764028754085
            ],
            [
              7.779510230291635,
              46.28766028769314
            ],
            [
              7.77946022991091,
              46.28768028737977
            ],
            [
              7.779360230080783,
              46.287730287760496
            ],
            [
              7.77927022986114,
              46.28776028752327
            ],
            [
              7.779200229793787,
              46.28778028767556
            ],
            [
              7.77910022996366,
              46.28782028751448
            ],
            [
              7.779020229820162,
              46.28784028766677
            ],
            [
              7.778880229685456,
              46.287880287505686
            ],
            [
              7.778800230007619,
              46.287900287192315
            ],
            [
              7.778700229711831,
              46.287920287344605
            ],
            [
              7.778650229796767,
              46.28793028742075
            ],
            [
              7.778610229957849,
              46.28794028703123
            ],
            [
              7.778600229881704,
              46.28795028710738
            ],
            [
              7.778560229577124,
              46.28797028725967
            ],
            [
              7.778500229585916,
              46.28799028741196
            ],
            [
              7.778370229527354,
              46.288070287089795
            ],
            [
              7.777976739386247,
              46.28834384161457
            ]
          ],
          [
            [
              7.777858194064947,
              46.28846910957188
            ],
            [
              7.777676023158875,
              46.288619034823974
            ],
            [
              7.777590229175985,
              46.28867028653622
            ],
            [
              7.777550229337066,
              46.28869028668851
            ]
          ],
          [
            [
              7.777214702211154,
              46.28893970313567
            ],
            [
              7.776938575031608,
              46.28905708850851
            ],
            [
              7.776833968880027,
              46.289114545780386
            ],
            [
              7.776675718548148,
              46.2892739430578
            ],
            [
              7.776600616695731,
              46.28930359831404
            ],
            [
              7.776444466844765,
              46.289349934619786
            ],
            [
              7.77632644964811,
              46.28940739158446
            ],
            [
              7.776232572332589,
              46.28945002090641
            ],
            [
              7.776174846437385,
              46.289517156931154
            ]
          ],
          [
            [
              7.7761185200480725,
              46.28957277102434
            ],
            [
              7.776030228007585,
              46.289630284998566
            ],
            [
              7.77598022762686,
              46.28966028476134
            ],
            [
              7.77585022803396,
              46.28970028506592
            ],
            [
              7.77581022772938,
              46.28972028475255
            ],
            [
              7.775780227966607,
              46.28977028466761
            ],
            [
              7.775780227500945,
              46.289780284743756
            ],
            [
              7.775760227814317,
              46.289780284743756
            ],
            [
              7.775680227670819,
              46.289820284582675
            ],
            [
              7.775610227603465,
              46.289860284887254
            ],
            [
              7.775530227459967,
              46.28989028465003
            ],
            [
              7.775470227468759,
              46.28991028480232
            ],
            [
              7.7754102274775505,
              46.289930284488946
            ],
            [
              7.775380227714777,
              46.28994028456509
            ],
            [
              7.775330227334052,
              46.289970284793526
            ],
            [
              7.775250227656215,
              46.290030284784734
            ],
            [
              7.775190227665007,
              46.29006028454751
            ],
            [
              7.775070227216929,
              46.29011028446257
            ],
            [
              7.774970227386802,
              46.29017028445378
            ],
            [
              7.774900227319449,
              46.2902102842927
            ],
            [
              7.774770227260888,
              46.290290284436196
            ],
            [
              7.774750227108598,
              46.29030028451234
            ],
            [
              7.774730227421969,
              46.29030028451234
            ],
            [
              7.774660227354616,
              46.290330284275115
            ],
            [
              7.774620227050036,
              46.290350284427404
            ],
            [
              7.774590227287263,
              46.29036028450355
            ],
            [
              7.77448022691533,
              46.29043028410524
            ],
            [
              7.7744102268479764,
              46.29047028394416
            ],
            [
              7.774390227161348,
              46.290480284020305
            ],
            [
              7.774190226569772,
              46.290550283622
            ],
            [
              7.77410022681579,
              46.290590283460915
            ],
            [
              7.774010226596147,
              46.290630283765495
            ],
            [
              7.77391022676602,
              46.29066028352827
            ],
            [
              7.773880226537585,
              46.29067028360441
            ],
            [
              7.773850226774812,
              46.29070028336719
            ],
            [
              7.7737802267074585,
              46.29074028367177
            ],
            [
              7.77372022671625,
              46.29077028343454
            ],
            [
              7.773640226572752,
              46.29081028327346
            ],
            [
              7.77351022651419,
              46.29086028318852
            ],
            [
              7.773470226209611,
              46.29087028326467
            ],
            [
              7.773380226455629,
              46.29092028317973
            ],
            [
              7.773360226303339,
              46.290930283255875
            ],
            [
              7.773270226083696,
              46.290950282942504
            ],
            [
              7.7732202261686325,
              46.29096028301865
            ],
            [
              7.773140226025134,
              46.29099028324708
            ],
            [
              7.773120226338506,
              46.29100028285757
            ],
            [
              7.773040226195008,
              46.29107028292492
            ],
            [
              7.773040226195008,
              46.29107028292492
            ],
            [
              7.772890225984156,
              46.29115028306842
            ],
            [
              7.772860226221383,
              46.29117028275505
            ],
            [
              7.772740225773305,
              46.2912402828224
            ],
            [
              7.772700225934386,
              46.29126028250903
            ],
            [
              7.772600225638598,
              46.29132028250024
            ],
            [
              7.772500225808471,
              46.2913702824153
            ],
            [
              7.772450225893408,
              46.291400282643735
            ],
            [
              7.772430225741118,
              46.29141028271988
            ],
            [
              7.772380225826055,
              46.291440282482654
            ],
            [
              7.77216022554785,
              46.29152028216049
            ],
            [
              7.772120225708932,
              46.29154028231278
            ],
            [
              7.7720402255654335,
              46.2915802821517
            ],
            [
              7.772000225260854,
              46.29160028230399
            ],
            [
              7.771910225506872,
              46.29165028221905
            ],
            [
              7.771860225126147,
              46.29169028205797
            ],
            [
              7.77175703894369,
              46.29173940246195
            ],
            [
              7.771681937091273,
              46.29181724397133
            ],
            [
              7.7716229284929454,
              46.29189508537008
            ],
            [
              7.7715502246282995,
              46.29195028124377
            ],
            [
              7.771424445025843,
              46.292032234232025
            ],
            [
              7.7713802247308195,
              46.29210028098896
            ],
            [
              7.771300224587321,
              46.29216028098017
            ],
            [
              7.771194172595472,
              46.292239323112796
            ],
            [
              7.77110565969798,
              46.29231716391165
            ],
            [
              7.771062744353742,
              46.29235052422014
            ],
            [
              7.771010224241763,
              46.29240028047934
            ],
            [
              7.770933998321027,
              46.292441338290324
            ],
            [
              7.770912540648908,
              46.29250805873573
            ],
            [
              7.770899129603833,
              46.29258589915263
            ],
            [
              7.770861578677625,
              46.29262852600071
            ],
            [
              7.770789159034223,
              46.29267115281563
            ],
            [
              7.770754290317029,
              46.29269709955629
            ],
            [
              7.770719421599836,
              46.29271192625971
            ],
            [
              7.770681870673627,
              46.292736019644224
            ],
            [
              7.7706470019564335,
              46.29283980641017
            ],
            [
              7.770569217895002,
              46.29298065956366
            ],
            [
              7.770467383042444,
              46.29310083133075
            ],
            [
              7.770160221494734,
              46.29337027762085
            ],
            [
              7.770016771927942,
              46.29342330884728
            ],
            [
              7.769941670075525,
              46.29349744134126
            ],
            [
              7.769861203805078,
              46.29357898696875
            ],
            [
              7.769732457772363,
              46.29367165230714
            ],
            [
              7.7695795718585146,
              46.293790263711486
            ],
            [
              7.769474965706934,
              46.29386439570876
            ],
            [
              7.769331897506447,
              46.29394223419788
            ],
            [
              7.769213880309792,
              46.29396632704114
            ],
            [
              7.769138778457375,
              46.29399783305095
            ],
            [
              7.7689602188766,
              46.29400027403608
            ],
            [
              7.768910218495876,
              46.29407027410343
            ],
            [
              7.7689202185720205,
              46.29408027371392
            ],
            [
              7.7689302186481655,
              46.29409027379006
            ],
            [
              7.7689202185720205,
              46.294100273866206
            ],
            [
              7.768910218961537,
              46.294120274018496
            ],
            [
              7.768900218885392,
              46.29413027409464
            ],
            [
              7.768890218809247,
              46.294140273705125
            ],
            [
              7.768870218656957,
              46.29415027378127
            ],
            [
              7.768860218580812,
              46.29420027369633
            ],
            [
              7.768850218504667,
              46.29423027345911
            ],
            [
              7.768850218504667,
              46.29424027353525
            ],
            [
              7.7688202182762325,
              46.294270273298025
            ],
            [
              7.768800218123943,
              46.29428027337417
            ],
            [
              7.768740983745545,
              46.294301774436725
            ],
            [
              7.768692703983277,
              46.29432030727236
            ],
            [
              7.768558593532532,
              46.29437034589721
            ],
            [
              7.76848617388913,
              46.294444477109245
            ],
            [
              7.768453987380951,
              46.2944889557883
            ],
            [
              7.7683883951976895,
              46.29454580089077
            ],
            [
              7.76828098250553,
              46.29459558892995
            ],
            [
              7.768172272015363,
              46.29464538069442
            ],
            [
              7.768064858857542,
              46.2946951687336
            ],
            [
              7.767956147901714,
              46.294744960498065
            ],
            [
              7.767848734743893,
              46.29479474853724
            ],
            [
              7.767663510981947,
              46.29485375760123
            ],
            [
              7.7675456390716136,
              46.294890981633216
            ],
            [
              7.76742776716128,
              46.2949282056652
            ],
            [
              7.767309895250946,
              46.294965429697186
            ],
            [
              7.767190725542605,
              46.29500265745446
            ],
            [
              7.76707285316661,
              46.295039881020784
            ],
            [
              7.76695497520268,
              46.2950762049295
            ],
            [
              7.766848787665367,
              46.295114293694496
            ],
            [
              7.766732228454202,
              46.29515421204269
            ],
            [
              7.766616972628981,
              46.29519502585754
            ],
            [
              7.766501716803759,
              46.29523583967239
            ],
            [
              7.766385157592595,
              46.29527575755492
            ],
            [
              7.76621560100466,
              46.2953509115614
            ],
            [
              7.7661068816669285,
              46.29539980227128
            ],
            [
              7.765996859408915,
              46.29544779704884
            ],
            [
              7.765851737931371,
              46.29548599757254
            ],
            [
              7.765729932580143,
              46.295516934245825
            ],
            [
              7.765608127228916,
              46.29554787091911
            ],
            [
              7.765426505822688,
              46.29555918928236
            ],
            [
              7.765296773519367,
              46.295566759072244
            ],
            [
              7.765217653475702,
              46.29557418357581
            ],
            [
              7.765087937004864,
              46.29558445233852
            ],
            [
              7.764959518332034,
              46.29559471691027
            ],
            [
              7.7648521601222456,
              46.29565439745784
            ],
            [
              7.764749970752746,
              46.295710464473814
            ],
            [
              7.764649079181254,
              46.2957665277645
            ],
            [
              7.764532436616719,
              46.295792950317264
            ],
            [
              7.764409315772355,
              46.29582119034603
            ],
            [
              7.764286189805716,
              46.295848531182855
            ],
            [
              7.764118912629783,
              46.29587150039151
            ],
            [
              7.763991833664477,
              46.29588895663619
            ],
            [
              7.763864754699171,
              46.295906412415206
            ],
            [
              7.763736377935857,
              46.295923872385174
            ],
            [
              7.763609298504889,
              46.29594132816419
            ],
            [
              7.763482219539583,
              46.295958783477545
            ],
            [
              7.763281258288771,
              46.29599174298346
            ],
            [
              7.763155492488295,
              46.296011893078685
            ],
            [
              7.763028429355472,
              46.2960320468992
            ],
            [
              7.762941558845341,
              46.29604578856379
            ],
            [
              7.762814495246857,
              46.29606594191864
            ],
            [
              7.76268872898072,
              46.296086091548204
            ],
            [
              7.762561659794301,
              46.29610534524545
            ],
            [
              7.7624283102341,
              46.29615969955921
            ],
            [
              7.7623156709596515,
              46.2962049995549
            ],
            [
              7.762121037580073,
              46.29621095210314
            ],
            [
              7.761991281528026,
              46.29621492046863
            ],
            [
              7.761847287416458,
              46.29622522555292
            ],
            [
              7.761718861293048,
              46.29623458720744
            ],
            [
              7.761589131783694,
              46.29624305246398
            ],
            [
              7.761381488293409,
              46.29624364338815
            ]
          ]
        ]
      }
    },
    {
      "type": "Feature",
      "properties": {
        "id": "0270d136d7624a69a1e2b54dd4b338f4",
        "name": "Segment 002",
        "order": 2,
        "structure_type": "canalized",
        "structure_types": [
          "canalized"
        ],
        "display_mode": "single",
        "bicolor_colors": [],
        "water_status": "unknown",
        "continuous": false
      },
      "geometry": {
        "type": "MultiLineString",
        "coordinates": [
          [
            [
              7.779413264710456,
              46.277803727891296
            ],
            [
              7.779419642122065,
              46.27791026059498
            ],
            [
              7.779363315732752,
              46.27802705229667
            ],
            [
              7.779331129224573,
              46.27811232862003
            ],
            [
              7.779347222478663,
              46.278208727782285
            ],
            [
              7.77942232433108,
              46.27833849561752
            ],
            [
              7.77954838815478,
              46.2784541908526
            ],
            [
              7.779626172216211,
              46.27853205124182
            ],
            [
              7.779636901052271,
              46.278589519553364
            ],
            [
              7.779588621290003,
              46.27866923356316
            ],
            [
              7.77954838815478,
              46.27873597078449
            ],
            [
              7.77954838815478,
              46.27877860841112
            ],
            [
              7.779587224037073,
              46.278865737371056
            ],
            [
              7.779595270664117,
              46.27899364984848
            ],
            [
              7.779627457172296,
              46.27913824620252
            ],
            [
              7.779635503799341,
              46.27923548764755
            ],
            [
              7.779681101352594,
              46.27937345505162
            ],
            [
              7.779713287860773,
              46.279450264387094
            ],
            [
              7.779723668033654,
              46.2794966090277
            ],
            [
              7.779718303615624,
              46.27958188306399
            ],
            [
              7.779726350242669,
              46.27965788807144
            ],
            [
              7.779756212772497,
              46.27976380098108
            ],
            [
              7.779793763698706,
              46.27988429627562
            ],
            [
              7.7798018103257505,
              46.2799399093991
            ],
            [
              7.779796445907721,
              46.28003517949721
            ],
            [
              7.7798018103257505,
              46.280103768819174
            ],
            [
              7.7798355389386415,
              46.28018541447818
            ],
            [
              7.779880185145885,
              46.2802707394585
            ],
            [
              7.779880239628255,
              46.280270299408585
            ],
            [
              7.779880239628255,
              46.28028029948473
            ],
            [
              7.779910239391029,
              46.280440299306065
            ],
            [
              7.779920239467174,
              46.28048029914498
            ],
            [
              7.779960239306092,
              46.28051029890776
            ],
            [
              7.779990239534527,
              46.28054029913619
            ],
            [
              7.780010239221156,
              46.28055029921234
            ],
            [
              7.780060239136219,
              46.280590298585594
            ],
            [
              7.780120238661766,
              46.28062029834837
            ],
            [
              7.780150238890201,
              46.28063029842451
            ],
            [
              7.780160238966346,
              46.280640298034996
            ],
            [
              7.780210238881409,
              46.28069029795006
            ],
            [
              7.780210238881409,
              46.28069029841572
            ],
            [
              7.780210238881409,
              46.28069029795006
            ],
            [
              7.780250238720328,
              46.28075029794127
            ],
            [
              7.780290238559246,
              46.280810297932476
            ],
            [
              7.780370238237083,
              46.28088029753417
            ],
            [
              7.7804902382195,
              46.28099029744044
            ],
            [
              7.780530238058418,
              46.28103029774502
            ],
            [
              7.780580237973481,
              46.28110029734671
            ],
            [
              7.780602371671904,
              46.281175735519724
            ],
            [
              7.780576353427023,
              46.281218585558236
            ],
            [
              7.780520892236382,
              46.281270927749574
            ],
            [
              7.780446099117398,
              46.28134401841089
            ],
            [
              7.780370008200407,
              46.2814171127975
            ],
            [
              7.7803395151884445,
              46.28152400312201
            ],
            [
              7.780296599844206,
              46.28158332200978
            ],
            [
              7.780202866066247,
              46.2816605004482
            ],
            [
              7.780152847059071,
              46.28175330674276
            ],
            [
              7.780106669291854,
              46.28183800494298
            ],
            [
              7.780061783269048,
              46.28192180022597
            ],
            [
              7.779963953186638,
              46.28204118751369
            ],
            [
              7.779906936455518,
              46.28205720195547
            ],
            [
              7.779762983787805,
              46.28206753032282
            ],
            [
              7.779634588398039,
              46.28207601280883
            ],
            [
              7.779481958132237,
              46.282151136081666
            ],
            [
              7.7793943463636595,
              46.282211727533074
            ],
            [
              7.779335337765332,
              46.28226548460305
            ],
            [
              7.779321926720257,
              46.28233407113299
            ],
            [
              7.779403693508357,
              46.28249950427562
            ],
            [
              7.779429215080853,
              46.282615116965076
            ],
            [
              7.779386299736615,
              46.28276526478499
            ],
            [
              7.779445308334942,
              46.28281160662162
            ],
            [
              7.779547134414315,
              46.28282201848924
            ],
            [
              7.779649156220074,
              46.28286721677382
            ],
            [
              7.779654155485332,
              46.2829224485904
            ],
            [
              7.779640440829098,
              46.28301154682413
            ],
            [
              7.77950431693327,
              46.28311113962254
            ],
            [
              7.77943553449586,
              46.28323435690254
            ],
            [
              7.7793815531767905,
              46.28331637987867
            ],
            [
              7.779326268006116,
              46.28339750692248
            ],
            [
              7.779272286221385,
              46.283479529898614
            ],
            [
              7.779218303970993,
              46.283561552874744
            ],
            [
              7.77913685429823,
              46.28362918281917
            ],
            [
              7.7790425615385175,
              46.28367632580921
            ],
            [
              7.778922104742378,
              46.283709971699864
            ],
            [
              7.778801641892642,
              46.28374271746725
            ],
            [
              7.778729314450175,
              46.28379600914195
            ],
            [
              7.7786414958536625,
              46.2838619411923
            ],
            [
              7.7785682259870725,
              46.28395698151262
            ],
            [
              7.778477030880566,
              46.28403112681953
            ],
            [
              7.778375106938,
              46.284088589363364
            ],
            [
              7.7782959586648985,
              46.284131046329954
            ],
            [
              7.778218174603467,
              46.284186655142854
            ],
            [
              7.7781515225644,
              46.28422676288764
            ],
            [
              7.77803082315873,
              46.284289786094554
            ],
            [
              7.777982543396462,
              46.2843435411255
            ],
            [
              7.777896160259843,
              46.284395817667246
            ],
            [
              7.777823959942907,
              46.28446979820728
            ],
            [
              7.777719686913002,
              46.28454880057299
            ],
            [
              7.777695547031868,
              46.28461367702116
            ],
            [
              7.777792106556404,
              46.284645188411126
            ],
            [
              7.777851115154732,
              46.284641481189716
            ],
            [
              7.777926217007149,
              46.28463777396806
            ],
            [
              7.777993272232521,
              46.28462109146749
            ],
            [
              7.778119336056221,
              46.284608116185765
            ],
            [
              7.778304408478249,
              46.284589580063674
            ],
            [
              7.778502891945351,
              46.28457475116148
            ],
            [
              7.778685282158364,
              46.284552507800676
            ],
            [
              7.7788891300434955,
              46.284530264430835
            ],
            [
              7.779095660137642,
              46.28452841081628
            ],
            [
              7.7792860969777,
              46.28452284997221
            ],
            [
              7.779465804981697,
              46.28456733670888
            ],
            [
              7.779642294272293,
              46.284624798690295
            ],
            [
              7.779808591231216,
              46.284654456463564
            ],
            [
              7.780017803534378,
              46.28461738424447
            ],
            [
              7.780189464911331,
              46.28461367702118
            ],
            [
              7.780382583960403,
              46.28466369284399
            ],
            [
              7.7805703385914455,
              46.28471559389983
            ],
            [
              7.780741999968399,
              46.284793445391394
            ],
            [
              7.780897568091262,
              46.28488612559423
            ],
            [
              7.781015585287918,
              46.28495285524318
            ],
            [
              7.7811443313206325,
              46.285052949564204
            ],
            [
              7.781305263861526,
              46.285153043702344
            ],
            [
              7.781423281058181,
              46.28525313765759
            ],
            [
              7.781573484763015,
              46.285353231429966
            ],
            [
              7.781686137541641,
              46.28546444651809
            ],
            [
              7.7817451461399685,
              46.28557936853862
            ],
            [
              7.781777332648147,
              46.28577584756367
            ],
            [
              7.7817711481571905,
              46.28591301174836
            ],
            [
              7.781797970247339,
              46.286042761336695
            ],
            [
              7.781819427919459,
              46.28610207533187
            ],
            [
              7.781856978845667,
              46.286144141700284
            ],
            [
              7.781865936845321,
              46.28625712749258
            ]
          ],
          [
            [
              7.777976739386247,
              46.28834384161457
            ],
            [
              7.777858194064947,
              46.28846910957188
            ]
          ],
          [
            [
              7.777550229337066,
              46.28869028668851
            ],
            [
              7.7775302291847765,
              46.2887102868408
            ],
            [
              7.777510229032487,
              46.2887602862902
            ],
            [
              7.777500228956342,
              46.28878028644249
            ],
            [
              7.777450229041278,
              46.28883028635755
            ],
            [
              7.777380228973925,
              46.288880286272615
            ],
            [
              7.777214702211154,
              46.28893970313567
            ]
          ],
          [
            [
              7.776174846437385,
              46.289517156931154
            ],
            [
              7.7761185200480725,
              46.28957277102434
            ]
          ]
        ]
      }
    },
    {
      "type": "Feature",
      "properties": {
        "id": "eb819768b814488e982baf4f60faf979",
        "name": "Segment 003",
        "order": 3,
        "structure_type": "explorationencours",
        "structure_types": [
          "explorationencours"
        ],
        "display_mode": "single",
        "bicolor_colors": [],
        "water_status": "unknown",
        "continuous": true
      },
      "geometry": {
        "type": "LineString",
        "coordinates": [
          [
            7.761381488293409,
            46.29624364338815
          ],
          [
            7.761251710820943,
            46.29624401265755
          ],
          [
            7.761121933814138,
            46.29624438146129
          ],
          [
            7.761022132821381,
            46.29626625496894
          ],
          [
            7.760897701140493,
            46.296292695682496
          ],
          [
            7.760773268993944,
            46.29631913686171
          ],
          [
            7.760650134179741,
            46.296345573849976
          ],
          [
            7.760525702033192,
            46.29637201456353
          ],
          [
            7.760406370274723,
            46.29638314759359
          ],
          [
            7.760276661720127,
            46.29639520961791
          ],
          [
            7.760148250497878,
            46.29640726791695
          ],
          [
            7.760019834153354,
            46.296418426558375
          ],
          [
            7.759916038718075,
            46.29642321821302
          ],
          [
            7.75978628732264,
            46.29642808344215
          ],
          [
            7.759656535927206,
            46.29643294820562
          ],
          [
            7.759526784531772,
            46.29643781296909
          ],
          [
            7.759384018369019,
            46.29643641784787
          ],
          [
            7.759254224598408,
            46.296434085816145
          ],
          [
            7.759124435950071,
            46.296432652976364
          ],
          [
            7.758994642179459,
            46.296430320478976
          ],
          [
            7.758853442966938,
            46.29647479718551
          ],
          [
            7.758735561743379,
            46.29651201190427
          ],
          [
            7.758678685873747,
            46.296550853177905
          ],
          [
            7.75858560949564,
            46.29661318520084
          ],
          [
            7.758492533117533,
            46.296675517223775
          ],
          [
            7.758399456273764,
            46.29673784971237
          ],
          [
            7.758304791990668,
            46.29675070988014
          ],
          [
            7.758176405914128,
            46.296767263673246
          ],
          [
            7.7580493171699345,
            46.2967838132754
          ],
          [
            7.757854617666453,
            46.29677896387875
          ],
          [
            7.757724818307906,
            46.29677573079243
          ],
          [
            7.757613324094564,
            46.29679583432153
          ],
          [
            7.75750677932453,
            46.2968474044199
          ],
          [
            7.757367304455755,
            46.296891881147275
          ],
          [
            7.75725465167713,
            46.29688446836189
          ],
          [
            7.757138712331653,
            46.296861935872585
          ],
          [
            7.757010299246758,
            46.29687399044633
          ],
          [
            7.756881886627525,
            46.296886045020074
          ],
          [
            7.756802694872022,
            46.29688176885247
          ],
          [
            7.756672874093056,
            46.296874936204404
          ],
          [
            7.7565443511120975,
            46.296868099831045
          ],
          [
            7.756414524745196,
            46.29686036705971
          ],
          [
            7.756264143623412,
            46.29688867460936
          ],
          [
            7.756138383876532,
            46.29691061610356
          ],
          [
            7.7560182580556045,
            46.296910413106346
          ],
          [
            7.755931957159191,
            46.296897700056434
          ],
          [
            7.755814410170473,
            46.29686222999971
          ],
          [
            7.755713352933526,
            46.29679935891181
          ],
          [
            7.755545797292143,
            46.29677553847432
          ],
          [
            7.755419807508588,
            46.2967578987591
          ],
          [
            7.755269054575706,
            46.296775129660865
          ],
          [
            7.7551537195880655,
            46.29676030405748
          ],
          [
            7.755000833674217,
            46.296721386829496
          ]
        ]
      }
    }
  ]
}