{
  "type": "FeatureCollection",
  "features": [
    {
      "type": "Feature",
      "properties": {
        "id": "737bb9390c4845c1b7a9195a703991a8",
        "name": "Segment 001",
        "order": 1,
        "structure_type": "open",
        "water_status": "unknown",
        "continuous": false
      },
      "geometry": {
        "type": "MultiLineString",
        "coordinates": [
          [
            [
              7.509361255913973,
              46.21411933703348
            ],
            [
              7.509517262224108,
              46.21419133991003
            ],
            [
              7.509517261758447,
              46.21419133991003
            ],
            [
              7.509634261485189,
              46.21428134012967
            ],
            [
              7.509634261019528,
              46.21428134012967
            ],
            [
              7.509658256545663,
              46.21436933800578
            ],
            [
              7.509686260018498,
              46.214470332022756
            ],
            [
              7.509686259552836,
              46.214470331557095
            ],
            [
              7.509731255471706,
              46.21455433126539
            ],
            [
              7.509764260146767,
              46.21461433824152
            ],
            [
              7.509764260146767,
              46.21461433824152
            ],
            [
              7.509790251031518,
              46.21470233472064
            ],
            [
              7.509816260542721,
              46.21479433448985
            ],
            [
              7.509816260542721,
              46.21479433402419
            ],
            [
              7.509842251893133,
              46.2149023367092
            ],
            [
              7.509842251427472,
              46.2149023367092
            ],
            [
              7.509930260013789,
              46.214968336280435
            ],
            [
              7.509984259027988,
              46.215009331703186
            ],
            [
              7.509984259027988,
              46.215009331237525
            ],
            [
              7.5101012592203915,
              46.21510833594948
            ],
            [
              7.5101012592203915,
              46.21510833594948
            ],
            [
              7.510166259482503,
              46.21519833197817
            ],
            [
              7.510166259016842,
              46.21519833197817
            ],
            [
              7.510296256747097,
              46.21530633280054
            ],
            [
              7.510296256747097,
              46.215306332334876
            ],
            [
              7.5103412554599345,
              46.21539133042097
            ],
            [
              7.510374259669334,
              46.215450330171734
            ],
            [
              7.510374259669334,
              46.21545032970607
            ],
            [
              7.5104002500884235,
              46.215576332528144
            ],
            [
              7.5104002500884235,
              46.215576332528144
            ],
            [
              7.510335251223296,
              46.21565733384341
            ],
            [
              7.510335251223296,
              46.21565733337775
            ],
            [
              7.5103352488949895,
              46.215765334665775
            ],
            [
              7.5103352488949895,
              46.215765334665775
            ],
            [
              7.510245249141008,
              46.215873329434544
            ],
            [
              7.510245249141008,
              46.215873329434544
            ],
            [
              7.510180258657783,
              46.21598133491352
            ],
            [
              7.510180258657783,
              46.21598133491352
            ],
            [
              7.510232258588076,
              46.216098335105926
            ],
            [
              7.510232258588076,
              46.216098335105926
            ],
            [
              7.51024525007233,
              46.21623333264142
            ],
            [
              7.510245249606669,
              46.21623333264142
            ],
            [
              7.51024725753814,
              46.21636232826859
            ],
            [
              7.51024725753814,
              46.21636232826859
            ],
            [
              7.510250248480588,
              46.21636032918468
            ],
            [
              7.510270257014781,
              46.21645033592358
            ],
            [
              7.510280248243362,
              46.21647033561021
            ],
            [
              7.510280249640346,
              46.21649133134633
            ],
            [
              7.510282259434462,
              46.21649232879281
            ],
            [
              7.510282259434462,
              46.21649232879281
            ],
            [
              7.510280249640346,
              46.21649133134633
            ],
            [
              7.510260252747685,
              46.21655032783747
            ],
            [
              7.510260254144669,
              46.21658133575693
            ],
            [
              7.510300257243216,
              46.21665033372119
            ],
            [
              7.510281248018146,
              46.21667133225128
            ],
            [
              7.510320252738893,
              46.216720333788544
            ],
            [
              7.510330258402973,
              46.21675133518875
            ],
            [
              7.510327260009944,
              46.216747334226966
            ],
            [
              7.510327260009944,
              46.216747334226966
            ],
            [
              7.510330258402973,
              46.21675133518875
            ],
            [
              7.510340248700231,
              46.2167903338559
            ],
            [
              7.510341260116547,
              46.21690033143386
            ],
            [
              7.5103602590970695,
              46.21693132724613
            ],
            [
              7.51047025481239,
              46.21701132832095
            ],
            [
              7.510551249142736,
              46.21709132893011
            ],
            [
              7.510600259061903,
              46.21713033039123
            ],
            [
              7.5106812552548945,
              46.217261326964945
            ],
            [
              7.510710258036852,
              46.21733133029193
            ],
            [
              7.510760253295302,
              46.217380333691835
            ],
            [
              7.510870250873268,
              46.21747032832354
            ],
            [
              7.510950247757137,
              46.21751033514738
            ],
            [
              7.510950249154121,
              46.21751133352518
            ],
            [
              7.510950249154121,
              46.21751133352518
            ],
            [
              7.510950247757137,
              46.21751033514738
            ],
            [
              7.5110202534124255,
              46.217550330329686
            ],
            [
              7.511120258830488,
              46.21758033055812
            ],
            [
              7.511280255392194,
              46.217760329600424
            ],
            [
              7.511401257012039,
              46.21786032849923
            ],
            [
              7.511611250694841,
              46.21800032816827
            ],
            [
              7.5117302583530545,
              46.218110331334174
            ],
            [
              7.511800255160779,
              46.218250330071896
            ],
            [
              7.511820256244391,
              46.21840032795444
            ],
            [
              7.511920254211873,
              46.21853033080697
            ],
            [
              7.5125902579165995,
              46.21898032724857
            ],
            [
              7.512850251980126,
              46.21929032728076
            ],
            [
              7.512890249956399,
              46.21939033223316
            ],
            [
              7.512821250129491,
              46.21958032762632
            ],
            [
              7.512851255945861,
              46.2196703273803
            ],
            [
              7.512970258947462,
              46.219820332713425
            ],
            [
              7.513000254984945,
              46.21994133060798
            ],
            [
              7.513051253277808,
              46.22000032663345
            ],
            [
              7.51308125583455,
              46.220260333735496
            ],
            [
              7.513151258230209,
              46.22036132682115
            ],
            [
              7.513300252147019,
              46.22051132982597
            ],
            [
              7.513381247874349,
              46.22068132972345
            ],
            [
              7.513360254000872,
              46.22072033025324
            ],
            [
              7.51330025261268,
              46.22076032822952
            ],
            [
              7.513250256422907,
              46.22081033140421
            ],
            [
              7.513231249060482,
              46.22089033247903
            ],
            [
              7.513231250923127,
              46.22093032673001
            ],
            [
              7.513250257819891,
              46.221041329205036
            ],
            [
              7.513280251994729,
              46.22112133400515
            ],
            [
              7.513330257963389,
              46.22126032831147
            ],
            [
              7.513380249496549,
              46.221340329386294
            ],
            [
              7.513450250495225,
              46.221410332713276
            ],
            [
              7.513470251578838,
              46.22145133046433
            ],
            [
              7.513491248711944,
              46.22150033339858
            ],
            [
              7.513470258098096,
              46.22158032702282
            ],
            [
              7.513381258118898,
              46.22171132545918
            ],
            [
              7.513341250363737,
              46.22174032591283
            ],
            [
              7.513061253353953,
              46.22184033226222
            ],
            [
              7.512930258642882,
              46.22192133311182
            ],
            [
              7.5128202573396266,
              46.222011333331466
            ],
            [
              7.512760252226144,
              46.222040329128504
            ],
            [
              7.512490245979279,
              46.22217032779008
            ],
            [
              7.512360250577331,
              46.22236032690853
            ],
            [
              7.512240255717188,
              46.22246032720432
            ],
            [
              7.512191255576909,
              46.2225203323178
            ],
            [
              7.5120712532661855,
              46.22279033111408
            ],
            [
              7.512020249851048,
              46.22299132542685
            ],
            [
              7.512021253816783,
              46.22320032864809
            ],
            [
              7.5120702548883855,
              46.223490324337035
            ],
            [
              7.512120248749852,
              46.22364032967016
            ],
            [
              7.512300253845751,
              46.22387033049017
            ],
            [
              7.512400247622281,
              46.22394033242017
            ],
            [
              7.512460246216506,
              46.22403033077717
            ],
            [
              7.5126812579110265,
              46.22446033079177
            ],
            [
              7.512800257652998,
              46.22461032727733
            ],
            [
              7.512840245850384,
              46.224671327508986
            ],
            [
              7.512921252753586,
              46.22473033098504
            ],
            [
              7.5130702536553144,
              46.224800327792764
            ],
            [
              7.513450247235596,
              46.224950324278325
            ],
            [
              7.513541248627007,
              46.22500032512471
            ],
            [
              7.5136202508583665,
              46.22509032860398
            ],
            [
              7.513650247827172,
              46.2251803278923
            ],
            [
              7.51363124884665,
              46.225381328724325
            ],
            [
              7.51355125149712,
              46.22575132502243
            ],
            [
              7.513550255913287,
              46.22581032803282
            ],
            [
              7.5136002553626895,
              46.22595032956451
            ],
            [
              7.513600246980786,
              46.22600132599473
            ],
            [
              7.513561248313636,
              46.226240328513086
            ],
            [
              7.513531246222556,
              46.22629032749683
            ],
            [
              7.513430246617645,
              46.22640032880008
            ],
            [
              7.513420256786048,
              46.22645032405853
            ],
            [
              7.513420249801129,
              46.22653132956475
            ],
            [
              7.5134302489459515,
              46.22665032558143
            ],
            [
              7.513501245062798,
              46.22695132577792
            ],
            [
              7.5135312573984265,
              46.22708033025265
            ],
            [
              7.5135202570818365,
              46.22712133033201
            ],
            [
              7.513491250574589,
              46.22716032713652
            ],
            [
              7.513421250041574,
              46.22720133000985
            ],
            [
              7.513250252697617,
              46.22726032650098
            ],
            [
              7.513180251698941,
              46.22730132890865
            ],
            [
              7.513101254589856,
              46.22737033152953
            ],
            [
              7.51265025138855,
              46.22767132893205
            ],
            [
              7.512550245039165,
              46.22779032448307
            ],
            [
              7.51254025567323,
              46.227851330302656
            ],
            [
              7.512530254200101,
              46.22799032786861
            ],
            [
              7.512520251329988,
              46.228041330352426
            ],
            [
              7.512490246444941,
              46.22810032451525
            ],
            [
              7.512371250428259,
              46.22820032434538
            ],
            [
              7.512340248562396,
              46.22825032426044
            ],
            [
              7.5122912474907935,
              46.22839132556692
            ],
            [
              7.512280244380236,
              46.22845032578334
            ],
            [
              7.512290254235268,
              46.228540329262614
            ],
            [
              7.512321249116212,
              46.22862032521516
            ],
            [
              7.512351251672953,
              46.22881132783368
            ],
            [
              7.512341249734163,
              46.228950324933976
            ],
            [
              7.512401246465743,
              46.229151329025626
            ],
            [
              7.5123612536117435,
              46.229331329930574
            ],
            [
              7.512351246550679,
              46.22966032335535
            ],
            [
              7.512370254378766,
              46.229800327681005
            ],
            [
              7.5124402535147965,
              46.22990032285452
            ],
            [
              7.512540248222649,
              46.23000132385641
            ],
            [
              7.5125602493062615,
              46.23004032485187
            ],
            [
              7.51259024720639,
              46.23012033011764
            ],
            [
              7.51259025093168,
              46.230200327932835
            ],
            [
              7.5124602457508445,
              46.23031032923609
            ],
            [
              7.51225124951452,
              46.23043033014983
            ],
            [
              7.512211250141263,
              46.230480326805264
            ],
            [
              7.512170251924545,
              46.230510326102376
            ],
            [
              7.512090252246708,
              46.230541322380304
            ],
            [
              7.512050250545144,
              46.23057032329962
            ],
            [
              7.511940254364163,
              46.23059032764286
            ],
            [
              7.511891245376319,
              46.23062032321468
            ],
            [
              7.511861253064126,
              46.2306513232179
            ],
            [
              7.511821254622191,
              46.23073132894933
            ],
            [
              7.511800256092101,
              46.230751330498606
            ],
            [
              7.511650244239718,
              46.23079032357782
            ],
            [
              7.511620250530541,
              46.23081033071503
            ],
            [
              7.511601249221712,
              46.23086032271385
            ],
            [
              7.511571255046874,
              46.23088032985106
            ],
            [
              7.511461244896054,
              46.23090032534674
            ],
            [
              7.511391249019653,
              46.23092033108696
            ],
            [
              7.511251247487962,
              46.231021323706955
            ],
            [
              7.511240254621953,
              46.23105032322928
            ],
            [
              7.51124124461785,
              46.23121132608503
            ],
            [
              7.511271252762526,
              46.23130032699555
            ],
            [
              7.511280251201242,
              46.23136132955551
            ],
            [
              7.511250246781856,
              46.2315903226845
            ],
            [
              7.511170249897987,
              46.231891330331564
            ],
            [
              7.511120254639536,
              46.23200032580644
            ],
            [
              7.511101253796369,
              46.23212032997981
            ],
            [
              7.5111102517694235,
              46.23216132633388
            ],
            [
              7.511171253863722,
              46.23225032584742
            ],
            [
              7.5111902467906475,
              46.23232132522389
            ],
            [
              7.511180252302438,
              46.232360327616334
            ],
            [
              7.511120250448585,
              46.232470327522606
            ],
            [
              7.511021244805306,
              46.23258132394403
            ],
            [
              7.510970251634717,
              46.23268132470548
            ],
            [
              7.510950249154121,
              46.232710329815745
            ],
            [
              7.51084124809131,
              46.23278132919222
            ],
            [
              7.510810254141688,
              46.23284032382071
            ],
            [
              7.510810255538672,
              46.232871322426945
            ],
            [
              7.510840251576155,
              46.2329703271389
            ],
            [
              7.510861253365874,
              46.23313032789156
            ],
            [
              7.510891251731664,
              46.23320132913068
            ],
            [
              7.5110502555035055,
              46.233410322107375
            ],
            [
              7.511121244169772,
              46.233630327973515
            ],
            [
              7.511121245101094,
              46.23368032509461
            ],
            [
              7.511100247502327,
              46.2338003218174
            ],
            [
              7.511150249745697,
              46.23396132932976
            ],
            [
              7.511140247806907,
              46.23432032344863
            ],
            [
              7.511161250062287,
              46.23443032614887
            ],
            [
              7.511180255562067,
              46.23449032381177
            ],
            [
              7.511310251895338,
              46.23460032977164
            ],
            [
              7.51146025210619,
              46.23470132704824
            ],
            [
              7.511510251555592,
              46.23477032734081
            ],
            [
              7.511531253345311,
              46.23484032647684
            ],
            [
              7.5115702515468,
              46.235010327771306
            ],
            [
              7.5116402469575405,
              46.23522132867947
            ],
            [
              7.511640247423202,
              46.23528032191098
            ],
            [
              7.511600244790316,
              46.23535032430664
            ],
            [
              7.511550249066204,
              46.23550032172352
            ],
            [
              7.511550251860172,
              46.2356003257446
            ],
            [
              7.511571254581213,
              46.235680328216404
            ],
            [
              7.511660242918879,
              46.235901329666376
            ],
            [
              7.511770247947425,
              46.23623132612556
            ],
            [
              7.511710244230926,
              46.236430328805
            ],
            [
              7.511721254326403,
              46.236560326535255
            ],
            [
              7.511751254554838,
              46.23664032295346
            ],
            [
              7.511720249895006,
              46.236751321703196
            ],
            [
              7.511660255026072,
              46.236820329446346
            ],
            [
              7.511571246664971,
              46.23683032626286
            ],
            [
              7.511531242635101,
              46.236851329449564
            ],
            [
              7.511351255234331,
              46.23691032920033
            ],
            [
              7.511260250583291,
              46.236930320970714
            ],
            [
              7.510931246448308,
              46.237020323053
            ],
            [
              7.51086124451831,
              46.23706132452935
            ],
            [
              7.5106412512250245,
              46.23731032665819
            ],
            [
              7.510580244008452,
              46.23735032323748
            ],
            [
              7.510520247742534,
              46.23738032532856
            ],
            [
              7.510410250164568,
              46.237410322763026
            ],
            [
              7.510280249640346,
              46.23748032702133
            ],
            [
              7.510170251596719,
              46.2376003251411
            ],
            [
              7.510101244784892,
              46.23769032396376
            ],
            [
              7.510090251453221,
              46.23772032232955
            ],
            [
              7.510210245382041,
              46.237850323785096
            ],
            [
              7.51024124212563,
              46.23789032595232
            ],
            [
              7.5102902459912,
              46.23793032532558
            ],
            [
              7.510441250633448,
              46.2380803222768
            ],
            [
              7.510600254870951,
              46.23821032606065
            ],
            [
              7.51068124268204,
              46.23826132481918
            ],
            [
              7.510730245616287,
              46.238310320302844
            ],
            [
              7.510841247625649,
              46.238521323073655
            ],
            [
              7.510881254449487,
              46.238570323679596
            ],
            [
              7.510950249619782,
              46.23862032266334
            ],
            [
              7.511120251845568,
              46.23882032232359
            ],
            [
              7.511270249262452,
              46.23894032742828
            ],
            [
              7.511320241726935,
              46.239001322072
            ],
            [
              7.511381250806153,
              46.23905032733455
            ],
            [
              7.511430243961513,
              46.23910032073036
            ],
            [
              7.5115702515468,
              46.23933132831007
            ],
            [
              7.511640248820186,
              46.23948032269254
            ],
            [
              7.511650247499347,
              46.23960032686591
            ],
            [
              7.511660246644169,
              46.23968132585287
            ],
            [
              7.511690247338265,
              46.23977032722905
            ],
            [
              7.5117302453145385,
              46.23983132792637
            ],
            [
              7.511760247405618,
              46.23996032355353
            ],
            [
              7.511721245013177,
              46.24021032685414
            ],
            [
              7.511651241686195,
              46.240390319842845
            ],
            [
              7.511600241996348,
              46.240480326116085
            ],
            [
              7.511571242939681,
              46.24057032773271
            ],
            [
              7.511550243012607,
              46.24067032709718
            ],
            [
              7.511520245112479,
              46.2407603203319
            ],
            [
              7.511391250882298,
              46.24092032620683
            ],
            [
              7.511171248741448,
              46.241241320967674
            ],
            [
              7.511061244644225,
              46.241341322660446
            ],
            [
              7.510911244433373,
              46.24144132249057
            ],
            [
              7.51063124416396,
              46.24157032510266
            ],
            [
              7.51061024190858,
              46.24160032067448
            ],
            [
              7.5106102507561445,
              46.24159732507542
            ],
            [
              7.5106102507561445,
              46.24159732554108
            ],
            [
              7.51061024190858,
              46.24160032067448
            ],
            [
              7.5106312446296215,
              46.24157032510266
            ],
            [
              7.510600247420371,
              46.241611319594085
            ],
            [
              7.510610243305564,
              46.241631319746375
            ],
            [
              7.510670243296772,
              46.24165032571182
            ],
            [
              7.510650251992047,
              46.24169032368809
            ],
            [
              7.510650252457708,
              46.24174032127485
            ],
            [
              7.510661248583347,
              46.24180132243782
            ],
            [
              7.51069124834612,
              46.24186032358557
            ],
            [
              7.510800245217979,
              46.241990321781486
            ],
            [
              7.510840242728591,
              46.24206031812355
            ],
            [
              7.5109102432616055,
              46.24227032111958
            ],
            [
              7.510940246749669,
              46.2424803217873
            ],
            [
              7.510970248375088,
              46.2425003182143
            ],
            [
              7.511000249534845,
              46.24251032015309
            ],
            [
              7.510996248573065,
              46.242514316923916
            ],
            [
              7.510996248573065,
              46.242514316923916
            ],
            [
              7.511000249534845,
              46.24251032015309
            ],
            [
              7.510970248375088,
              46.2425003182143
            ],
            [
              7.5111002484336495,
              46.24250031681731
            ],
            [
              7.511270244605839,
              46.24247031658888
            ],
            [
              7.511360248085111,
              46.24248031619936
            ],
            [
              7.511440242640674,
              46.24250031681731
            ],
            [
              7.511441251263022,
              46.24249831913039
            ],
            [
              7.511441251263022,
              46.24249831913039
            ],
            [
              7.511440242640674,
              46.24250031681731
            ],
            [
              7.51155025139451,
              46.24253031890839
            ],
            [
              7.511741241905838,
              46.2426303178072
            ],
            [
              7.511820239480585,
              46.242680319119245
            ],
            [
              7.5120002487674356,
              46.24276031833142
            ],
            [
              7.512340239714831,
              46.2429503207095
            ],
            [
              7.512480239383876,
              46.24300031783059
            ],
            [
              7.512650238815695,
              46.243020322173834
            ],
            [
              7.512960241176188,
              46.24311131797731
            ],
            [
              7.51352024031803,
              46.24325131997466
            ],
            [
              7.5140512473881245,
              46.24334031436592
            ],
            [
              7.514261248521507,
              46.243390317074955
            ],
            [
              7.51445024413988,
              46.24341031489894
            ],
            [
              7.514690247364342,
              46.243460314814
            ],
            [
              7.51475023990497,
              46.24349032016471
            ],
            [
              7.514860244002193,
              46.24357031611726
            ],
            [
              7.515020238235593,
              46.243741313926876
            ],
            [
              7.515120244584978,
              46.243810314685106
            ],
            [
              7.515221240464598,
              46.2439013090916
            ],
            [
              7.515380243305117,
              46.243991311173886
            ],
            [
              7.51543023949489,
              46.244030308909714
            ],
            [
              7.515428234357387,
              46.244033314753324
            ],
            [
              7.515428234357387,
              46.244033314753324
            ],
            [
              7.51543023949489,
              46.244030308909714
            ],
            [
              7.5155002400279045,
              46.244170313701034
            ],
            [
              7.515497239306569,
              46.24416631227359
            ],
            [
              7.515497238840908,
              46.24416631227359
            ],
            [
              7.515510237310082,
              46.244255314581096
            ],
            [
              7.5155252339318395,
              46.24434531386942
            ],
            [
              7.515525233466178,
              46.244345312938094
            ],
            [
              7.5154862413182855,
              46.24445331282914
            ],
            [
              7.515486240386963,
              46.244453312363476
            ],
            [
              7.515447237994522,
              46.24449830735102
            ],
            [
              7.515447237528861,
              46.2444983064197
            ],
            [
              7.515447233337909,
              46.244588307570666
            ],
            [
              7.515447232872248,
              46.244588307105005
            ],
            [
              7.5154092400334775,
              46.24466930143535
            ],
            [
              7.515409239567816,
              46.24466930096969
            ],
            [
              7.51539622945711,
              46.24478630581871
            ],
            [
              7.515396228991449,
              46.244786305353045
            ],
            [
              7.515331230126321,
              46.24483129987493
            ],
            [
              7.51533122966066,
              46.24483129894361
            ],
            [
              7.515396232716739,
              46.24495730130002
            ],
            [
              7.515396232251078,
              46.2449573003687
            ],
            [
              7.515448233112693,
              46.24503829749301
            ],
            [
              7.51544823218137,
              46.24503829656169
            ],
            [
              7.515552235767245,
              46.24515429651365
            ],
            [
              7.515552235301584,
              46.24515429651365
            ],
            [
              7.51573122991249,
              46.24512930307537
            ],
            [
              7.51573122991249,
              46.24512930307537
            ],
            [
              7.5157312313094735,
              46.24513030145317
            ],
            [
              7.515910233836621,
              46.24512030323967
            ],
            [
              7.516070229932666,
              46.24512030323967
            ],
            [
              7.516181231010705,
              46.24513130122796
            ],
            [
              7.51628122292459,
              46.245150295086205
            ],
            [
              7.516277235001326,
              46.2451543007046
            ],
            [
              7.516277235001326,
              46.2451543007046
            ],
            [
              7.51628122292459,
              46.245150295086205
            ],
            [
              7.516391227953136,
              46.245190295856446
            ],
            [
              7.516710229683667,
              46.24535129778087
            ],
            [
              7.516871228348464,
              46.245390300638974
            ],
            [
              7.517170234583318,
              46.24541129823774
            ],
            [
              7.517380226869136,
              46.24541129777208
            ],
            [
              7.517640231177211,
              46.245440300088376
            ],
            [
              7.517850230913609,
              46.24549029627815
            ],
            [
              7.51802023453638,
              46.24556029913947
            ],
            [
              7.518100223038346,
              46.24558029463515
            ],
            [
              7.518170231021941,
              46.24561129882932
            ],
            [
              7.518281229771674,
              46.2456913003698
            ],
            [
              7.518451234325767,
              46.24584130011499
            ],
            [
              7.5185402310453355,
              46.245921298861504
            ],
            [
              7.518780223559588,
              46.246060302015394
            ],
            [
              7.519050229806453,
              46.2462413017638
            ],
            [
              7.519140228163451,
              46.246340298093855
            ],
            [
              7.519261233508587,
              46.246460295282304
            ],
            [
              7.519361225888133,
              46.24653030047193
            ],
            [
              7.519461228046566,
              46.24658029945567
            ],
            [
              7.5198302320204675,
              46.246680294163525
            ],
            [
              7.52006022632122,
              46.2467612978071
            ],
            [
              7.520380234345794,
              46.246870293747634
            ],
            [
              7.5205612275749445,
              46.24694029381499
            ],
            [
              7.520760227460414,
              46.24698129715398
            ],
            [
              7.521181228104979,
              46.24714029720053
            ],
            [
              7.521370223257691,
              46.24720129463822
            ],
            [
              7.521470224950463,
              46.2472402988933
            ],
            [
              7.521550223696977,
              46.247290301602334
            ],
            [
              7.52178023243323,
              46.247480301652104
            ],
            [
              7.521861230023205,
              46.24753029458225
            ],
            [
              7.521863225381821,
              46.2475292943418
            ],
            [
              7.521863225381821,
              46.2475292943418
            ],
            [
              7.521861230023205,
              46.24753029458225
            ],
            [
              7.521880227606744,
              46.24754030164331
            ],
            [
              7.521931228227913,
              46.24762029852718
            ],
            [
              7.521970230154693,
              46.24767130194232
            ],
            [
              7.522010231856257,
              46.24768029525876
            ],
            [
              7.5220612324774265,
              46.247700300533324
            ],
            [
              7.522110229358077,
              46.24774129362777
            ],
            [
              7.522131226956844,
              46.24777029827237
            ],
            [
              7.5221702279523015,
              46.247880294919014
            ],
            [
              7.522230222821236,
              46.24799130158499
            ],
            [
              7.522310223430395,
              46.248220298439264
            ],
            [
              7.522312221582979,
              46.24822129542008
            ],
            [
              7.522312221582979,
              46.24822129542008
            ],
            [
              7.522310223430395,
              46.248220298439264
            ],
            [
              7.522360228933394,
              46.24831029865891
            ],
            [
              7.522440223954618,
              46.24839030113071
            ],
            [
              7.522521225735545,
              46.24845029646531
            ],
            [
              7.5226512234658,
              46.24849029444158
            ],
            [
              7.522791229188442,
              46.24852029979229
            ],
            [
              7.522940232884139,
              46.24854129366577
            ],
            [
              7.523040233645588,
              46.24856029916555
            ],
            [
              7.523090232629329,
              46.24861129466444
            ],
            [
              7.5231312327086926,
              46.24867030233145
            ],
            [
              7.523131234105676,
              46.24873029394075
            ],
            [
              7.523130229208618,
              46.24913130141795
            ],
            [
              7.523100233171135,
              46.24922129744664
            ],
            [
              7.5231112241744995,
              46.249260294251144
            ],
            [
              7.523120225407183,
              46.249270299915224
            ],
            [
              7.5231502233073115,
              46.24929130030796
            ],
            [
              7.5232202229090035,
              46.249320295173675
            ],
            [
              7.523400228470564,
              46.24933029990643
            ],
            [
              7.523500233422965,
              46.24935129377991
            ],
            [
              7.523791230283678,
              46.24961029458791
            ],
            [
              7.523840225767344,
              46.249640294350684
            ],
            [
              7.524010229855776,
              46.24968029698357
            ],
            [
              7.524160231463611,
              46.24969029566273
            ],
            [
              7.52431123284623,
              46.249651294667274
            ],
            [
              7.524530231487006,
              46.24967029970139
            ],
            [
              7.5249602338299155,
              46.24967029923573
            ],
            [
              7.525160225108266,
              46.24969029799104
            ],
            [
              7.525211223401129,
              46.24969029566273
            ],
            [
              7.525421229656786,
              46.249680295120925
            ],
            [
              7.525600227061659,
              46.249650293495506
            ],
            [
              7.525650226511061,
              46.249650300014764
            ],
            [
              7.525740224402398,
              46.249680295120925
            ],
            [
              7.525871228426695,
              46.24973030062392
            ],
            [
              7.525920222513378,
              46.2497502961196
            ],
            [
              7.5262402249500155,
              46.24978029448539
            ],
            [
              7.526410231832415,
              46.249780299142
            ],
            [
              7.5268412246368825,
              46.24975029937923
            ],
            [
              7.5270812259987,
              46.249750293791294
            ],
            [
              7.527410222683102,
              46.24976130062714
            ],
            [
              7.527741231489927,
              46.249741297680885
            ],
            [
              7.52795122936368,
              46.24975029984489
            ],
            [
              7.528410233557224,
              46.24981030076742
            ],
            [
              7.528501224704087,
              46.24982029525563
            ],
            [
              7.528681231662631,
              46.24979029688984
            ],
            [
              7.528860228136182,
              46.24980029370636
            ],
            [
              7.5289802313782275,
              46.24982129316777
            ],
            [
              7.529100227635354,
              46.24983029300347
            ],
            [
              7.529420230537653,
              46.249820296652615
            ],
            [
              7.529570229817182,
              46.24982029385865
            ],
            [
              7.5296812215819955,
              46.24984130030498
            ],
            [
              7.529821223579347,
              46.24984129657969
            ],
            [
              7.5299312262795866,
              46.249860297422856
            ],
            [
              7.530451228842139,
              46.249881298746914
            ],
            [
              7.5305202305316925,
              46.24990029586479
            ],
            [
              7.530560227576643,
              46.24992029648274
            ],
            [
              7.530559229198843,
              46.249920297414064
            ],
            [
              7.530559229198843,
              46.249920297414064
            ],
            [
              7.530560227576643,
              46.24992029648274
            ],
            [
              7.530590232461691,
              46.249951297882944
            ],
            [
              7.530621223151684,
              46.24995129974559
            ],
            [
              7.530621227808297,
              46.24995429534465
            ],
            [
              7.530621227808297,
              46.24995429487899
            ],
            [
              7.530612222850323,
              46.25004429323599
            ],
            [
              7.530603229533881,
              46.250133293215185
            ]
          ],
          [
            [
              7.530585220549256,
              46.250313290860504
            ],
            [
              7.530571221839637,
              46.250448289792985
            ],
            [
              7.530571221839637,
              46.250448289792985
            ],
            [
              7.5305122174322605,
              46.250546290539205
            ],
            [
              7.5305122174322605,
              46.250546290539205
            ],
            [
              7.530510229058564,
              46.250551293604076
            ],
            [
              7.530500229913741,
              46.25065128784627
            ],
            [
              7.530511226505041,
              46.25072129210457
            ],
            [
              7.530550222378224,
              46.25077029550448
            ],
            [
              7.5308702271431684,
              46.25092029105872
            ],
            [
              7.531030227430165,
              46.25095129525289
            ],
            [
              7.531560222618282,
              46.25100129470229
            ],
            [
              7.531800217926502,
              46.25104029290378
            ],
            [
              7.531970222946256,
              46.25109029561281
            ],
            [
              7.532200229354203,
              46.25121028861031
            ],
            [
              7.532280222978443,
              46.251240295358
            ],
            [
              7.532361219637096,
              46.251250294968486
            ],
            [
              7.532471225131303,
              46.25126128690317
            ],
            [
              7.532580226659775,
              46.251261287368834
            ],
            [
              7.533280225936323,
              46.25119128962979
            ],
            [
              7.533350220415741,
              46.251160295680165
            ],
            [
              7.5334402224980295,
              46.251091287471354
            ],
            [
              7.533521217759699,
              46.251040287315845
            ],
            [
              7.533640222158283,
              46.25099128810689
            ],
            [
              7.533680225722492,
              46.250991290435195
            ],
            [
              7.533780227415264,
              46.25099128810689
            ],
            [
              7.534060228150338,
              46.25112029444426
            ],
            [
              7.534171222243458,
              46.251140288542956
            ],
            [
              7.534220222383738,
              46.251131287775934
            ],
            [
              7.534390218090266,
              46.25107028987259
            ],
            [
              7.534451218787581,
              46.25105028646067
            ],
            [
              7.534520226530731,
              46.25101128639653
            ],
            [
              7.534650223329663,
              46.25099028972909
            ],
            [
              7.534740229137242,
              46.25099129322916
            ],
            [
              7.534860228188336,
              46.250970295164734
            ],
            [
              7.534970222041011,
              46.25093028880656
            ],
            [
              7.535100220702589,
              46.25091029005125
            ],
            [
              7.535301219206303,
              46.25082028936595
            ],
            [
              7.535410223528743,
              46.25080028967932
            ],
            [
              7.535780217964202,
              46.25076028658077
            ],
            [
              7.536110228393227,
              46.250680294819176
            ],
            [
              7.5361802275292575,
              46.25066029187292
            ],
            [
              7.536230223253369,
              46.250621289014816
            ],
            [
              7.536340225953609,
              46.25052128965035
            ],
            [
              7.5364002282731235,
              46.25048029003665
            ],
            [
              7.536571221891791,
              46.25042129447684
            ],
            [
              7.536620225291699,
              46.25040029268712
            ],
            [
              7.536650228779763,
              46.250370293390006
            ],
            [
              7.536671220790595,
              46.25034029269591
            ],
            [
              7.536681224126369,
              46.25022029178217
            ],
            [
              7.5367102161981165,
              46.250161291565746
            ],
            [
              7.5367802223190665,
              46.250080288853496
            ],
            [
              7.536820224951953,
              46.250051288399845
            ],
            [
              7.536861219443381,
              46.250040287617594
            ],
            [
              7.5371702229604125,
              46.2500212918967
            ],
            [
              7.537211217451841,
              46.25001029111445
            ],
            [
              7.537260217126459,
              46.24998029321432
            ],
            [
              7.537510227411985,
              46.24974128836766
            ],
            [
              7.537600220646709,
              46.24970028921962
            ],
            [
              7.537598216440529,
              46.249696287792176
            ],
            [
              7.537598216440529,
              46.249696287792176
            ],
            [
              7.5377662177197635,
              46.24967728741467
            ],
            [
              7.5377662177197635,
              46.24967728694901
            ],
            [
              7.537818227428943,
              46.24974928749725
            ],
            [
              7.537818226963282,
              46.24974928703159
            ],
            [
              7.537831226363778,
              46.24980328511447
            ],
            [
              7.537831225898117,
              46.249803284648806
            ],
            [
              7.537896225228906,
              46.249866287223995
            ],
            [
              7.537896224763244,
              46.24986628629267
            ],
            [
              7.537948225624859,
              46.249983282759786
            ]
          ]
        ]
      }
    },
    {
      "type": "Feature",
      "properties": {
        "id": "ada10d5502354988a48d763d5fb089f6",
        "name": "Segment 002",
        "order": 2,
        "structure_type": "canalized",
        "water_status": "unknown",
        "continuous": true
      },
      "geometry": {
        "type": "LineString",
        "coordinates": [
          [
            7.530603229533881,
            46.250133293215185
          ],
          [
            7.530594225041568,
            46.25022329157218
          ],
          [
            7.530585220549256,
            46.250313290860504
          ]
        ]
      }
    }
  ]
}