{
  "type": "FeatureCollection",
  "features": [
    {
      "type": "Feature",
      "properties": {
        "id": "9a7a8a9aade9444981be0320cdab6f4e",
        "name": "Segment 001",
        "order": 1,
        "structure_type": "canalized",
        "water_status": "unknown",
        "continuous": false
      },
      "geometry": {
        "type": "MultiLineString",
        "coordinates": [
          [
            [
              7.622218289878219,
              46.21434837998822
            ],
            [
              7.6222212901338935,
              46.214350381400436
            ],
            [
              7.622200295329094,
              46.21433037286624
            ],
            [
              7.622060290072113,
              46.21436037449166
            ]
          ],
          [
            [
              7.603575282730162,
              46.2097693644464
            ],
            [
              7.603575282264501,
              46.20976936398074
            ],
            [
              7.603433283511549,
              46.209670366719365
            ],
            [
              7.603433283511549,
              46.209670366253704
            ],
            [
              7.603403284680098,
              46.209583359304816
            ],
            [
              7.6033712876960635,
              46.20949536561966
            ],
            [
              7.603341286070645,
              46.20940736029297
            ],
            [
              7.6033112881705165,
              46.20932036219165
            ],
            [
              7.603289275430143,
              46.209256363566965
            ],
            [
              7.603289275895804,
              46.209256363566965
            ],
            [
              7.60327928699553,
              46.20916635869071
            ],
            [
              7.60327028343454,
              46.209076361730695
            ],
            [
              7.603261282201856,
              46.20898736314848
            ],
            [
              7.603249278850853,
              46.20886935805902
            ],
            [
              7.603249278850853,
              46.20886935805902
            ],
            [
              7.6032712874002755,
              46.208781357854605
            ],
            [
              7.603294277563691,
              46.20869235787541
            ],
            [
              7.6033152882009745,
              46.20860435906798
            ],
            [
              7.603338277898729,
              46.20851535908878
            ],
            [
              7.60336028598249,
              46.208427358884364
            ],
            [
              7.603383275680244,
              46.208338358905166
            ],
            [
              7.6034132754430175,
              46.20821935776621
            ],
            [
              7.6034132754430175,
              46.20821935776621
            ],
            [
              7.603421283885837,
              46.2081293631345
            ],
            [
              7.60342927929014,
              46.20803935918957
            ],
            [
              7.603438275400549,
              46.20795036153868
            ],
            [
              7.60344528593123,
              46.20786035899073
            ],
            [
              7.603450276888907,
              46.20780536113307
            ],
            [
              7.603450277354568,
              46.20780536159873
            ],
            [
              7.603516280185431,
              46.20772836217657
            ],
            [
              7.603583280928433,
              46.20765136135742
            ],
            [
              7.60368328075856,
              46.20753536140546
            ],
            [
              7.60368328075856,
              46.20753536140546
            ],
            [
              7.603775277733803,
              46.20747235743329
            ],
            [
              7.603866286575794,
              46.20740835601464
            ],
            [
              7.603958283085376,
              46.20734536089003
            ],
            [
              7.604051287285984,
              46.207281357143074
            ],
            [
              7.604117281734943,
              46.20723636355251
            ],
            [
              7.604117281734943,
              46.20723636355251
            ],
            [
              7.604199277237058,
              46.2071653585881
            ],
            [
              7.604280280414969,
              46.2070963610895
            ],
            [
              7.604338278062642,
              46.20704635977745
            ],
            [
              7.604338278062642,
              46.20704635977745
            ],
            [
              7.604452285449952,
              46.207004364114255
            ],
            [
              7.604567274451256,
              46.20696135889739
            ],
            [
              7.604681284632534,
              46.20692036114633
            ],
            [
              7.604795275256038,
              46.20687735732645
            ],
            [
              7.604952278081328,
              46.20682035619393
            ],
            [
              7.604952278081328,
              46.20682035619393
            ],
            [
              7.60493227513507,
              46.206731365062296
            ],
            [
              7.6049002865329385,
              46.20659536216408
            ],
            [
              7.6049002865329385,
              46.20659536216408
            ],
            [
              7.604887280147523,
              46.2065063607879
            ],
            [
              7.604866279289126,
              46.20637035975233
            ]
          ]
        ]
      }
    },
    {
      "type": "Feature",
      "properties": {
        "id": "c8c721ce96f74363ad7ee6d4c258dae5",
        "name": "Segment 002",
        "order": 2,
        "structure_type": "open",
        "water_status": "unknown",
        "continuous": false
      },
      "geometry": {
        "type": "MultiLineString",
        "coordinates": [
          [
            [
              7.622060290072113,
              46.21436037449166
            ],
            [
              7.621861289255321,
              46.21446137363091
            ],
            [
              7.621571293100715,
              46.214550375472754
            ],
            [
              7.621430289465934,
              46.214580378029495
            ],
            [
              7.621260295622051,
              46.21459037531167
            ],
            [
              7.620690295938402,
              46.21461037034169
            ],
            [
              7.620685290079564,
              46.21460537659004
            ],
            [
              7.620685290079564,
              46.21460537659004
            ],
            [
              7.620690295938402,
              46.21461037034169
            ],
            [
              7.619700295850635,
              46.2145703737624
            ],
            [
              7.619600288569927,
              46.21456036809832
            ],
            [
              7.6194902919232845,
              46.214570375625044
            ],
            [
              7.619161294773221,
              46.214630369096994
            ],
            [
              7.618910293560475,
              46.21469037234783
            ],
            [
              7.618550292681903,
              46.21476037148386
            ],
            [
              7.618350291159004,
              46.214811369311064
            ],
            [
              7.618170293048024,
              46.21484136627987
            ],
            [
              7.61793128401041,
              46.21484036790207
            ],
            [
              7.617611288558692,
              46.214860366191715
            ],
            [
              7.61727028619498,
              46.214840366039425
            ],
            [
              7.617210291326046,
              46.214821371715516
            ],
            [
              7.617150293663144,
              46.2148213670589
            ],
            [
              7.617000286933035,
              46.21484136627987
            ],
            [
              7.616410291753709,
              46.21483037248254
            ],
            [
              7.616330289747566,
              46.214851367753
            ],
            [
              7.6162602850236,
              46.21485037030652
            ],
            [
              7.6161712859757245,
              46.21483036875725
            ],
            [
              7.615980288013816,
              46.21482136519626
            ],
            [
              7.6159302880987525,
              46.214831365738064
            ],
            [
              7.615891282912344,
              46.214851369615644
            ],
            [
              7.615830293856561,
              46.21486136922613
            ],
            [
              7.615690290927887,
              46.214881368912756
            ],
            [
              7.6156312874518335,
              46.214900369755924
            ],
            [
              7.615510287228972,
              46.21495036687702
            ],
            [
              7.615440282039344,
              46.21498136688024
            ],
            [
              7.614940287545323,
              46.2150403726846
            ],
            [
              7.614561283029616,
              46.2150703673251
            ],
            [
              7.614451291039586,
              46.215070366393775
            ],
            [
              7.6142812888138,
              46.21505037136376
            ],
            [
              7.613601290620863,
              46.21507036592811
            ],
            [
              7.613450290635228,
              46.21503136865795
            ],
            [
              7.61321029253304,
              46.214960366953164
            ],
            [
              7.613070284482092,
              46.21493036579341
            ],
            [
              7.612860290333629,
              46.21497036749497
            ],
            [
              7.61279028840363,
              46.21497036702931
            ],
            [
              7.612640289124101,
              46.21494037192315
            ],
            [
              7.612480285111815,
              46.21493037091568
            ],
            [
              7.612300293054432,
              46.21491036983207
            ],
            [
              7.611961289308965,
              46.21491136448458
            ],
            [
              7.61182128591463,
              46.21487036906183
            ],
            [
              7.611681287642568,
              46.214851367753
            ],
            [
              7.611541284248233,
              46.21481036301702
            ],
            [
              7.611320286989212,
              46.21478036604822
            ],
            [
              7.611180281732231,
              46.21473036520183
            ],
            [
              7.611020291689783,
              46.2146503678523
            ],
            [
              7.610691291280091,
              46.214440369047225
            ],
            [
              7.61063028825447,
              46.214421364013106
            ],
            [
              7.610390292480588,
              46.214361366350204
            ],
            [
              7.610090279951692,
              46.21431136364117
            ],
            [
              7.610020291060209,
              46.21429036511108
            ],
            [
              7.60965028218925,
              46.21412136498839
            ],
            [
              7.609421283006668,
              46.2140713701956
            ],
            [
              7.609300286043435,
              46.21401137113571
            ],
            [
              7.609241286292672,
              46.21399036515504
            ],
            [
              7.609190285205841,
              46.21397036360577
            ],
            [
              7.609111289028078,
              46.21389036718756
            ],
            [
              7.60905028693378,
              46.21387137006968
            ],
            [
              7.608890281058848,
              46.213830365333706
            ],
            [
              7.608841291628778,
              46.21381136775017
            ],
            [
              7.608710286673158,
              46.21372036682442
            ],
            [
              7.608630283270031,
              46.213620365131646
            ],
            [
              7.608600288163871,
              46.21357136592269
            ],
            [
              7.60859028249979,
              46.21349136531353
            ],
            [
              7.608591283205897,
              46.21332136448473
            ],
            [
              7.608571283984929,
              46.213261366821826
            ],
            [
              7.608540283050388,
              46.21323036914691
            ],
            [
              7.608490280341357,
              46.213210365734994
            ],
            [
              7.6083612884394825,
              46.21317036636174
            ],
            [
              7.608280282467604,
              46.213160367216915
            ],
            [
              7.60815129103139,
              46.21314136311412
            ],
            [
              7.608020290266722,
              46.2131303679198
            ],
            [
              7.607860281132162,
              46.21315036993474
            ],
            [
              7.60776128154248,
              46.2131503643468
            ],
            [
              7.607591290958226,
              46.213131366763264
            ],
            [
              7.607250288594514,
              46.21300136530772
            ],
            [
              7.606850286480039,
              46.212811368051916
            ],
            [
              7.606650291010737,
              46.21273036208004
            ],
            [
              7.606421290431172,
              46.21266036340967
            ],
            [
              7.606230285950005,
              46.212561370339245
            ],
            [
              7.606100286357105,
              46.212500364519656
            ],
            [
              7.606011290568858,
              46.212470369413495
            ],
            [
              7.605911285150796,
              46.21245036646724
            ],
            [
              7.605790283065289,
              46.212441368959844
            ],
            [
              7.605430282652378,
              46.21238036826253
            ],
            [
              7.605171287897974,
              46.21236136276275
            ],
            [
              7.605041278060526,
              46.2123303655535
            ],
            [
              7.604940282646567,
              46.21229136409238
            ],
            [
              7.604640284087509,
              46.21209136210382
            ],
            [
              7.604561276733875,
              46.212030360940844
            ],
            [
              7.604510278906673,
              46.21195036545396
            ],
            [
              7.604320286773145,
              46.2117303670384
            ],
            [
              7.6042302823625505,
              46.21161036193371
            ],
            [
              7.604081285186112,
              46.21146136010066
            ],
            [
              7.6039702873677015,
              46.211340359412134
            ],
            [
              7.603910288307816,
              46.211231366265565
            ],
            [
              7.603871286846697,
              46.2110813674517
            ],
            [
              7.603850280400366,
              46.210930361412466
            ],
            [
              7.603830278385431,
              46.210880366154015
            ],
            [
              7.603670288808644,
              46.21072035934776
            ],
            [
              7.603665278293192,
              46.210717361886054
            ],
            [
              7.603665278293192,
              46.210717361886054
            ],
            [
              7.603654281236231,
              46.21062836656347
            ],
            [
              7.60364427883178,
              46.210538362152874
            ],
            [
              7.603629282210022,
              46.2104163672775
            ],
            [
              7.603629282210022,
              46.2104163672775
            ],
            [
              7.603660285938531,
              46.2103293617256
            ],
            [
              7.603692287579179,
              46.210242363624275
            ],
            [
              7.603719288483262,
              46.210164359770715
            ],
            [
              7.603719288948923,
              46.210164359770715
            ],
            [
              7.603688278701156,
              46.210077363066375
            ],
            [
              7.603655286133289,
              46.2099903607741
            ],
            [
              7.6036242893897,
              46.20990336406976
            ],
            [
              7.603575282730162,
              46.2097693644464
            ]
          ],
          [
            [
              7.604866279289126,
              46.20637035975233
            ],
            [
              7.604866279289126,
              46.20637035975233
            ],
            [
              7.604940281715244,
              46.20629636151716
            ],
            [
              7.605012285988778,
              46.20622135838494
            ],
            [
              7.605104281567037,
              46.20612936047837
            ],
            [
              7.605104281567037,
              46.20612936047837
            ],
            [
              7.605180281680077,
              46.206056357361376
            ],
            [
              7.605256284587085,
              46.20598436193541
            ],
            [
              7.605349286459386,
              46.20589535776526
            ],
            [
              7.605349285993725,
              46.20589535776526
            ],
            [
              7.605330280028284,
              46.205891355872154
            ],
            [
              7.605361285153776,
              46.20587035920471
            ],
            [
              7.605390278622508,
              46.205801356583834
            ],
            [
              7.605381284840405,
              46.2056603631936
            ],
            [
              7.605400274507701,
              46.20548036042601
            ],
            [
              7.605391278862953,
              46.20513036334887
            ],
            [
              7.605400277301669,
              46.2051113601774
            ],
            [
              7.60564027633518,
              46.20489036338404
            ],
            [
              7.605750278104097,
              46.20481136394665
            ],
            [
              7.605780280660838,
              46.20478035695851
            ],
            [
              7.605780284386128,
              46.204760359600186
            ],
            [
              7.605741279199719,
              46.20466035883874
            ],
            [
              7.605740276165307,
              46.20462035667151
            ],
            [
              7.605744286440313,
              46.20461836270988
            ],
            [
              7.605744286440313,
              46.20461836270988
            ],
            [
              7.605740276165307,
              46.20462035667151
            ],
            [
              7.605831278953701,
              46.20448035886511
            ],
            [
              7.605831285472959,
              46.20446136035025
            ],
            [
              7.60581027995795,
              46.20443035615608
            ],
            [
              7.6057712864130735,
              46.20441036252305
            ],
            [
              7.6057102787308395,
              46.20438136020675
            ],
            [
              7.60553028434515,
              46.20433135703206
            ],
            [
              7.60549128241837,
              46.20432135742158
            ],
            [
              7.605430277064443,
              46.20428035501391
            ],
            [
              7.605380272958428,
              46.20415036100894
            ],
            [
              7.605371283367276,
              46.20409136265516
            ],
            [
              7.605280277784914,
              46.203941359650344
            ],
            [
              7.605281284544617,
              46.203910359181464
            ],
            [
              7.6053112805821,
              46.20386036252603
            ],
            [
              7.6053212764672935,
              46.203790361993015
            ],
            [
              7.60531027847901,
              46.20365036139265
            ],
            [
              7.605301281902939,
              46.20361036201939
            ],
            [
              7.605150273069739,
              46.2034413581714
            ],
            [
              7.605130278505385,
              46.20338036119938
            ],
            [
              7.604990279302001,
              46.203201355878264
            ],
            [
              7.604981283657253,
              46.203140360768884
            ],
            [
              7.605000275187194,
              46.203050358686596
            ],
            [
              7.605020279996097,
              46.20288035739213
            ],
            [
              7.605020274408162,
              46.20286135841161
            ],
            [
              7.60498128272593,
              46.20282035972923
            ],
            [
              7.6049112803302705,
              46.202691357117146
            ],
            [
              7.604800281580538,
              46.20259035518393
            ],
            [
              7.604711276479065,
              46.20253035845235
            ],
            [
              7.604670276399702,
              46.20251035830006
            ],
            [
              7.604581279214472,
              46.202491354662925
            ],
            [
              7.604460275731981,
              46.20244035543874
            ],
            [
              7.604360280558467,
              46.20240035420284
            ],
            [
              7.604330279864371,
              46.20238035544753
            ],
            [
              7.604260281194001,
              46.20223035663366
            ],
            [
              7.604130271822214,
              46.20210136054084
            ],
            [
              7.604120275937021,
              46.20206035487354
            ],
            [
              7.604121281765401,
              46.201990358531475
            ],
            [
              7.604260283987969,
              46.201820354908705
            ],
            [
              7.604300271254033,
              46.201741360127926
            ],
            [
              7.604341282509267,
              46.20149135729298
            ],
            [
              7.604501282796264,
              46.20129135809839
            ],
            [
              7.604540273081511,
              46.20108035393059
            ],
            [
              7.60454027261585,
              46.20099035277963
            ],
            [
              7.60456127114594,
              46.20095135318115
            ],
            [
              7.604550275485963,
              46.20084135234356
            ],
            [
              7.604530282318592,
              46.20081035559997
            ],
            [
              7.604470273014158,
              46.20066035166383
            ],
            [
              7.604460271075368,
              46.200570355635136
            ],
            [
              7.604420273564756,
              46.20041035488248
            ],
            [
              7.604420280549675,
              46.20036135567352
            ],
            [
              7.604441276751459,
              46.2003003526479
            ],
            [
              7.604440273717046,
              46.20014035794884
            ],
            [
              7.604420278221369,
              46.199980354402214
            ],
            [
              7.604431276675314,
              46.199950356036425
            ],
            [
              7.604581274092197,
              46.19981135148555
            ],
            [
              7.604701278731227,
              46.19968035258353
            ],
            [
              7.604720269329846,
              46.19959035050124
            ],
            [
              7.6048402725718915,
              46.19948034733534
            ],
            [
              7.60486026853323,
              46.19943135464564
            ],
            [
              7.604850268457085,
              46.19941034633666
            ],
            [
              7.604750269092619,
              46.199320347514
            ],
            [
              7.604480273555964,
              46.1991303502582
            ],
            [
              7.604370269924402,
              46.19906035391614
            ],
            [
              7.604261272121221,
              46.19900134857744
            ],
            [
              7.6041802717372775,
              46.19887034641579
            ],
            [
              7.604110276326537,
              46.19877135241404
            ],
            [
              7.604050271678716,
              46.19866035319865
            ],
            [
              7.603860271163285,
              46.19843035005033
            ],
            [
              7.60382126364857,
              46.19830134604126
            ],
            [
              7.603801268152893,
              46.1981103438884
            ],
            [
              7.60378026496619,
              46.19801034266129
            ],
            [
              7.603730270173401,
              46.19791034795344
            ],
            [
              7.603670273907483,
              46.19784034136683
            ],
            [
              7.603630266152322,
              46.19773134542629
            ],
            [
              7.603600265458226,
              46.19768034806475
            ],
            [
              7.60356127191335,
              46.19764134520665
            ],
            [
              7.603520273696631,
              46.19753034505993
            ],
            [
              7.603490270208567,
              46.1974913473241
            ],
            [
              7.603320268448442,
              46.19733134564012
            ],
            [
              7.603150272741914,
              46.19722034363076
            ],
            [
              7.603080264758319,
              46.197150342166424
            ],
            [
              7.602980271913111,
              46.19705134630203
            ],
            [
              7.602910270914435,
              46.19694034289569
            ],
            [
              7.602880264632404,
              46.196891341824085
            ],
            [
              7.6028202646411955,
              46.19671134557575
            ],
            [
              7.6027912688441575,
              46.19654134334996
            ],
            [
              7.60279027139768,
              46.19642034498975
            ],
            [
              7.602771264966577,
              46.196350341662765
            ],
            [
              7.602751261554658,
              46.19621134316549
            ],
            [
              7.602721264120191,
              46.196100344881415
            ],
            [
              7.602621261496097,
              46.1959713390097
            ],
            [
              7.602570268325508,
              46.195891343057156
            ],
            [
              7.60245026787743,
              46.19578033918515
            ],
            [
              7.602391262538731,
              46.19574133865535
            ],
            [
              7.602388270199299,
              46.195741342846304
            ],
            [
              7.602388270199299,
              46.195741342846304
            ],
            [
              7.602388270199299,
              46.195741342846304
            ],
            [
              7.6023922632448375,
              46.19574234448373
            ],
            [
              7.602370266336948,
              46.195720336865634
            ],
            [
              7.602310266811401,
              46.1956303413026
            ],
            [
              7.602272261399776,
              46.195431341417134
            ],
            [
              7.602250263560563,
              46.195400338154286
            ],
            [
              7.602160268463194,
              46.19534233817831
            ],
            [
              7.6021202662959695,
              46.19532033847645
            ],
            [
              7.602090265136212,
              46.195320336613804
            ],
            [
              7.602060269098729,
              46.19530033739284
            ],
            [
              7.601970267947763,
              46.19514033617452
            ],
            [
              7.601940268650651,
              46.19503234187141
            ],
            [
              7.60190126253292,
              46.19484034180641
            ],
            [
              7.601871265098453,
              46.1947503387928
            ],
            [
              7.6018402660265565,
              46.1945413434878
            ],
            [
              7.601840265095234,
              46.19448034418747
            ],
            [
              7.601870260667056,
              46.194400338921696
            ],
            [
              7.601930259726942,
              46.19433033885434
            ],
            [
              7.601960260886699,
              46.194252339657396
            ],
            [
              7.601980268955231,
              46.19412033632398
            ],
            [
              7.601980259176344,
              46.19408233882859
            ],
            [
              7.601962266024202,
              46.19402133859694
            ],
            [
              7.601940265391022,
              46.193980341311544
            ],
            [
              7.601920270361006,
              46.1939603369683
            ],
            [
              7.601890260353684,
              46.193922337610275
            ],
            [
              7.601830258965492,
              46.193800335749984
            ],
            [
              7.601802266202867,
              46.193800339475274
            ],
            [
              7.6017802665010095,
              46.1937813363038
            ],
            [
              7.601771262008697,
              46.193750341422856
            ],
            [
              7.601720267906785,
              46.19366034120321
            ],
            [
              7.6017002603039145,
              46.19364033639431
            ],
            [
              7.6016502673737705,
              46.19356033811346
            ],
            [
              7.601630257442594,
              46.19350033905357
            ],
            [
              7.601512269116938,
              46.19341033603996
            ],
            [
              7.60145125631243,
              46.19337033899501
            ],
            [
              7.601401259191334,
              46.193070336245
            ],
            [
              7.601290269289166,
              46.19297233549878
            ],
            [
              7.601210257504135,
              46.19285033410415
            ],
            [
              7.601181257981807,
              46.1927423379384
            ],
            [
              7.601100266911089,
              46.19253033678979
            ],
            [
              7.60104025574401,
              46.19243033695966
            ],
            [
              7.601010260172188,
              46.192261334042996
            ],
            [
              7.601081257686019,
              46.19217033172026
            ],
            [
              7.601110258605331,
              46.19210033118725
            ],
            [
              7.601020259317011,
              46.19213033374399
            ],
            [
              7.6010702541098,
              46.19207233050838
            ],
            [
              7.601090259384364,
              46.19193033268675
            ],
            [
              7.601090258453041,
              46.19179033394903
            ],
            [
              7.60110026365146,
              46.19177033146843
            ],
            [
              7.601240263786167,
              46.191680336836725
            ],
            [
              7.601250257343054,
              46.191630334127694
            ],
            [
              7.601241257973015,
              46.191570336930454
            ],
            [
              7.601241257973015,
              46.19152233656496
            ],
            [
              7.601270264480263,
              46.191480330657214
            ],
            [
              7.601340252906084,
              46.19134233659133
            ],
            [
              7.60137126268819,
              46.191242332570255
            ],
            [
              7.601350258104503,
              46.191200335044414
            ],
            [
              7.6012412630952895,
              46.19114032899961
            ],
            [
              7.601080263033509,
              46.191032332833856
            ],
            [
              7.601050252560526,
              46.19098033616319
            ],
            [
              7.60106025962159,
              46.190952327568084
            ],
            [
              7.6010602647438645,
              46.19091033609584
            ],
            [
              7.601122257299721,
              46.19074032921344
            ],
            [
              7.601131259929389,
              46.190701329149306
            ],
            [
              7.601330253761262,
              46.190331333782524
            ],
            [
              7.601360252592713,
              46.19023133162409
            ],
            [
              7.601352255325764,
              46.19014233164489
            ],
            [
              7.601301251444966,
              46.189960333518684
            ],
            [
              7.601280259899795,
              46.18987032631412
            ],
            [
              7.601290251594037,
              46.18946233438328
            ],
            [
              7.601280253380537,
              46.189410327002406
            ],
            [
              7.601250258740038,
              46.189350333064795
            ],
            [
              7.601180259604007,
              46.18927032779902
            ],
            [
              7.601090258453041,
              46.18911032564938
            ],
            [
              7.601021257229149,
              46.18903032736853
            ],
            [
              7.600951259955764,
              46.188981329556555
            ],
            [
              7.600947254803032,
              46.188980327453464
            ],
            [
              7.600947254803032,
              46.188980327453464
            ],
            [
              7.600951257161796,
              46.18898033071309
            ],
            [
              7.600860257167369,
              46.1889113294892
            ],
            [
              7.60084025375545,
              46.18887032940984
            ],
            [
              7.60082026058808,
              46.18871032586321
            ],
            [
              7.600700259208679,
              46.18860132666305
            ],
            [
              7.60064025176689,
              46.188531327527016
            ],
            [
              7.600620254874229,
              46.18847032962367
            ],
            [
              7.600631256122142,
              46.188441330567
            ],
            [
              7.600751259829849,
              46.18834132608026
            ],
            [
              7.6008102535270154,
              46.188270329497755
            ],
            [
              7.600881251040846,
              46.18808033084497
            ],
            [
              7.600930257700384,
              46.188000325579196
            ],
            [
              7.601081249304116,
              46.18782033212483
            ],
            [
              7.601170253474265,
              46.18767132703215
            ],
            [
              7.601200261153281,
              46.187570326495916
            ],
            [
              7.601211250759661,
              46.18751132627949
            ],
            [
              7.601160260848701,
              46.18749033100903
            ],
            [
              7.601081257686019,
              46.18733032140881
            ],
            [
              7.601070254575461,
              46.187210326083004
            ],
            [
              7.601090248674154,
              46.18709132121876
            ],
            [
              7.601090252399445,
              46.18704032478854
            ],
            [
              7.601060246117413,
              46.1869803215377
            ],
            [
              7.601000252645463,
              46.18691032193601
            ],
            [
              7.6009002472274005,
              46.186830322258174
            ],
            [
              7.600841253064573,
              46.186730321031064
            ],
            [
              7.6008602529764175,
              46.18666031677276
            ],
            [
              7.600810247007757,
              46.18662131996825
            ],
            [
              7.600730249192566,
              46.18653131555766
            ],
            [
              7.600690244697034,
              46.186340322718024
            ],
            [
              7.600620246026665,
              46.18625032156706
            ],
            [
              7.60060124238953,
              46.18617031443864
            ],
            [
              7.6005902462638915,
              46.186100317165256
            ],
            [
              7.600551243405789,
              46.18598031671718
            ],
            [
              7.600560244638473,
              46.18591031804681
            ],
            [
              7.600610247347504,
              46.18583031138405
            ],
            [
              7.600650243461132,
              46.185800317209214
            ],
            [
              7.60094024380669,
              46.18567031156272
            ],
            [
              7.601090249139816,
              46.18563131708652
            ],
            [
              7.601170245092362,
              46.185590317472816
            ],
            [
              7.601220247335732,
              46.1855803146027
            ],
            [
              7.601310239173472,
              46.18556031445041
            ],
            [
              7.601560246665031,
              46.18554031802341
            ],
            [
              7.601841242983937,
              46.18551030987874
            ],
            [
              7.6019302466884255,
              46.18548031663522
            ],
            [
              7.602080239448696,
              46.18542031571269
            ],
            [
              7.602371238172054,
              46.18524031667039
            ],
            [
              7.602400247007608,
              46.18517031567171
            ],
            [
              7.602410244289786,
              46.185070315375924
            ],
            [
              7.602408237755299,
              46.185066314879805
            ]
          ]
        ]
      }
    }
  ]
}