{
  "type": "FeatureCollection",
  "features": [
    {
      "type": "Feature",
      "properties": {
        "id": "296ec8f1b1e74ff9a0ecb35502495eb6",
        "name": "Segment 001",
        "order": 1,
        "structure_type": "explorationencours",
        "structure_types": [
          "explorationencours"
        ],
        "display_mode": "single",
        "bicolor_colors": [],
        "water_status": "unknown",
        "continuous": true
      },
      "geometry": {
        "type": "LineString",
        "coordinates": [
          [
            7.392897007986903,
            46.14834458101541
          ],
          [
            7.3928671651519835,
            46.148431825917214
          ],
          [
            7.3928373218514025,
            46.14851997047663
          ],
          [
            7.3928087735548615,
            46.14860721537843
          ],
          [
            7.392769846133888,
            46.14872234221548
          ],
          [
            7.392710193991661,
            46.148710255511105
          ],
          [
            7.392710193991661,
            46.148730255197734
          ],
          [
            7.392670193687081,
            46.14883025502786
          ],
          [
            7.392620193306357,
            46.1489102547057
          ],
          [
            7.3925301930867136,
            46.14906025445089
          ],
          [
            7.392510192934424,
            46.149100254289806
          ],
          [
            7.3924301927909255,
            46.14919025404379
          ],
          [
            7.392390192486346,
            46.149250253569335
          ],
          [
            7.392280192580074,
            46.14943025354296
          ],
          [
            7.392260192427784,
            46.14950025361031
          ],
          [
            7.392250192817301,
            46.149570253677666
          ],
          [
            7.392243635840714,
            46.14956950303167
          ],
          [
            7.392287568189204,
            46.1496540796943
          ],
          [
            7.39233279414475,
            46.14973955601454
          ],
          [
            7.392290009185672,
            46.14982409635559
          ],
          [
            7.392247224226594,
            46.14990863669664
          ],
          [
            7.392204437870532,
            46.14999407669529
          ],
          [
            7.392161652445793,
            46.15007861657068
          ],
          [
            7.39211886562407,
            46.15016405656934
          ],
          [
            7.392076080199331,
            46.150248596444726
          ],
          [
            7.392013844568282,
            46.15037270821631
          ],
          [
            7.391995645593852,
            46.15046175569296
          ],
          [
            7.3919774470850825,
            46.15055080363527
          ],
          [
            7.391959248576313,
            46.15063985157758
          ],
          [
            7.391938449349254,
            46.1507432917133
          ],
          [
            7.391900839284062,
            46.1508287335746
          ],
          [
            7.391861933749169,
            46.15091507462785
          ],
          [
            7.391824323683977,
            46.15100051648915
          ],
          [
            7.391785418614745,
            46.151086857542396
          ],
          [
            7.391745217610151,
            46.15117499791086
          ],
          [
            7.3917529047466815,
            46.151264956686646
          ],
          [
            7.391759297344834,
            46.15135491499677
          ],
          [
            7.391765690408647,
            46.15144487377256
          ],
          [
            7.391774648800492,
            46.15156182041392
          ],
          [
            7.391805635765195,
            46.15164908999577
          ],
          [
            7.391835329122841,
            46.151736359111965
          ],
          [
            7.391866316553205,
            46.15182362869382
          ],
          [
            7.391896008979529,
            46.15191179746762
          ],
          [
            7.391915374435484,
            46.15196847775951
          ],
          [
            7.39190623536706,
            46.15205842908472
          ],
          [
            7.391897096764296,
            46.15214748121798
          ],
          [
            7.391887957695872,
            46.15223743347451
          ],
          [
            7.391878818627447,
            46.15232738479972
          ],
          [
            7.391869679093361,
            46.15241733659059
          ],
          [
            7.391863153781742,
            46.15247850352898
          ],
          [
            7.391868253238499,
            46.15256756171584
          ],
          [
            7.391873351763934,
            46.15265751956031
          ],
          [
            7.39187845075503,
            46.15274747740477
          ],
          [
            7.391883549280465,
            46.15283743524924
          ],
          [
            7.391888648271561,
            46.15292739355937
          ],
          [
            7.391892474144697,
            46.15299306297675
          ],
          [
            7.391994681674987,
            46.15304797887802
          ],
          [
            7.392098184674978,
            46.15310199605301
          ],
          [
            7.392173222731799,
            46.15314250765368
          ]
        ]
      }
    },
    {
      "type": "Feature",
      "properties": {
        "id": "ff98cc16cfeb4d489e9af8e37ddb5ca0",
        "name": "Segment 002",
        "order": 2,
        "structure_type": "canalabandonn",
        "structure_types": [
          "canalabandonn"
        ],
        "display_mode": "single",
        "bicolor_colors": [],
        "water_status": "unknown",
        "continuous": false
      },
      "geometry": {
        "type": "MultiLineString",
        "coordinates": [
          [
            [
              7.392173222731799,
              46.15314250765368
            ],
            [
              7.392208095639944,
              46.153228879440576
            ],
            [
              7.392262341920286,
              46.15336383506656
            ],
            [
              7.3922933312132955,
              46.15345110511407
            ],
            [
              7.3923243205063045,
              46.15353837469593
            ],
            [
              7.392354015726596,
              46.15362564381212
            ],
            [
              7.392385004553944,
              46.15371381351724
            ],
            [
              7.392415994312614,
              46.15380108356476
            ],
            [
              7.392449562903494,
              46.153900048695505
            ],
            [
              7.3924501980654895,
              46.15390025917441
            ],
            [
              7.392470197752118,
              46.15393025940284
            ],
            [
              7.392510198056698,
              46.15399025939405
            ],
            [
              7.392530197743326,
              46.15402025915682
            ],
            [
              7.392550197895616,
              46.15404025930911
            ],
            [
              7.392650198191404,
              46.15416025975719
            ],
            [
              7.392680198419839,
              46.15420025959611
            ],
            [
              7.392710198182613,
              46.15426025958732
            ],
            [
              7.3927301983349025,
              46.15432026004419
            ],
            [
              7.3927301983349025,
              46.15439026011154
            ],
            [
              7.3927301983349025,
              46.15439025964588
            ],
            [
              7.392730032559484,
              46.15439043240622
            ],
            [
              7.392824471462518,
              46.15445164125413
            ],
            [
              7.392918909434229,
              46.15451374929398
            ],
            [
              7.393013347871602,
              46.15457495721057
            ],
            [
              7.393107787240297,
              46.15463616512716
            ],
            [
              7.393202225677669,
              46.15469827270135
            ],
            [
              7.3932682033628225,
              46.15474147768691
            ],
            [
              7.393366529140621,
              46.154799988958985
            ],
            [
              7.393464855384082,
              46.15485760057345
            ],
            [
              7.3935631811618805,
              46.15491611137986
            ],
            [
              7.393708082847297,
              46.15500252740458
            ],
            [
              7.393805115483701,
              46.15506103821099
            ],
            [
              7.393903441727161,
              46.15512044914067
            ],
            [
              7.3940004743635654,
              46.15517895948142
            ],
            [
              7.394102681893855,
              46.15524106984958
            ],
            [
              7.394213964696974,
              46.155286092311144
            ],
            [
              7.3943252470344305,
              46.155332014430314
            ],
            [
              7.3944365293718874,
              46.15537793608382
            ],
            [
              7.394607335794717,
              46.15544816944748
            ],
            [
              7.39471343671903,
              46.155499486252666
            ],
            [
              7.394819538574666,
              46.15554990340024
            ],
            [
              7.394963163416833,
              46.15561922593042
            ],
            [
              7.395008400082588,
              46.155702902469784
            ],
            [
              7.3950549303554,
              46.15578747866675
            ],
            [
              7.395101461093873,
              46.15587115474045
            ],
            [
              7.395150575321168,
              46.15596112795174
            ],
            [
              7.395150567870587,
              46.15596111956984
            ],
            [
              7.395273515488952,
              46.155989952385426
            ],
            [
              7.395395168103278,
              46.15601878426969
            ],
            [
              7.395518115721643,
              46.156047616153955
            ],
            [
              7.395641063340008,
              46.15607644896954
            ],
            [
              7.395764011424035,
              46.15610528131947
            ],
            [
              7.395885665435344,
              46.156134113203734
            ],
            [
              7.396008614450693,
              46.15616294648498
            ],
            [
              7.396131564397365,
              46.15619177976623
            ],
            [
              7.396254514344037,
              46.1562206139788
            ],
            [
              7.396376170683652,
              46.15624944772571
            ],
            [
              7.3964991215616465,
              46.156278281938285
            ],
            [
              7.396622071508318,
              46.15630801487714
            ],
            [
              7.396743727847934,
              46.15633684769273
            ],
            [
              7.396866678260267,
              46.15636568097398
            ],
            [
              7.396941743791103,
              46.15638280194253
            ],
            [
              7.397011703345925,
              46.15630726562813
            ],
            [
              7.39708036929369,
              46.156230829656124
            ],
            [
              7.3971490347757936,
              46.15615439368412
            ],
            [
              7.397218994330615,
              46.15607885783538
            ],
            [
              7.397287659347057,
              46.15600242186338
            ],
            [
              7.397356323897839,
              46.15592688554898
            ],
            [
              7.39742498844862,
              46.155850449576974
            ],
            [
              7.397494948003441,
              46.15577401407063
            ],
            [
              7.3975636116229,
              46.15569847775623
            ],
            [
              7.397632276173681,
              46.155622041318566
            ],
            [
              7.397675028536469,
              46.15557528054342
            ],
            [
              7.397675035987049,
              46.15557528892532
            ]
          ],
          [
            [
              7.400184262543917,
              46.158301847055554
            ],
            [
              7.400256701279432,
              46.1583756362088
            ],
            [
              7.400329139549285,
              46.158450324553996
            ],
            [
              7.400432622525841,
              46.158557408023626
            ],
            [
              7.400489523075521,
              46.158637487795204
            ],
            [
              7.40054642315954,
              46.15871846769005
            ],
            [
              7.400600736960769,
              46.158795848023146
            ],
            [
              7.400645984802395,
              46.1588795222342
            ],
            [
              7.40069123217836,
              46.15896409610286
            ],
            [
              7.400735185481608,
              46.159048669505864
            ]
          ],
          [
            [
              7.400872309226543,
              46.15918275108561
            ],
            [
              7.400970650371164,
              46.15924215549603
            ],
            [
              7.401067697443068,
              46.15930155897513
            ],
            [
              7.401166039053351,
              46.15936096338555
            ],
            [
              7.401263087056577,
              46.159419467672706
            ],
            [
              7.401360134594142,
              46.159478871151805
            ],
            [
              7.401486943941563,
              46.15955627569929
            ],
            [
              7.401595650240779,
              46.159604888409376
            ],
            [
              7.4017043565399945,
              46.159653501119465
            ],
            [
              7.401813063304871,
              46.15970211336389
            ],
            [
              7.401921770069748,
              46.15975072514266
            ],
            [
              7.402030476834625,
              46.159799337387085
            ],
            [
              7.402140479069203,
              46.159847950562835
            ],
            [
              7.402250480372459,
              46.15989836258814
            ],
            [
              7.4023565971292555,
              46.15994967194274
            ],
            [
              7.402462713886052,
              46.160000981763005
            ],
            [
              7.4025688311085105,
              46.16005229111761
            ]
          ],
          [
            [
              7.40559019241482,
              46.162200251594186
            ],
            [
              7.405600192490965,
              46.162260251585394
            ],
            [
              7.4056301927194,
              46.162370251491666
            ],
            [
              7.405700192321092,
              46.16252025170252
            ]
          ],
          [
            [
              7.409930190537125,
              46.16529024904594
            ],
            [
              7.410090190824121,
              46.16532024927437
            ],
            [
              7.4101601908914745,
              46.16535024903715
            ],
            [
              7.410290190484375,
              46.165390249341726
            ],
            [
              7.410460190847516,
              46.16546024940908
            ],
            [
              7.41049019061029,
              46.16547024901956
            ],
            [
              7.410760190803558,
              46.16559024900198
            ],
            [
              7.411000190768391,
              46.16569024929777
            ],
            [
              7.411110190674663,
              46.16572024906054
            ],
            [
              7.411240190733224,
              46.165750249288976
            ],
            [
              7.411420190706849,
              46.16587024927139
            ],
            [
              7.411420190706849,
              46.16587024927139
            ],
            [
              7.4114701906219125,
              46.1658502491191
            ],
            [
              7.411520190536976,
              46.16587024927139
            ],
            [
              7.411530190613121,
              46.16588024934754
            ],
            [
              7.411570190452039,
              46.165920249186456
            ],
            [
              7.411620190832764,
              46.16595024894923
            ],
            [
              7.411660190671682,
              46.165980249177665
            ],
            [
              7.4117501908913255,
              46.16605024924502
            ],
            [
              7.411940190475434,
              46.16619024891406
            ],
            [
              7.412000190466642,
              46.1662202491425
            ],
            [
              7.412040190771222,
              46.166240248829126
            ],
            [
              7.412070190533996,
              46.16625024890527
            ],
            [
              7.412110190372914,
              46.166280249133706
            ],
            [
              7.412160190753639,
              46.16633024904877
            ],
            [
              7.412230190355331,
              46.16640024911612
            ],
            [
              7.412300190422684,
              46.166450249031186
            ],
            [
              7.412340190727264,
              46.16646024910733
            ],
            [
              7.412380190566182,
              46.166470249183476
            ],
            [
              7.412470190785825,
              46.166510249022394
            ],
            [
              7.412560190539807,
              46.16654024878517
            ],
            [
              7.4126001903787255,
              46.16655024886131
            ],
            [
              7.412720190361142,
              46.16659024916589
            ],
            [
              7.412770190741867,
              46.16661024885252
            ],
            [
              7.41280019050464,
              46.166620248928666
            ],
            [
              7.4128901907242835,
              46.166620248928666
            ],
            [
              7.413020190782845,
              46.166640249080956
            ],
            [
              7.413100190460682,
              46.166680248919874
            ],
            [
              7.413150190841407,
              46.166700249072164
            ],
            [
              7.41320019075647,
              46.166720249224454
            ],
            [
              7.413210190832615,
              46.166720249224454
            ],
            [
              7.413210190832615,
              46.166720249224454
            ],
            [
              7.413240190595388,
              46.16676024906337
            ],
            [
              7.413300190586597,
              46.16680024890229
            ],
            [
              7.41333019034937,
              46.166810248978436
            ],
            [
              7.413430190645158,
              46.166850248817354
            ],
            [
              7.413550190627575,
              46.16688024904579
            ],
            [
              7.41369019029662,
              46.16692024888471
            ],
            [
              7.413740190677345,
              46.166940249037
            ]
          ],
          [
            [
              7.414920190349221,
              46.16731024859473
            ],
            [
              7.415110190398991,
              46.167340248823166
            ],
            [
              7.415200190618634,
              46.16735024843365
            ],
            [
              7.4155101901851594,
              46.167400248814374
            ],
            [
              7.415590190328658,
              46.16741024842486
            ],
            [
              7.415630190167576,
              46.16741024842486
            ],
            [
              7.415690190158784,
              46.16743024857715
            ],
            [
              7.4157801903784275,
              46.16747024888173
            ]
          ],
          [
            [
              7.416260190308094,
              46.167580248788
            ],
            [
              7.416360190603882,
              46.16761024855077
            ],
            [
              7.41659019049257,
              46.16769024869427
            ]
          ],
          [
            [
              7.417090190574527,
              46.16769024869427
            ],
            [
              7.4171201903373,
              46.167700248770416
            ],
            [
              7.417160190176219,
              46.167700248770416
            ],
            [
              7.417220190167427,
              46.16769024869427
            ],
            [
              7.417280190158635,
              46.16769024869427
            ],
            [
              7.4173701903782785,
              46.167680248618126
            ],
            [
              7.417660190258175,
              46.16761024855077
            ],
            [
              7.417870190460235,
              46.167570248711854
            ],
            [
              7.417920190375298,
              46.16757024824619
            ],
            [
              7.4179901904426515,
              46.16758024832234
            ],
            [
              7.41805019043386,
              46.16754024848342
            ],
            [
              7.418110190425068,
              46.16752024879679
            ],
            [
              7.418180190492421,
              46.16747024888173
            ],
            [
              7.418250190559775,
              46.16746024880558
            ]
          ],
          [
            [
              7.422325361520052,
              46.16638451209292
            ],
            [
              7.422431542072445,
              46.16633235383779
            ],
            [
              7.422537722624838,
              46.166281095240265
            ],
            [
              7.422642608638853,
              46.166228936985135
            ],
            [
              7.422743609175086,
              46.16617947630584
            ],
            [
              7.422848494723439,
              46.166126417927444
            ]
          ]
        ]
      }
    },
    {
      "type": "Feature",
      "properties": {
        "id": "70243bf3fafc4804bd8bf44f280e9979",
        "name": "Segment 003",
        "order": 3,
        "structure_type": "abandoned",
        "structure_types": [
          "abandoned"
        ],
        "display_mode": "single",
        "bicolor_colors": [],
        "water_status": "unknown",
        "continuous": false
      },
      "geometry": {
        "type": "MultiLineString",
        "coordinates": [
          [
            [
              7.397675035987049,
              46.15557528892532
            ],
            [
              7.397669789381325,
              46.155665242578834
            ],
            [
              7.397665836848319,
              46.15575519669801
            ],
            [
              7.3976605902425945,
              46.15584425069392
            ],
            [
              7.39765532547608,
              46.15595759311691
            ],
            [
              7.397721283137798,
              46.156034079845995
            ],
            [
              7.397788534872234,
              46.15611146669835
            ],
            [
              7.397854492068291,
              46.15618885261938
            ],
            [
              7.397907517384738,
              46.156250041909516
            ],
            [
              7.397982539609075,
              46.15632293373346
            ],
            [
              7.398056267295033,
              46.156396724283695
            ],
            [
              7.39813128951937,
              46.15647051529959
            ],
            [
              7.398206312209368,
              46.156543407123536
            ],
            [
              7.398281334899366,
              46.15661719813943
            ],
            [
              7.398355063516647,
              46.156690089032054
            ],
            [
              7.398430086672306,
              46.15676388004795
            ],
            [
              7.3985051098279655,
              46.15683767106384
            ],
            [
              7.398612470831722,
              46.156942958477885
            ],
            [
              7.398684904910624,
              46.1570176477544
            ],
            [
              7.398757339455187,
              46.15709143737331
            ],
            [
              7.398829773999751,
              46.15716612664983
            ],
            [
              7.398900914005935,
              46.15724081546068
            ],
            [
              7.3989875772967935,
              46.1573299029842
            ],
            [
              7.399072962347418,
              46.157397400122136
            ],
            [
              7.399157052859664,
              46.15746489679441
            ],
            [
              7.399242437910289,
              46.15753329358995
            ],
            [
              7.3993278234265745,
              46.157600790727884
            ],
            [
              7.399413209408522,
              46.15766828786582
            ],
            [
              7.399498595390469,
              46.15773578500375
            ],
            [
              7.39961503027007,
              46.15782938012853
            ],
            [
              7.399693941697478,
              46.157900472637266
            ],
            [
              7.399774148128927,
              46.15797156607732
            ],
            [
              7.39988669520244,
              46.15807235613465
            ],
            [
              7.399973377585411,
              46.15813895361498
            ],
            [
              7.400060060434043,
              46.15820555109531
            ],
            [
              7.400184262543917,
              46.158301847055554
            ]
          ],
          [
            [
              7.400735185481608,
              46.159048669505864
            ],
            [
              7.4007752616889775,
              46.159124246332794
            ],
            [
              7.400872309226543,
              46.15918275108561
            ]
          ],
          [
            [
              7.4025688311085105,
              46.16005229111761
            ],
            [
              7.402676243335009,
              46.160103601403534
            ],
            [
              7.402781066484749,
              46.160154910292476
            ],
            [
              7.402904028072953,
              46.160183736123145
            ],
            [
              7.403029574081302,
              46.160220658406615
            ],
            [
              7.403030193410814,
              46.160220252815634
            ],
            [
              7.403090193402022,
              46.16023025289178
            ],
            [
              7.403160193469375,
              46.160260253120214
            ],
            [
              7.403280193451792,
              46.16030025295913
            ],
            [
              7.403340193443,
              46.16034025326371
            ],
            [
              7.403380193281919,
              46.16040025278926
            ],
            [
              7.403410193044692,
              46.16048025293276
            ],
            [
              7.403440193273127,
              46.16055025300011
            ],
            [
              7.403500193264335,
              46.16061025252566
            ],
            [
              7.403620193246752,
              46.160710252821445
            ],
            [
              7.403690193314105,
              46.160750252660364
            ],
            [
              7.403760192915797,
              46.16080025257543
            ],
            [
              7.403900193050504,
              46.16095025278628
            ],
            [
              7.4039301932789385,
              46.1609902526252
            ],
            [
              7.403980193194002,
              46.16104025254026
            ],
            [
              7.40402019303292,
              46.16112025268376
            ],
            [
              7.404060192871839,
              46.16115025244653
            ],
            [
              7.404180192854255,
              46.16123025259003
            ],
            [
              7.404260192997754,
              46.16130025219172
            ],
            [
              7.404400192666799,
              46.16146025247872
            ],
            [
              7.404490192886442,
              46.1615502522327
            ],
            [
              7.404540192801505,
              46.16159025207162
            ],
            [
              7.404630193021148,
              46.16161025222391
            ],
            [
              7.40474019292742,
              46.16164025198668
            ],
            [
              7.404820192605257,
              46.16165025206283
            ],
            [
              7.404850192833692,
              46.16166025213897
            ],
            [
              7.40493019297719,
              46.161690251901746
            ],
            [
              7.405020192731172,
              46.161710252054036
            ],
            [
              7.4051301926374435,
              46.16172025213018
            ],
            [
              7.405220192857087,
              46.16172025213018
            ],
            [
              7.405470192432404,
              46.1616802518256
            ],
            [
              7.405490192584693,
              46.161670251749456
            ],
            [
              7.40561019256711,
              46.16166025213897
            ],
            [
              7.4056301927194,
              46.16166025213897
            ],
            [
              7.40565019287169,
              46.16166025213897
            ],
            [
              7.405700192786753,
              46.16167025221512
            ],
            [
              7.405750192701817,
              46.161690251901746
            ],
            [
              7.40578019246459,
              46.16172025213018
            ],
            [
              7.40580019261688,
              46.1617602519691
            ],
            [
              7.405810192693025,
              46.16181025188416
            ],
            [
              7.405810192693025,
              46.16185025172308
            ],
            [
              7.405790192540735,
              46.161900251638144
            ],
            [
              7.405680192634463,
              46.16199025185779
            ],
            [
              7.4056301927194,
              46.162050251848996
            ],
            [
              7.405600192490965,
              46.16212025191635
            ],
            [
              7.40559019241482,
              46.162200251594186
            ]
          ],
          [
            [
              7.405700192321092,
              46.16252025170252
            ],
            [
              7.405770192388445,
              46.16265025176108
            ],
            [
              7.405810192227364,
              46.162770251743495
            ],
            [
              7.405900192447007,
              46.16291025141254
            ],
            [
              7.405970192048699,
              46.162980251479894
            ],
            [
              7.40608019195497,
              46.163090250920504
            ],
            [
              7.406180191785097,
              46.16318025114015
            ],
            [
              7.40627019200474,
              46.163240251131356
            ],
            [
              7.406560191884637,
              46.163430250715464
            ],
            [
              7.406730191782117,
              46.163580250926316
            ],
            [
              7.406820191536099,
              46.163620250765234
            ],
            [
              7.406900191679597,
              46.16365025099367
            ],
            [
              7.407040191814303,
              46.16369025083259
            ],
            [
              7.4071901915594935,
              46.163730250671506
            ],
            [
              7.407260191626847,
              46.163750250358135
            ],
            [
              7.407600191421807,
              46.16385025065392
            ],
            [
              7.407700191717595,
              46.163860250264406
            ],
            [
              7.407790191471577,
              46.163860250264406
            ],
            [
              7.407850191462785,
              46.16389025049284
            ],
            [
              7.4078901913017035,
              46.16393025033176
            ],
            [
              7.407930191606283,
              46.16397025017068
            ],
            [
              7.4080501915887,
              46.16400025039911
            ],
            [
              7.408140191342682,
              46.16408025007695
            ],
            [
              7.408110191579908,
              46.164090250153095
            ],
            [
              7.408100191503763,
              46.164090250153095
            ],
            [
              7.408110191579908,
              46.164090250153095
            ],
            [
              7.408130191266537,
              46.16408025007695
            ],
            [
              7.408310191240162,
              46.16421025013551
            ],
            [
              7.40835019107908,
              46.164260250050575
            ],
            [
              7.40837019123137,
              46.16427025012672
            ],
            [
              7.408400191459805,
              46.16429025027901
            ],
            [
              7.40856019128114,
              46.164390249643475
            ],
            [
              7.408610191196203,
              46.1644402500242
            ],
            [
              7.408620191272348,
              46.16446024971083
            ],
            [
              7.40871019102633,
              46.164520249702036
            ],
            [
              7.408830191008747,
              46.16462024953216
            ],
            [
              7.40886019077152,
              46.16464024968445
            ],
            [
              7.408890190999955,
              46.16468024952337
            ],
            [
              7.4089101906865835,
              46.164690249599516
            ],
            [
              7.408970190677792,
              46.164710249751806
            ],
            [
              7.408970190677792,
              46.164710249751806
            ],
            [
              7.408980190753937,
              46.164710249286145
            ],
            [
              7.4090201910585165,
              46.16474024951458
            ],
            [
              7.409140190575272,
              46.16484024934471
            ],
            [
              7.409270190633833,
              46.16495024925098
            ],
            [
              7.40937019046396,
              46.16501024924219
            ],
            [
              7.409380190540105,
              46.16502024931833
            ],
            [
              7.409450190607458,
              46.16506024915725
            ],
            [
              7.409490190912038,
              46.16510024946183
            ],
            [
              7.409500190988183,
              46.165110249537975
            ],
            [
              7.4095301907509565,
              46.16517024952918
            ],
            [
              7.40958019066602,
              46.165220248978585
            ],
            [
              7.409620190504938,
              46.165240249130875
            ],
            [
              7.409660190809518,
              46.165260249283165
            ],
            [
              7.4097001906484365,
              46.16529024904594
            ],
            [
              7.409740190487355,
              46.16529024904594
            ],
            [
              7.4097501905635,
              46.16529024904594
            ],
            [
              7.409840190783143,
              46.16529024904594
            ],
            [
              7.409840190783143,
              46.16529024904594
            ],
            [
              7.409930190537125,
              46.16529024904594
            ]
          ],
          [
            [
              7.413740190677345,
              46.166940249037
            ],
            [
              7.413800190668553,
              46.166960248723626
            ],
            [
              7.413950190413743,
              46.16701024863869
            ],
            [
              7.41409019054845,
              46.167040248867124
            ],
            [
              7.414160190615803,
              46.167060249019414
            ],
            [
              7.414210190530866,
              46.16706024855375
            ],
            [
              7.41428019059822,
              46.16706024855375
            ],
            [
              7.414320190437138,
              46.16705024894327
            ],
            [
              7.4143701903522015,
              46.16705024894327
            ],
            [
              7.414410190656781,
              46.1670702486299
            ],
            [
              7.41443019034341,
              46.16709024878219
            ],
            [
              7.4144701906479895,
              46.16712024901062
            ],
            [
              7.414520190563053,
              46.167150248773396
            ],
            [
              7.414570190478116,
              46.167170248925686
            ],
            [
              7.414610190317035,
              46.167190248612314
            ],
            [
              7.414740190375596,
              46.16724024852738
            ],
            [
              7.4148101904429495,
              46.16727024875581
            ],
            [
              7.414890190586448,
              46.1672902489081
            ],
            [
              7.414920190349221,
              46.16731024859473
            ]
          ],
          [
            [
              7.4157801903784275,
              46.16747024888173
            ],
            [
              7.415870190598071,
              46.167530248872936
            ],
            [
              7.415920190513134,
              46.16754024848342
            ],
            [
              7.416020190343261,
              46.16756024863571
            ],
            [
              7.416150190401822,
              46.167570248711854
            ],
            [
              7.416260190308094,
              46.167580248788
            ]
          ],
          [
            [
              7.41659019049257,
              46.16769024869427
            ],
            [
              7.416670190636069,
              46.167700248770416
            ],
            [
              7.41676019039005,
              46.16771024884656
            ],
            [
              7.417090190574527,
              46.16769024869427
            ]
          ],
          [
            [
              7.418250190559775,
              46.16746024880558
            ],
            [
              7.41841019038111,
              46.16743024857715
            ],
            [
              7.418460190296173,
              46.167420248501
            ],
            [
              7.418550190515816,
              46.16740024834871
            ],
            [
              7.418680190574378,
              46.16737024858594
            ],
            [
              7.418880190234631,
              46.16737024858594
            ],
            [
              7.419140190351754,
              46.16743024857715
            ],
            [
              7.419220190495253,
              46.16743024857715
            ],
            [
              7.419270190410316,
              46.167420248501
            ],
            [
              7.419360190629959,
              46.16735024843365
            ],
            [
              7.419450190383941,
              46.16729024844244
            ],
            [
              7.419570190366358,
              46.16724024852738
            ],
            [
              7.419800190255046,
              46.167150248307735
            ],
            [
              7.419940190389752,
              46.16712024854496
            ],
            [
              7.420080190524459,
              46.16708024824038
            ],
            [
              7.420180190354586,
              46.16703024832532
            ],
            [
              7.4205401903018355,
              46.16690024826676
            ],
            [
              7.420590190216899,
              46.16689024819061
            ],
            [
              7.420730190351605,
              46.1668302481994
            ],
            [
              7.42091019032523,
              46.16678024828434
            ],
            [
              7.421040190383792,
              46.16672024829313
            ],
            [
              7.421220190357417,
              46.16663024807349
            ],
            [
              7.421290189959109,
              46.166580248158425
            ],
            [
              7.421450189780444,
              46.16646024771035
            ],
            [
              7.421480189543217,
              46.166440247092396
            ],
            [
              7.421479913871735,
              46.166440156288445
            ],
            [
              7.42159642232582,
              46.166479754727334
            ],
            [
              7.421720698475838,
              46.1665211529471
            ],
            [
              7.42184497974813,
              46.166548158507794
            ],
            [
              7.421973144635558,
              46.16657516453415
            ],
            [
              7.422074148897082,
              46.166518507990986
            ],
            [
              7.4222191805019975,
              46.16643577069044
            ],
            [
              7.422325361520052,
              46.16638451209292
            ]
          ],
          [
            [
              7.422848494723439,
              46.166126417927444
            ],
            [
              7.422953380271792,
              46.166073359549046
            ],
            [
              7.423056970816106,
              46.166020300704986
            ],
            [
              7.423177394084632,
              46.16595914820209
            ],
            [
              7.423266746103764,
              46.16589439287782
            ],
            [
              7.423354803584516,
              46.165828737430274
            ],
            [
              7.423444155603647,
              46.16576308244839
            ],
            [
              7.423533507622778,
              46.16569742746651
            ],
            [
              7.423604730051011,
              46.16564436396584
            ],
            [
              7.423612524289638,
              46.16555530857295
            ],
            [
              7.423617724329233,
              46.16548244562
            ],
            [
              7.423685069195926,
              46.16540599241853
            ],
            [
              7.423747234046459,
              46.16533403657377
            ],
            [
              7.423874116037041,
              46.16531696263701
            ],
            [
              7.424000998027623,
              46.16529898904264
            ],
            [
              7.424200383014977,
              46.16527112899348
            ],
            [
              7.42428840091452,
              46.16533770784736
            ],
            [
              7.42435570852831,
              46.16538809100166
            ],
            [
              7.424478692933917,
              46.165418691467494
            ],
            [
              7.424600382801145,
              46.16544839227572
            ],
            [
              7.424685824196786,
              46.165469092316926
            ],
            [
              7.424740177113563,
              46.1655509583652
            ],
            [
              7.4248087662272155,
              46.16565351560712
            ],
            [
              7.4249058496207,
              46.16571379825473
            ],
            [
              7.425002933945507,
              46.16577318077907
            ],
            [
              7.425100018270314,
              46.16583256330341
            ],
            [
              7.425190630368888,
              46.165887447074056
            ],
            [
              7.425246279686689,
              46.16596931358799
            ],
            [
              7.425300634931773,
              46.16605027997866
            ],
            [
              7.425345930736512,
              46.16611685277894
            ]
          ]
        ]
      }
    }
  ]
}