{
  "type": "FeatureCollection",
  "features": [
    {
      "type": "Feature",
      "properties": {
        "id": "aaafd126fbb64aeba2841e45993616df",
        "name": "Segment 001",
        "order": 1,
        "structure_type": "open",
        "water_status": "unknown",
        "continuous": false
      },
      "geometry": {
        "type": "MultiLineString",
        "coordinates": [
          [
            [
              7.479657412972301,
              46.17403238033876
            ],
            [
              7.478699169121683,
              46.173980539664626
            ],
            [
              7.478192929178476,
              46.17405807506293
            ],
            [
              7.478064752183855,
              46.174079708289355
            ],
            [
              7.47687373124063,
              46.17446511564776
            ],
            [
              7.476460815872997,
              46.174690139014274
            ],
            [
              7.475722834467888,
              46.17485229391605
            ],
            [
              7.4752294616773725,
              46.17482546158135
            ],
            [
              7.474712887313217,
              46.17496145516634
            ],
            [
              7.474154797848314,
              46.17498051468283
            ],
            [
              7.4737663166597486,
              46.174962639808655
            ],
            [
              7.472920849919319,
              46.17512750811875
            ],
            [
              7.472121973987669,
              46.17525817407295
            ],
            [
              7.471642715856433,
              46.17501542810351
            ],
            [
              7.471072860527784,
              46.174846466165036
            ],
            [
              7.4704641359858215,
              46.174630736000836
            ],
            [
              7.469999121967703,
              46.174366388935596
            ],
            [
              7.469611851498485,
              46.1741874772124
            ],
            [
              7.4688852918334305,
              46.17394568072632
            ],
            [
              7.468469494022429,
              46.173678615596145
            ],
            [
              7.467874891124666,
              46.17319119628519
            ],
            [
              7.467356838285923,
              46.17297722585499
            ],
            [
              7.466164204291999,
              46.17282458022237
            ],
            [
              7.465789958368987,
              46.1727527002804
            ],
            [
              7.4654002003371716,
              46.17273299768567
            ],
            [
              7.465297863818705,
              46.17264306358993
            ],
            [
              7.465076420456171,
              46.17258913908154
            ],
            [
              7.465050455182791,
              46.1724452143535
            ],
            [
              7.464817329309881,
              46.172328321728855
            ],
            [
              7.464597111567855,
              46.17212147079408
            ],
            [
              7.463703389279544,
              46.17147397669032
            ],
            [
              7.463806876912713,
              46.171258059795946
            ],
            [
              7.463742035441101,
              46.17103318218142
            ],
            [
              7.463767814449966,
              46.17077230382711
            ],
            [
              7.463728846050799,
              46.1704934486188
            ],
            [
              7.463535862509161,
              46.17035945318639
            ],
            [
              7.463612158317119,
              46.1701444410719
            ],
            [
              7.463404937181622,
              46.17001854535192
            ],
            [
              7.462899911683053,
              46.16987292142585
            ],
            [
              7.462744488846511,
              46.169756011106074
            ],
            [
              7.462640921585262,
              46.16979021485895
            ],
            [
              7.4625904257409275,
              46.1697902251035
            ],
            [
              7.462310814764351,
              46.16993241198361
            ],
            [
              7.462070060428232,
              46.170111471787095
            ],
            [
              7.462020895909518,
              46.17020143708214
            ],
            [
              7.461989883333445,
              46.17035256884992
            ],
            [
              7.462000290397555,
              46.170470408629626
            ],
            [
              7.462040461599827,
              46.17055046139285
            ],
            [
              7.462010710965842,
              46.17062243167311
            ],
            [
              7.461979647632688,
              46.17065032431856
            ],
            [
              7.46150965988636,
              46.17070259060711
            ],
            [
              7.461079775821418,
              46.17067028908059
            ],
            [
              7.460870027542114,
              46.17069011880085
            ],
            [
              7.460829884745181,
              46.170680231414735
            ],
            [
              7.460800112225115,
              46.17070002714172
            ],
            [
              7.460750909987837,
              46.170700035989285
            ],
            [
              7.4606408649124205,
              46.170732440426946
            ],
            [
              7.460361246019602,
              46.17088541388512
            ],
            [
              7.460080266930163,
              46.1708503481932
            ],
            [
              7.460020266473293,
              46.17088034842163
            ],
            [
              7.459880266338587,
              46.17090034810826
            ],
            [
              7.459750265814364,
              46.17086034733802
            ],
            [
              7.459720265585929,
              46.17082034703344
            ],
            [
              7.459640265442431,
              46.170770346652716
            ],
            [
              7.459550265222788,
              46.170770346187055
            ],
            [
              7.459510264918208,
              46.17074034595862
            ],
            [
              7.459380264859647,
              46.170750345569104
            ],
            [
              7.459270264487714,
              46.17079034540802
            ],
            [
              7.459090264048427,
              46.170760344713926
            ],
            [
              7.459040263667703,
              46.17077034479007
            ],
            [
              7.458740263246,
              46.170760343782604
            ],
            [
              7.458560262806714,
              46.17079034354538
            ],
            [
              7.458320262376219,
              46.17078034253791
            ],
            [
              7.457950261421502,
              46.170800341293216
            ],
            [
              7.457830260973424,
              46.170820340979844
            ],
            [
              7.457660260610282,
              46.17090034019202
            ],
            [
              7.45753026008606,
              46.17094034003094
            ],
            [
              7.457400260027498,
              46.17097033932805
            ],
            [
              7.45724025927484,
              46.170980338938534
            ],
            [
              7.457130258902907,
              46.17104033799842
            ],
            [
              7.456960258539766,
              46.17107033776119
            ],
            [
              7.45672025764361,
              46.17109033698216
            ],
            [
              7.456600257661194,
              46.17115033697337
            ],
            [
              7.45640025800094,
              46.17122033704072
            ],
            [
              7.456200257875025,
              46.171350337099284
            ],
            [
              7.455970257986337,
              46.17155033675954
            ],
            [
              7.4558802573010325,
              46.17156033637002
            ],
            [
              7.455700257327408,
              46.171650336124
            ],
            [
              7.455540257040411,
              46.17175033595413
            ],
            [
              7.4553202567622066,
              46.171850335318595
            ],
            [
              7.454960256349295,
              46.1721203350462
            ],
            [
              7.454730256460607,
              46.17227033525705
            ],
            [
              7.454510256182402,
              46.17250033468008
            ],
            [
              7.454350255895406,
              46.17263033473864
            ],
            [
              7.454240255989134,
              46.17275033472106
            ],
            [
              7.453840255737305,
              46.1729703345336
            ],
            [
              7.453600255772471,
              46.17315033450723
            ],
            [
              7.45347025571391,
              46.173230334185064
            ],
            [
              7.453230255749077,
              46.17335033416748
            ],
            [
              7.453100255690515,
              46.173440334387124
            ],
            [
              7.452980255242437,
              46.17348033376038
            ],
            [
              7.45294025586918,
              46.17368033481762
            ],
            [
              7.452920256182551,
              46.17371033458039
            ],
            [
              7.4529002560302615,
              46.17370033450425
            ],
            [
              7.452850255649537,
              46.17371033458039
            ],
            [
              7.452780255582184,
              46.173780334647745
            ],
            [
              7.452670255210251,
              46.17384033417329
            ],
            [
              7.452490255236626,
              46.173870333470404
            ],
            [
              7.452480255160481,
              46.173890333622694
            ],
            [
              7.452460255008191,
              46.173890333622694
            ],
            [
              7.452150254976004,
              46.17410033335909
            ],
            [
              7.4519502548500896,
              46.174270333722234
            ],
            [
              7.451890254858881,
              46.17430033348501
            ],
            [
              7.451540254522115,
              46.17439033323899
            ],
            [
              7.450990254525095,
              46.174640332814306
            ],
            [
              7.450920253992081,
              46.174680332653224
            ],
            [
              7.450820254161954,
              46.17480033263564
            ],
            [
              7.450570254120976,
              46.174980332143605
            ],
            [
              7.450480253901333,
              46.17501033190638
            ],
            [
              7.450340253766626,
              46.17510033212602
            ],
            [
              7.450040253344923,
              46.17519033188
            ],
            [
              7.450000253506005,
              46.17524033179507
            ],
            [
              7.449740253854543,
              46.17537033231929
            ],
            [
              7.4496502536349,
              46.175450331997126
            ],
            [
              7.449560253415257,
              46.17560033174232
            ],
            [
              7.449510253500193,
              46.175640331581235
            ],
            [
              7.449430253356695,
              46.17567033180967
            ],
            [
              7.449380253441632,
              46.17567033180967
            ],
            [
              7.449240253772587,
              46.17573033180088
            ],
            [
              7.449160253629088,
              46.17589033162221
            ],
            [
              7.449010253418237,
              46.176040331833065
            ],
            [
              7.4488702532835305,
              46.17629033140838
            ],
            [
              7.448660253081471,
              46.17652033129707
            ],
            [
              7.448680253233761,
              46.176470331382006
            ]
          ],
          [
            [
              7.454237341880798,
              46.172743036877364
            ],
            [
              7.454115618951619,
              46.17271426646039
            ],
            [
              7.453952458221465,
              46.17267560539767
            ],
            [
              7.453824270050973,
              46.17268011905253
            ],
            [
              7.45369478687644,
              46.17268463270739
            ],
            [
              7.4535704823210835,
              46.17268914403394
            ],
            [
              7.453402140643448,
              46.17264418536797
            ],
            [
              7.453210508450866,
              46.17266040062532
            ],
            [
              7.453210251405835,
              46.17266032891348
            ],
            [
              7.453180251643062,
              46.172670328989625
            ],
            [
              7.453150251414627,
              46.172690328676254
            ],
            [
              7.453020251356065,
              46.17277032835409
            ],
            [
              7.452920251060277,
              46.172860328573734
            ],
            [
              7.45284025138244,
              46.1729103284888
            ],
            [
              7.452730251010507,
              46.172930328175426
            ],
            [
              7.452650250867009,
              46.172970328480005
            ],
            [
              7.452600250951946,
              46.172990328166634
            ],
            [
              7.452500251121819,
              46.17302032839507
            ],
            [
              7.4523602509871125,
              46.17302032839507
            ],
            [
              7.452300250995904,
              46.1730403280817
            ],
            [
              7.452220250852406,
              46.17306032823399
            ],
            [
              7.452180251013488,
              46.173080327920616
            ],
            [
              7.4520902507938445,
              46.17313032783568
            ],
            [
              7.452050250489265,
              46.17315032798797
            ],
            [
              7.4519702503457665,
              46.17315032752231
            ],
            [
              7.451950250659138,
              46.17316032759845
            ],
            [
              7.451840250287205,
              46.17320032743737
            ],
            [
              7.451760250143707,
              46.17324032727629
            ],
            [
              7.451720250304788,
              46.173270327504724
            ],
            [
              7.4516902500763535,
              46.1733003272675
            ],
            [
              7.451670250389725,
              46.17331032734364
            ],
            [
              7.451550249941647,
              46.17347032716498
            ],
            [
              7.451460250187665,
              46.17360032722354
            ],
            [
              7.45145025011152,
              46.17361032683402
            ],
            [
              7.451360249891877,
              46.173700327053666
            ],
            [
              7.451330249663442,
              46.173740326892585
            ],
            [
              7.451260249596089,
              46.17381032649428
            ],
            [
              7.451200249604881,
              46.17388032656163
            ],
            [
              7.4511402496136725,
              46.17393032647669
            ],
            [
              7.451130249537528,
              46.17393032647669
            ],
            [
              7.451060249470174,
              46.17393032647669
            ],
            [
              7.451020249631256,
              46.17395032616332
            ],
            [
              7.450880249496549,
              46.174000326078385
            ],
            [
              7.450750249437988,
              46.17403032584116
            ],
            [
              7.450730249285698,
              46.174040325917304
            ],
            [
              7.450690248981118,
              46.17405032599345
            ],
            [
              7.450640249066055,
              46.17406032560393
            ],
            [
              7.450590249150991,
              46.17406032560393
            ],
            [
              7.450450248550624,
              46.17406032560393
            ],
            [
              7.450350248720497,
              46.174050325062126
            ],
            [
              7.450250248424709,
              46.174050325062126
            ],
            [
              7.450210248120129,
              46.17406032467261
            ],
            [
              7.450180248357356,
              46.174070324748755
            ],
            [
              7.450140248052776,
              46.174070324748755
            ],
            [
              7.4500902481377125,
              46.17408032435924
            ],
            [
              7.450040247756988,
              46.17409032443538
            ],
            [
              7.4499802477657795,
              46.17410032404587
            ],
            [
              7.449860247317702,
              46.17415032396093
            ],
            [
              7.449810247402638,
              46.174180323723704
            ],
            [
              7.4497702470980585,
              46.17421032348648
            ],
            [
              7.449740247335285,
              46.174230323173106
            ],
            [
              7.449740247335285,
              46.174230323173106
            ],
            [
              7.44969024695456,
              46.17428032308817
            ],
            [
              7.449610246811062,
              46.17432032339275
            ],
            [
              7.449560246895999,
              46.17434032307938
            ],
            [
              7.4494902468286455,
              46.174360322766006
            ],
            [
              7.449470246676356,
              46.17437032284215
            ],
            [
              7.449420246761292,
              46.174400323070586
            ],
            [
              7.4492002464830875,
              46.17447032267228
            ],
            [
              7.449140246491879,
              46.17450032243505
            ],
            [
              7.449139855802059,
              46.174500407185405
            ],
            [
              7.449049225077033,
              46.17456428334117
            ],
            [
              7.448958594352007,
              46.17462905915454
            ],
            [
              7.4488679631613195,
              46.17469293484464
            ],
            [
              7.448777331970632,
              46.174757710658014
            ],
            [
              7.448686700314283,
              46.174821586348116
            ],
            [
              7.448596068657935,
              46.17488546203822
            ],
            [
              7.448488605208695,
              46.17496193293482
            ],
            [
              7.448382432106882,
              46.17501321574673
            ],
            [
              7.44827496400103,
              46.175063599366695
            ],
            [
              7.44815843179822,
              46.17511938046664
            ],
            [
              7.448030235245824,
              46.17510949447751
            ],
            [
              7.447900743223727,
              46.17509960802272
            ],
            [
              7.44778031622991,
              46.175090620759875
            ],
            [
              7.447780243586749,
              46.1750903185457
            ],
            [
              7.447650243062526,
              46.175170318223536
            ],
            [
              7.4476102432236075,
              46.17520031798631
            ],
            [
              7.447520243003964,
              46.175300317816436
            ],
            [
              7.447450242936611,
              46.17537031788379
            ],
            [
              7.447410242632031,
              46.17544031748548
            ],
            [
              7.447380242403597,
              46.17546031763777
            ],
            [
              7.447340242564678,
              46.175490317400545
            ],
            [
              7.4472902421839535,
              46.1755303167738
            ],
            [
              7.447240241803229,
              46.17557031661272
            ],
            [
              7.447150241583586,
              46.17562031606212
            ],
            [
              7.447120241355151,
              46.17564031574875
            ],
            [
              7.447090241126716,
              46.175650315824896
            ],
            [
              7.447030241135508,
              46.175710315816104
            ],
            [
              7.447000240907073,
              46.17573031550273
            ],
            [
              7.446960241068155,
              46.17576031526551
            ],
            [
              7.446920240763575,
              46.175800315570086
            ],
            [
              7.4468602407723665,
              46.17583031533286
            ],
            [
              7.446840240620077,
              46.17583031533286
            ],
            [
              7.446730240713805,
              46.17586031509563
            ],
            [
              7.44670024048537,
              46.17587031470612
            ],
            [
              7.446670240256935,
              46.17588031478226
            ],
            [
              7.446640240494162,
              46.17588031478226
            ],
            [
              7.446590240113437,
              46.17588031478226
            ],
            [
              7.446560240350664,
              46.17590031446889
            ],
            [
              7.446450239978731,
              46.17594031430781
            ],
            [
              7.446380239911377,
              46.17597031407058
            ],
            [
              7.446290239226073,
              46.17599031329155
            ],
            [
              7.44622023915872,
              46.17608031304553
            ],
            [
              7.44620023900643,
              46.17610031273216
            ],
            [
              7.44618023885414,
              46.17615031264722
            ],
            [
              7.44616023870185,
              46.17618031287566
            ],
            [
              7.446100238710642,
              46.17625031247735
            ],
            [
              7.4460402387194335,
              46.176300312392414
            ],
            [
              7.44597023865208,
              46.17635031230748
            ],
            [
              7.445880238432437,
              46.17640031175688
            ],
            [
              7.445750237908214,
              46.17649031151086
            ],
            [
              7.445630237460136,
              46.17655031057075
            ],
            [
              7.445600237231702,
              46.176570310257375
            ],
            [
              7.445520236622542,
              46.176590309944004
            ],
            [
              7.445480236783624,
              46.176610310096294
            ],
            [
              7.445480236783624,
              46.176610310096294
            ],
            [
              7.44543023686856,
              46.17664030985907
            ],
            [
              7.445390236563981,
              46.176680309697986
            ],
            [
              7.445340236648917,
              46.176700309384614
            ],
            [
              7.445260236039758,
              46.17673030914739
            ],
            [
              7.445230236276984,
              46.17675030929968
            ],
            [
              7.445200236048549,
              46.17676030937582
            ],
            [
              7.44516023574397,
              46.17678030906245
            ],
            [
              7.445090235676616,
              46.17682030890137
            ],
            [
              7.445040235761553,
              46.17685030866414
            ],
            [
              7.445020235609263,
              46.17687030835077
            ],
            [
              7.444980235770345,
              46.17691030865535
            ],
            [
              7.444960235618055,
              46.17693030834198
            ],
            [
              7.44493023538962,
              46.17697030864656
            ]
          ]
        ]
      }
    },
    {
      "type": "Feature",
      "properties": {
        "id": "2321358dad5443b9b428949f9a27a436",
        "name": "Segment 002",
        "order": 2,
        "structure_type": "abandoned",
        "water_status": "unknown",
        "continuous": true
      },
      "geometry": {
        "type": "LineString",
        "coordinates": [
          [
            7.44423155579716,
            46.18146419292316
          ],
          [
            7.444344218354672,
            46.1813868265599
          ],
          [
            7.444437456317246,
            46.18132475344464
          ],
          [
            7.44452939927578,
            46.181261780671775
          ],
          [
            7.444617452565581,
            46.18115922762081
          ],
          [
            7.444683492649347,
            46.181082762312144
          ],
          [
            7.444750827737153,
            46.18100539734587
          ],
          [
            7.444816866889596,
            46.18092803284526
          ],
          [
            7.444884201511741,
            46.180850667878985
          ],
          [
            7.444994270335883,
            46.18075710861012
          ],
          [
            7.445075850468129,
            46.18068783916533
          ],
          [
            7.445157430134714,
            46.180618569254875
          ],
          [
            7.445244185626507,
            46.18050702055916
          ],
          [
            7.445306338835508,
            46.18042875593528
          ],
          [
            7.445368491578847,
            46.180349592119455
          ],
          [
            7.445430644322187,
            46.18027042783797
          ],
          [
            7.445440250914544,
            46.180270328652114
          ],
          [
            7.445540250744671,
            46.1801503286697
          ],
          [
            7.445670250803232,
            46.180060328915715
          ],
          [
            7.44579025125131,
            46.17996032908559
          ],
          [
            7.445850251242518,
            46.17990032909438
          ],
          [
            7.445950251072645,
            46.17984032910317
          ],
          [
            7.4460102510638535,
            46.17979032918811
          ],
          [
            7.44602025160566,
            46.179740329273045
          ],
          [
            7.4461202514357865,
            46.17966032959521
          ],
          [
            7.446310251951218,
            46.17952032992616
          ],
          [
            7.446340251713991,
            46.17949032969773
          ],
          [
            7.446620251983404,
            46.179230329580605
          ],
          [
            7.446700251661241,
            46.17913032975048
          ],
          [
            7.446720251813531,
            46.17912032967433
          ],
          [
            7.446830252185464,
            46.17903032992035
          ],
          [
            7.446990252006799,
            46.17885032994673
          ],
          [
            7.447100251447409,
            46.178700329735875
          ],
          [
            7.447100251913071,
            46.178660329431295
          ],
          [
            7.447100251913071,
            46.178660329431295
          ],
          [
            7.447160251904279,
            46.17863032966852
          ],
          [
            7.447180251590908,
            46.17862032959238
          ],
          [
            7.447240252047777,
            46.17858032975346
          ],
          [
            7.447280251886696,
            46.17854032991454
          ],
          [
            7.447380252182484,
            46.17844033008441
          ],
          [
            7.4474102524109185,
            46.178400330245495
          ],
          [
            7.4474002523347735,
            46.178400330245495
          ],
          [
            7.447390252258629,
            46.17839033016935
          ],
          [
            7.447380252182484,
            46.17837033001706
          ],
          [
            7.447370252106339,
            46.17837033001706
          ],
          [
            7.447380252182484,
            46.178360329940915
          ],
          [
            7.4474002523347735,
            46.17831033002585
          ],
          [
            7.447450252249837,
            46.17825033003464
          ],
          [
            7.44752025231719,
            46.178190330509096
          ],
          [
            7.447590252384543,
            46.178060330450535
          ],
          [
            7.447620252612978,
            46.1779803307727
          ],
          [
            7.447620252612978,
            46.17794033046812
          ],
          [
            7.447620252612978,
            46.177910330705345
          ],
          [
            7.447640252299607,
            46.177870330400765
          ],
          [
            7.447700252756476,
            46.17777033057064
          ],
          [
            7.447740252595395,
            46.17771033057943
          ],
          [
            7.447780252899975,
            46.17766033066437
          ],
          [
            7.447840252891183,
            46.1776103307493
          ],
          [
            7.44794025272131,
            46.17749033123255
          ],
          [
            7.447950252797455,
            46.17749033123255
          ],
          [
            7.447980253025889,
            46.17743033077568
          ],
          [
            7.447990252636373,
            46.177400331012905
          ],
          [
            7.448000252712518,
            46.17739033093676
          ],
          [
            7.448000252712518,
            46.17739033093676
          ],
          [
            7.448010252788663,
            46.17735033109784
          ],
          [
            7.448070252779871,
            46.177230331115425
          ],
          [
            7.448110253084451,
            46.17714033136144
          ],
          [
            7.4481402528472245,
            46.17710033105686
          ],
          [
            7.448190253227949,
            46.177040331065655
          ],
          [
            7.448230253066868,
            46.17697033146396
          ],
          [
            7.448290253058076,
            46.17690033139661
          ],
          [
            7.448400252964348,
            46.17678033141419
          ],
          [
            7.448450253345072,
            46.176740331575274
          ],
          [
            7.448550253175199,
            46.176630331669
          ],
          [
            7.448600253090262,
            46.176570331677794
          ],
          [
            7.448630253318697,
            46.176550331525505
          ]
        ]
      }
    }
  ]
}