{
  "type": "FeatureCollection",
  "features": [
    {
      "type": "Feature",
      "properties": {
        "id": "4ea39d0dd44a44c0adb0635cbcf7bf5a",
        "name": "Segment 001",
        "order": 1,
        "structure_type": "canalized",
        "structure_types": [
          "canalized"
        ],
        "display_mode": "single",
        "bicolor_colors": [],
        "water_status": "unknown",
        "continuous": true
      },
      "geometry": {
        "type": "LineString",
        "coordinates": [
          [
            7.622253290377557,
            46.214406380895525
          ],
          [
            7.622219291049987,
            46.21449237968773
          ],
          [
            7.622185298241675,
            46.21458037570119
          ],
          [
            7.622151298448443,
            46.21466637402773
          ],
          [
            7.622117288876325,
            46.21475337073207
          ],
          [
            7.622082293964922,
            46.21484037814662
          ],
          [
            7.622049294877797,
            46.214927373453975
          ],
          [
            7.62201428739354,
            46.21501437248662
          ],
          [
            7.621981285512447,
            46.21510036988184
          ],
          [
            7.621946291066706,
            46.215187368914485
          ],
          [
            7.621904294472188,
            46.215296373702586
          ]
        ]
      }
    },
    {
      "type": "Feature",
      "properties": {
        "id": "c5e3147a80e940a0a5ec38577a29aa45",
        "name": "Segment 002",
        "order": 2,
        "structure_type": "open",
        "structure_types": [
          "open"
        ],
        "display_mode": "single",
        "bicolor_colors": [],
        "water_status": "unknown",
        "continuous": true
      },
      "geometry": {
        "type": "LineString",
        "coordinates": [
          [
            7.621904294472188,
            46.215296373702586
          ],
          [
            7.621904294472188,
            46.215296373702586
          ],
          [
            7.6217962871305645,
            46.21534737292677
          ],
          [
            7.621640296187252,
            46.215422368608415
          ],
          [
            7.621640296652913,
            46.215422369074076
          ],
          [
            7.621640296652913,
            46.215422369074076
          ],
          [
            7.621640296652913,
            46.215422369074076
          ],
          [
            7.621640286408365,
            46.21542337629944
          ],
          [
            7.621512287296355,
            46.21551037207246
          ],
          [
            7.621362286154181,
            46.21559036895633
          ],
          [
            7.621310287155211,
            46.21563037484884
          ],
          [
            7.6213002959266305,
            46.21566137205809
          ],
          [
            7.621300293132663,
            46.215664367657155
          ],
          [
            7.621300293132663,
            46.215664367657155
          ],
          [
            7.621300293132663,
            46.215664367657155
          ],
          [
            7.621300293132663,
            46.215664367657155
          ],
          [
            7.6212742938660085,
            46.21575236832723
          ],
          [
            7.621250293217599,
            46.2158413734287
          ],
          [
            7.621227293740958,
            46.21593137551099
          ],
          [
            7.621200286783278,
            46.21602036757395
          ],
          [
            7.621176289394498,
            46.216106368694454
          ],
          [
            7.621140287257731,
            46.21624136995524
          ],
          [
            7.621140287257731,
            46.21624136995524
          ],
          [
            7.621140287257731,
            46.21624136995524
          ],
          [
            7.621140287257731,
            46.21624136995524
          ],
          [
            7.6210192907601595,
            46.21627636812627
          ],
          [
            7.620900283567607,
            46.21631336957216
          ],
          [
            7.620711284689605,
            46.216369373723865
          ],
          [
            7.620711284689605,
            46.216369373723865
          ],
          [
            7.620711284689605,
            46.216369373723865
          ],
          [
            7.620711284689605,
            46.216369373723865
          ],
          [
            7.620604285039008,
            46.216416377108544
          ],
          [
            7.620494288392365,
            46.21646637143567
          ],
          [
            7.62038529291749,
            46.21651737112552
          ],
          [
            7.620271287858486,
            46.21656637266278
          ],
          [
            7.620271287858486,
            46.21656637266278
          ],
          [
            7.620271287858486,
            46.21656637266278
          ],
          [
            7.620271287858486,
            46.21656637266278
          ],
          [
            7.620156293734908,
            46.21661037392914
          ],
          [
            7.620042284484953,
            46.21665037050843
          ],
          [
            7.619927290827036,
            46.21669437177479
          ],
          [
            7.619812293443829,
            46.21673337183893
          ],
          [
            7.619676286820322,
            46.21678337082267
          ],
          [
            7.619676286820322,
            46.21678337082267
          ],
          [
            7.619676286820322,
            46.21678337082267
          ],
          [
            7.619676286820322,
            46.21678337082267
          ],
          [
            7.619570286478847,
            46.216835372615606
          ],
          [
            7.619461292400956,
            46.21688337624073
          ],
          [
            7.6193282855674624,
            46.216947375796735
          ],
          [
            7.6193282855674624,
            46.216947375796735
          ],
          [
            7.6193282855674624,
            46.216947375796735
          ],
          [
            7.6193282855674624,
            46.216947375796735
          ],
          [
            7.619231287855655,
            46.21700636995956
          ],
          [
            7.619135291315615,
            46.21706637041643
          ],
          [
            7.619055295363069,
            46.21711737662554
          ],
          [
            7.619055295363069,
            46.21711737662554
          ],
          [
            7.619055295363069,
            46.21711737662554
          ],
          [
            7.619055295363069,
            46.21711737662554
          ],
          [
            7.61898428760469,
            46.21719437511638
          ],
          [
            7.618912294507027,
            46.217267371714115
          ],
          [
            7.618841292802244,
            46.21734237251803
          ],
          [
            7.618797289207578,
            46.21738737542182
          ],
          [
            7.618797289207578,
            46.21738737542182
          ],
          [
            7.618797289207578,
            46.21738737542182
          ],
          [
            7.618797289207578,
            46.21738737542182
          ],
          [
            7.618735293857753,
            46.21746637392789
          ],
          [
            7.6186552927829325,
            46.21756736887619
          ],
          [
            7.6186552927829325,
            46.21756736887619
          ],
          [
            7.6186552927829325,
            46.21756736887619
          ],
          [
            7.6186552927829325,
            46.21756736887619
          ],
          [
            7.6185342953540385,
            46.21760337194428
          ],
          [
            7.618396292440593,
            46.21764237061143
          ],
          [
            7.618396292440593,
            46.21764237061143
          ],
          [
            7.618396292440593,
            46.21764237061143
          ],
          [
            7.618396292440593,
            46.21764237061143
          ],
          [
            7.618217287119478,
            46.217689368873835
          ],
          [
            7.618217287119478,
            46.217689368873835
          ],
          [
            7.618217287119478,
            46.217689368873835
          ],
          [
            7.618217287119478,
            46.217689368873835
          ],
          [
            7.618217287119478,
            46.217689368873835
          ],
          [
            7.618120289873332,
            46.21774537535384
          ],
          [
            7.61801328510046,
            46.217812372371554
          ],
          [
            7.61801328510046,
            46.217812372371554
          ],
          [
            7.61801328510046,
            46.217812372371554
          ],
          [
            7.61801328510046,
            46.217812372371554
          ],
          [
            7.61801328510046,
            46.217812372371554
          ],
          [
            7.617942294105887,
            46.21789136622101
          ],
          [
            7.617844291031361,
            46.217992370948195
          ],
          [
            7.617844291031361,
            46.217992370948195
          ],
          [
            7.617844291031361,
            46.217992370948195
          ],
          [
            7.617844291031361,
            46.217992370948195
          ],
          [
            7.617844291031361,
            46.217992370948195
          ],
          [
            7.617719287518412,
            46.21802037395537
          ],
          [
            7.617595287971199,
            46.218042365740985
          ],
          [
            7.617471291217953,
            46.21806936757639
          ],
          [
            7.617390289902687,
            46.21808336628601
          ],
          [
            7.617390289902687,
            46.21808336628601
          ],
          [
            7.617390289902687,
            46.21808336628601
          ],
          [
            7.617390289902687,
            46.21808336628601
          ],
          [
            7.617390289902687,
            46.21808336628601
          ],
          [
            7.617261290550232,
            46.21807436691597
          ],
          [
            7.617132291197777,
            46.21806536708027
          ],
          [
            7.617003285326064,
            46.2180583733134
          ],
          [
            7.617003285326064,
            46.2180583733134
          ],
          [
            7.617003285326064,
            46.2180583733134
          ],
          [
            7.617003285326064,
            46.2180583733134
          ],
          [
            7.617003285326064,
            46.2180583733134
          ],
          [
            7.616880293469876,
            46.21808737097308
          ],
          [
            7.616718293633312,
            46.21812036912888
          ],
          [
            7.616718293633312,
            46.21812036912888
          ],
          [
            7.616718293633312,
            46.21812036912888
          ],
          [
            7.616599282249808,
            46.218154369387776
          ],
          [
            7.616477284114808,
            46.218186368234456
          ],
          [
            7.6163572878576815,
            46.21822037035599
          ],
          [
            7.6162362871691585,
            46.21825236827135
          ],
          [
            7.616116281133145,
            46.21828736877069
          ],
          [
            7.616028281394392,
            46.21830936521292
          ],
          [
            7.616028281394392,
            46.21830936521292
          ],
          [
            7.616028281394392,
            46.21830936521292
          ],
          [
            7.616030280478299,
            46.218310369644314
          ],
          [
            7.615870284847915,
            46.21833036513999
          ],
          [
            7.615791285410523,
            46.2183103649877
          ],
          [
            7.615611286833882,
            46.21838037064299
          ],
          [
            7.61555028706789,
            46.218412363901734
          ],
          [
            7.61555028706789,
            46.218412363901734
          ],
          [
            7.6155492891557515,
            46.21841236529872
          ],
          [
            7.6155492891557515,
            46.21841236529872
          ],
          [
            7.61555028706789,
            46.218412363901734
          ],
          [
            7.615440281573683,
            46.218470368068665
          ],
          [
            7.61523029115051,
            46.218551367521286
          ],
          [
            7.615254285279661,
            46.2185813668184
          ],
          [
            7.615254285279661,
            46.2185813668184
          ],
          [
            7.615254285279661,
            46.2185813668184
          ],
          [
            7.615254285279661,
            46.2185813668184
          ],
          [
            7.615254285279661,
            46.2185813668184
          ],
          [
            7.615154280792922,
            46.21864236937836
          ],
          [
            7.615056291222572,
            46.21869736770168
          ],
          [
            7.614956289064139,
            46.21875536488369
          ],
          [
            7.614858292043209,
            46.2188163632527
          ],
          [
            7.614758283365518,
            46.21887236321345
          ],
          [
            7.614686286076903,
            46.218918370548636
          ],
          [
            7.614686286076903,
            46.218918370548636
          ],
          [
            7.614686286076903,
            46.218918370548636
          ],
          [
            7.614686286076903,
            46.218918370548636
          ],
          [
            7.614686286076903,
            46.218918370548636
          ],
          [
            7.614606285933405,
            46.21898636640981
          ],
          [
            7.614527283236384,
            46.21905836369842
          ],
          [
            7.614426284562796,
            46.21914936648682
          ],
          [
            7.614426284562796,
            46.21914936648682
          ],
          [
            7.614426284562796,
            46.21914936648682
          ],
          [
            7.614426284562796,
            46.21914936648682
          ],
          [
            7.614426284562796,
            46.21914936648682
          ],
          [
            7.614376281388104,
            46.219232365489006
          ],
          [
            7.614336289931089,
            46.219293363858014
          ],
          [
            7.614336289931089,
            46.219293363858014
          ],
          [
            7.614336289931089,
            46.219293363858014
          ],
          [
            7.614336289931089,
            46.219293363858014
          ],
          [
            7.614336289931089,
            46.219293363858014
          ],
          [
            7.614371287636459,
            46.21938036894426
          ],
          [
            7.614408288151026,
            46.21946936799213
          ],
          [
            7.614440279547125,
            46.21954836323857
          ],
          [
            7.614440279547125,
            46.21954836323857
          ],
          [
            7.614440279547125,
            46.21954836323857
          ],
          [
            7.614440279547125,
            46.21954836323857
          ],
          [
            7.614440279547125,
            46.21954836323857
          ],
          [
            7.614478284493089,
            46.21963136969134
          ],
          [
            7.614517287816852,
            46.21971836872399
          ],
          [
            7.61455528344959,
            46.21980636846274
          ],
          [
            7.614597289822996,
            46.2198963672854
          ],
          [
            7.614597289822996,
            46.2198963672854
          ],
          [
            7.614597289822996,
            46.2198963672854
          ],
          [
            7.614597289822996,
            46.2198963672854
          ],
          [
            7.614597289822996,
            46.2198963672854
          ],
          [
            7.614600284490734,
            46.21998536540195
          ],
          [
            7.614604280330241,
            46.220075368881226
          ],
          [
            7.6146072912961245,
            46.22016536490992
          ],
          [
            7.614611282944679,
            46.22028236463666
          ],
          [
            7.614611282944679,
            46.22028236463666
          ],
          [
            7.614611282944679,
            46.22028236463666
          ],
          [
            7.614611282944679,
            46.22028236463666
          ],
          [
            7.614611282944679,
            46.22028236463666
          ],
          [
            7.614648290909827,
            46.220369366928935
          ],
          [
            7.614683283492923,
            46.22045836923644
          ],
          [
            7.614718283060938,
            46.22054136265069
          ],
          [
            7.614755291026086,
            46.22062836494297
          ],
          [
            7.614794288761914,
            46.22072536731139
          ],
          [
            7.614794288761914,
            46.22072536731139
          ],
          [
            7.614794288761914,
            46.22072536731139
          ],
          [
            7.614794288761914,
            46.22072536731139
          ],
          [
            7.614794288761914,
            46.22072536731139
          ],
          [
            7.614823281299323,
            46.22081436961889
          ],
          [
            7.614846286829561,
            46.220895366277546
          ],
          [
            7.614846286829561,
            46.220895366277546
          ],
          [
            7.614846286829561,
            46.220895366277546
          ],
          [
            7.614846286829561,
            46.220895366277546
          ],
          [
            7.614846286829561,
            46.220895366277546
          ],
          [
            7.61481828475371,
            46.220985365565866
          ],
          [
            7.614795279223472,
            46.22105736564845
          ],
          [
            7.614795279223472,
            46.22105736564845
          ],
          [
            7.614795279223472,
            46.22105736564845
          ],
          [
            7.614795279223472,
            46.22105736564845
          ],
          [
            7.614795279223472,
            46.22105736564845
          ],
          [
            7.614666278474033,
            46.221086360514164
          ],
          [
            7.614666278474033,
            46.221086360514164
          ],
          [
            7.614666278474033,
            46.221086360514164
          ],
          [
            7.614666278474033,
            46.221086360514164
          ],
          [
            7.614666278474033,
            46.221086360514164
          ],
          [
            7.614549289923161,
            46.2210463671945
          ],
          [
            7.614392287563533,
            46.22100036358461
          ],
          [
            7.614392287563533,
            46.22100036358461
          ],
          [
            7.614392287563533,
            46.22100036358461
          ],
          [
            7.614392287563533,
            46.22100036358461
          ],
          [
            7.614392287563533,
            46.22100036358461
          ],
          [
            7.614392287563533,
            46.22100036358461
          ],
          [
            7.614321283530444,
            46.22100136382505
          ],
          [
            7.6141602783463895,
            46.22092335950583
          ],
          [
            7.614130286034197,
            46.22091036243364
          ],
          [
            7.614121285267174,
            46.220920361578465
          ],
          [
            7.613960286136717,
            46.22086436022073
          ],
          [
            7.613881289493293,
            46.22085036803037
          ],
          [
            7.613842281047255,
            46.22083036787808
          ],
          [
            7.613720280118287,
            46.220823359675705
          ],
          [
            7.613510286435485,
            46.22078136727214
          ],
          [
            7.613392279483378,
            46.220730363857
          ],
          [
            7.613240281119943,
            46.220700363162905
          ],
          [
            7.613151279743761,
            46.22069036215544
          ],
          [
            7.612941277213395,
            46.22071036696434
          ],
          [
            7.6128202844411135,
            46.22070236643776
          ],
          [
            7.6127012758515775,
            46.22067036246881
          ],
          [
            7.61263128137216,
            46.22064235806465
          ],
          [
            7.612491285428405,
            46.22060036519542
          ],
          [
            7.612410286907107,
            46.22059236606583
          ],
          [
            7.6120902807451785,
            46.22062435746193
          ],
          [
            7.611961280461401,
            46.22060036519542
          ],
          [
            7.611910287756473,
            46.22058136342093
          ],
          [
            7.611880284268409,
            46.22056035930291
          ],
          [
            7.611831279005855,
            46.22053036186844
          ],
          [
            7.611750286072493,
            46.22045036125928
          ],
          [
            7.61167027708143,
            46.220390364993364
          ],
          [
            7.6116102752275765,
            46.220362363383174
          ],
          [
            7.611310275737196,
            46.22029036004096
          ],
          [
            7.611130284611136,
            46.22028035996482
          ],
          [
            7.611090283840895,
            46.220290360972285
          ],
          [
            7.610950285103172,
            46.22030036058277
          ],
          [
            7.6109012849628925,
            46.22029235679656
          ],
          [
            7.610810284502804,
            46.220260362606496
          ],
          [
            7.610590280499309,
            46.220252356957644
          ],
          [
            7.610542283393443,
            46.22026236075908
          ],
          [
            7.610472282394767,
            46.220281357411295
          ],
          [
            7.610401282086968,
            46.22032036166638
          ],
          [
            7.610142281278968,
            46.220411357004195
          ],
          [
            7.609990284778178,
            46.220480357762426
          ],
          [
            7.609890283085406,
            46.220603361260146
          ],
          [
            7.609790284652263,
            46.22069035563618
          ],
          [
            7.60969228297472,
            46.220740356482565
          ],
          [
            7.6095912819728255,
            46.22078035911545
          ],
          [
            7.6095302775502205,
            46.22080035833642
          ],
          [
            7.609470273368061,
            46.22080035880208
          ],
          [
            7.60930228093639,
            46.22077336348593
          ],
          [
            7.609201275743544,
            46.22077035764232
          ],
          [
            7.609070282429457,
            46.22078035958111
          ],
          [
            7.60895127709955,
            46.22079036105424
          ],
          [
            7.608840281609446,
            46.22077135788277
          ],
          [
            7.6087002833373845,
            46.22074036160484
          ],
          [
            7.608641277067363,
            46.220740360207856
          ],
          [
            7.608590285293758,
            46.220750358421355
          ],
          [
            7.608550275675952,
            46.220770361833274
          ],
          [
            7.608510282356292,
            46.220812358893454
          ],
          [
            7.60841128276661,
            46.22092136275023
          ],
          [
            7.608340280596167,
            46.22100235754624
          ],
          [
            7.608190274331719,
            46.22115036146715
          ],
          [
            7.608062272425741,
            46.221260361839086
          ],
          [
            7.607940275687724,
            46.22131335688755
          ],
          [
            7.6079002832993865,
            46.22132235812023
          ],
          [
            7.607711274176836,
            46.22128036012873
          ],
          [
            7.6075802790001035,
            46.221273358445615
          ],
          [
            7.607420284301043,
            46.221213361248374
          ],
          [
            7.607360273599625,
            46.221190358977765
          ],
          [
            7.607280280906707,
            46.22113035991788
          ],
          [
            7.6072012754157186,
            46.221100359689444
          ],
          [
            7.607120274100453,
            46.22107035340741
          ],
          [
            7.607061275746673,
            46.22106035705656
          ],
          [
            7.6070002731867135,
            46.22106035752222
          ],
          [
            7.606900274287909,
            46.22106036171317
          ],
          [
            7.606860280036926,
            46.22106035798788
          ],
          [
            7.60653028357774,
            46.22091335384175
          ],
          [
            7.606301282532513,
            46.220820353366435
          ],
          [
            7.606190274935216,
            46.22080135671422
          ],
          [
            7.606000279076397,
            46.22077035903931
          ],
          [
            7.605770273134112,
            46.22077235253528
          ],
          [
            7.6054802825674415,
            46.220793360844254
          ],
          [
            7.6052002757787704,
            46.220790353138
          ],
          [
            7.605010279919952,
            46.220810358878225
          ],
          [
            7.604932276066393,
            46.22080235928297
          ],
          [
            7.604940275195986,
            46.220820356626064
          ],
          [
            7.604920282959938,
            46.220860353671014
          ],
          [
            7.604880271479487,
            46.22085035499185
          ],
          [
            7.604850281961262,
            46.22085035406053
          ],
          [
            7.604681276716292,
            46.220890352502465
          ],
          [
            7.604550274088979,
            46.220910352189094
          ],
          [
            7.604490275960416,
            46.22094235615805
          ],
          [
            7.604440275579691,
            46.22098035458475
          ],
          [
            7.6043702703900635,
            46.221080353017896
          ],
          [
            7.6042712815105915,
            46.221161358989775
          ],
          [
            7.604020273778588,
            46.22138035390526
          ],
          [
            7.6039102813228965,
            46.22144435578957
          ],
          [
            7.603810277767479,
            46.22149035194889
          ],
          [
            7.60372027894482,
            46.22151035396382
          ],
          [
            7.603432273026556,
            46.22146035172045
          ],
          [
            7.60336227575317,
            46.22146035451442
          ],
          [
            7.603292280808091,
            46.22145236004144
          ],
          [
            7.603010270278901,
            46.22137035895139
          ],
          [
            7.60293027292937,
            46.22135035181418
          ],
          [
            7.602820274420083,
            46.22135235462338
          ],
          [
            7.602470269892365,
            46.22139335842803
          ],
          [
            7.602120274677873,
            46.22142035420984
          ],
          [
            7.602031282149255,
            46.221430350560695
          ],
          [
            7.601840276271105,
            46.22147335438058
          ],
          [
            7.60170027660206,
            46.22149335453287
          ],
          [
            7.601410274859518,
            46.22156035574153
          ],
          [
            7.601220280397683,
            46.22164335148409
          ],
          [
            7.600951278116554,
            46.22177335387096
          ],
          [
            7.600890276487917,
            46.22179135121405
          ],
          [
            7.600701278075576,
            46.2218303559348
          ],
          [
            7.600570275448263,
            46.22186035430059
          ],
          [
            7.600570275448263,
            46.22186035430059
          ],
          [
            7.600570275448263,
            46.22186035430059
          ],
          [
            7.600570275448263,
            46.22186035430059
          ],
          [
            7.600570275448263,
            46.22186035430059
          ],
          [
            7.600570275448263,
            46.22186035430059
          ],
          [
            7.600500275846571,
            46.221890355460346
          ],
          [
            7.600420280359685,
            46.22193235298619
          ],
          [
            7.600340272765607,
            46.221970356069505
          ],
          [
            7.600252278149128,
            46.222033351659775
          ],
          [
            7.6001902730204165,
            46.222080351784825
          ],
          [
            7.600032272282988,
            46.222180355805904
          ],
          [
            7.5999702755361795,
            46.222230351530015
          ],
          [
            7.599921277258545,
            46.22227135114372
          ]
        ]
      }
    },
    {
      "type": "Feature",
      "properties": {
        "id": "8909f01ff0c84d6d92a67dc354b1c389",
        "name": "Segment 003",
        "order": 3,
        "structure_type": "abandoned",
        "structure_types": [
          "abandoned"
        ],
        "display_mode": "single",
        "bicolor_colors": [],
        "water_status": "unknown",
        "continuous": true
      },
      "geometry": {
        "type": "LineString",
        "coordinates": [
          [
            7.599921277258545,
            46.22227135114372
          ],
          [
            7.599851280916482,
            46.222320350818336
          ],
          [
            7.599830275867134,
            46.222330356482416
          ],
          [
            7.599710271228105,
            46.222372356336564
          ],
          [
            7.599620279856026,
            46.22240035235882
          ],
          [
            7.599491270724684,
            46.22243035538122
          ],
          [
            7.5994302704930305,
            46.222440354991704
          ],
          [
            7.5993702807463706,
            46.222450353205204
          ],
          [
            7.599290274083614,
            46.22248034970835
          ],
          [
            7.599232280626893,
            46.222490353509784
          ],
          [
            7.599180277902633,
            46.22251035226509
          ],
          [
            7.599130280315876,
            46.22254235763103
          ],
          [
            7.5991002772934735,
            46.22255135048181
          ],
          [
            7.599040274508297,
            46.22256135707721
          ],
          [
            7.599000273272395,
            46.22259035240859
          ],
          [
            7.598860280122608,
            46.222671357449144
          ],
          [
            7.598780270200223,
            46.22270035557449
          ],
          [
            7.598490277305245,
            46.22284035757184
          ],
          [
            7.598410269245505,
            46.2228833520785
          ],
          [
            7.598351276945323,
            46.222902352921665
          ],
          [
            7.5982602764852345,
            46.22294035227969
          ],
          [
            7.598190277349204,
            46.22298035537824
          ],
          [
            7.598062273580581,
            46.22302235569805
          ],
          [
            7.59802027232945,
            46.22305035497993
          ],
          [
            7.597970271017402,
            46.223090356215835
          ],
          [
            7.5978102730587125,
            46.22323235170916
          ],
          [
            7.597780276555568,
            46.22327035525814
          ],
          [
            7.597750268410891,
            46.22331335116178
          ],
          [
            7.597691275645047,
            46.2233413560316
          ],
          [
            7.5976512702181935,
            46.223360356874764
          ],
          [
            7.597620278131217,
            46.223390355240554
          ],
          [
            7.597581272013485,
            46.22342335199937
          ],
          [
            7.597510278224945,
            46.22345135547221
          ],
          [
            7.597380277235061,
            46.22352035390213
          ],
          [
            7.5973302773199975,
            46.22355234902352
          ],
          [
            7.597290271893144,
            46.223580354359
          ],
          [
            7.597270279657096,
            46.223600352182984
          ],
          [
            7.597260268870741,
            46.223634351976216
          ],
          [
            7.597250277176499,
            46.22367035690695
          ],
          [
            7.597220272757113,
            46.223710348363966
          ],
          [
            7.597100276965648,
            46.223851351067424
          ],
          [
            7.5970602738671005,
            46.223880354780704
          ],
          [
            7.596972270403057,
            46.22392035508528
          ],
          [
            7.5969202746637166,
            46.22396134864539
          ],
          [
            7.596830279566348,
            46.224043352063745
          ],
          [
            7.596782279666513,
            46.22409034892917
          ],
          [
            7.596770270727575,
            46.22411035373807
          ],
          [
            7.596711274702102,
            46.22420035582036
          ],
          [
            7.596680267713964,
            46.22427034890279
          ],
          [
            7.5966222789138556,
            46.224323350936174
          ],
          [
            7.596591277047992,
            46.2243503537029
          ],
          [
            7.5965512790717185,
            46.22439034981653
          ],
          [
            7.5964412754401565,
            46.2244513486512
          ],
          [
            7.596401274669915,
            46.22449035523459
          ],
          [
            7.596331267617643,
            46.22453335253522
          ],
          [
            7.596291273832321,
            46.224552352912724
          ],
          [
            7.596252277493477,
            46.22458035638556
          ],
          [
            7.596230278722942,
            46.22461035102606
          ],
          [
            7.596200278960168,
            46.22463434794918
          ],
          [
            7.596160268876702,
            46.22465234994888
          ],
          [
            7.596111267339438,
            46.224662348628044
          ],
          [
            7.5960712702944875,
            46.224671354983
          ],
          [
            7.596032276749611,
            46.22470034752041
          ],
          [
            7.5960202678106725,
            46.224720352794975
          ],
          [
            7.595980274956673,
            46.224753350019455
          ],
          [
            7.595950270071626,
            46.22477135527879
          ],
          [
            7.59591027861461,
            46.224800349678844
          ],
          [
            7.595802273601294,
            46.22493035113439
          ],
          [
            7.595771272666752,
            46.22497135074809
          ],
          [
            7.595750273671001,
            46.225020351819694
          ],
          [
            7.5957502773962915,
            46.225080352742225
          ],
          [
            7.595760272350162,
            46.22518035164103
          ],
          [
            7.595751268323511,
            46.225213351193815
          ],
          [
            7.595742273144424,
            46.225240350235254
          ],
          [
            7.59569027274847,
            46.22532135574147
          ],
          [
            7.59567126724869,
            46.22536035068333
          ],
          [
            7.595640271436423,
            46.225403347518295
          ],
          [
            7.595630274619907,
            46.22548335045576
          ],
          [
            7.595621266402304,
            46.2255103494972
          ],
          [
            7.595570272766054,
            46.22554034832865
          ],
          [
            7.595542270690203,
            46.225583349820226
          ],
          [
            7.5955022680573165,
            46.225640347227454
          ],
          [
            7.595462276600301,
            46.22570134745911
          ],
          [
            7.5954312714748085,
            46.225750353652984
          ],
          [
            7.595391274429858,
            46.225800352636725
          ],
          [
            7.595351276919246,
            46.225850351154804
          ],
          [
            7.595280277077109,
            46.22589135216549
          ],
          [
            7.595220275223255,
            46.22593034990132
          ],
          [
            7.595060268882662,
            46.22600234625861
          ],
          [
            7.594981275498867,
            46.22604035353288
          ],
          [
            7.59494227077812,
            46.226070353295654
          ],
          [
            7.594890273176134,
            46.226130353752524
          ],
          [
            7.5947802774608135,
            46.22625035326928
          ],
          [
            7.594730265904218,
            46.22630235366523
          ],
          [
            7.594681274611503,
            46.226330352481455
          ],
          [
            7.594620273914188,
            46.22636034619063
          ],
          [
            7.594620273914188,
            46.22636034619063
          ]
        ]
      }
    }
  ]
}