{
  "type": "FeatureCollection",
  "features": [
    {
      "type": "Feature",
      "properties": {
        "id": "158b62a671d041048235216d806c5e95",
        "name": "Segment 001",
        "order": 1,
        "structure_type": "open",
        "structure_types": [
          "open"
        ],
        "display_mode": "single",
        "bicolor_colors": [],
        "water_status": "unknown",
        "continuous": true
      },
      "geometry": {
        "type": "LineString",
        "coordinates": [
          [
            7.549530699383467,
            46.32842052727938
          ],
          [
            7.54950449289754,
            46.328304508235306
          ],
          [
            7.549560166429728,
            46.32822349341586
          ],
          [
            7.549614541232586,
            46.32814247952774
          ],
          [
            7.549679309595376,
            46.328064154833555
          ],
          [
            7.5497699826955795,
            46.32795341964811
          ],
          [
            7.5497762924060225,
            46.32786345668137
          ],
          [
            7.549782602582127,
            46.32777349371463
          ],
          [
            7.549790183547884,
            46.327670036349446
          ],
          [
            7.549790164921433,
            46.32767021423206
          ],
          [
            7.549750165082514,
            46.32765021407977
          ],
          [
            7.549780164845288,
            46.327620214316994
          ],
          [
            7.549850164912641,
            46.32752021448687
          ],
          [
            7.549880165141076,
            46.32748021418229
          ],
          [
            7.549920164979994,
            46.327430214267224
          ],
          [
            7.5499901650473475,
            46.3273302144371
          ],
          [
            7.550050165038556,
            46.32723021414131
          ],
          [
            7.550150164868683,
            46.3270902140066
          ],
          [
            7.550240165088326,
            46.32695021433756
          ],
          [
            7.550290165003389,
            46.32692021410912
          ],
          [
            7.550330164842308,
            46.326860214583576
          ],
          [
            7.550370164681226,
            46.32683021435514
          ],
          [
            7.550380164757371,
            46.32678021444008
          ],
          [
            7.550410164985806,
            46.326730214525014
          ],
          [
            7.550470164977014,
            46.326660213992
          ],
          [
            7.550500164739788,
            46.326610214076936
          ],
          [
            7.550490164197981,
            46.32652021339163
          ],
          [
            7.550500164274126,
            46.326500213705
          ],
          [
            7.550590164493769,
            46.32639021333307
          ],
          [
            7.550650164019316,
            46.32632021326572
          ],
          [
            7.550660164095461,
            46.32629021303728
          ],
          [
            7.550670164171606,
            46.326250213198364
          ],
          [
            7.550690163858235,
            46.32622021296993
          ],
          [
            7.550710164010525,
            46.32620021281764
          ],
          [
            7.5507101635448635,
            46.326150212436914
          ],
          [
            7.550720163621008,
            46.326110212597996
          ],
          [
            7.550750163383782,
            46.32608021236956
          ],
          [
            7.550760163459927,
            46.32605021260679
          ],
          [
            7.550760163459927,
            46.32604021253064
          ],
          [
            7.550780163612217,
            46.32602021237835
          ],
          [
            7.550790163688362,
            46.325980212539434
          ],
          [
            7.55083016352728,
            46.325940212234855
          ],
          [
            7.5508801634423435,
            46.32589021231979
          ],
          [
            7.550930163357407,
            46.32585021248087
          ],
          [
            7.550970163661987,
            46.32582021225244
          ],
          [
            7.551010163500905,
            46.32578021241352
          ],
          [
            7.5510501633398235,
            46.325750212185085
          ],
          [
            7.5510501633398235,
            46.325750212185085
          ],
          [
            7.551090163178742,
            46.325730212032795
          ],
          [
            7.55119016347453,
            46.32567021204159
          ],
          [
            7.551330163143575,
            46.32561021205038
          ],
          [
            7.551470163278282,
            46.32557021221146
          ],
          [
            7.551480163354427,
            46.32557021221146
          ],
          [
            7.551490163430572,
            46.32557021221146
          ],
          [
            7.55170016316697,
            46.32550021214411
          ],
          [
            7.551730163395405,
            46.32549021206796
          ],
          [
            7.551750163082033,
            46.32547021191567
          ],
          [
            7.551800162997097,
            46.32546021183953
          ],
          [
            7.551810163073242,
            46.32545021176338
          ],
          [
            7.5520101631991565,
            46.32545021176338
          ],
          [
            7.55208016326651,
            46.32544021168724
          ],
          [
            7.552130163181573,
            46.32543021161109
          ],
          [
            7.5521801630966365,
            46.32542021200061
          ],
          [
            7.552200163248926,
            46.32542021200061
          ],
          [
            7.552490163128823,
            46.325370211619884
          ],
          [
            7.5525201628915966,
            46.32536021154374
          ],
          [
            7.552600163035095,
            46.32534021185711
          ],
          [
            7.552650162950158,
            46.32532021170482
          ],
          [
            7.55278016300872,
            46.32526021171361
          ],
          [
            7.5530501627363265,
            46.325160211417824
          ],
          [
            7.553350162692368,
            46.32505021151155
          ],
          [
            7.553520162589848,
            46.3249802114442
          ],
          [
            7.553540162742138,
            46.324970211368054
          ],
          [
            7.5538401626981795,
            46.32488021114841
          ],
          [
            7.5541101628914475,
            46.32483021123335
          ],
          [
            7.554300162475556,
            46.32479021139443
          ],
          [
            7.554920162539929,
            46.32463021110743
          ],
          [
            7.554990162607282,
            46.32461021095514
          ],
          [
            7.555020162370056,
            46.32459021080285
          ],
          [
            7.555060162674636,
            46.32458021072671
          ],
          [
            7.555090162437409,
            46.32457021065056
          ],
          [
            7.555100162513554,
            46.32456021057442
          ],
          [
            7.555120162200183,
            46.32456021057442
          ],
          [
            7.5551401623524725,
            46.32456021057442
          ],
          [
            7.555210162419826,
            46.32456021104008
          ],
          [
            7.555220162495971,
            46.32456021057442
          ],
          [
            7.555270162411034,
            46.32454021088779
          ],
          [
            7.555570162367076,
            46.32446021074429
          ],
          [
            7.555650162510574,
            46.32443021098152
          ],
          [
            7.555740162264556,
            46.32440021075308
          ],
          [
            7.55579016264528,
            46.32439021067694
          ],
          [
            7.555830162484199,
            46.324380211066455
          ],
          [
            7.555870162323117,
            46.32437021099031
          ],
          [
            7.555920162238181,
            46.324360210914165
          ],
          [
            7.556020162533969,
            46.32433021068573
          ],
          [
            7.556100162211806,
            46.32431021053344
          ],
          [
            7.5561201623640954,
            46.324300210457295
          ],
          [
            7.556190162431449,
            46.32428021077067
          ],
          [
            7.556260162033141,
            46.32425021054223
          ],
          [
            7.556330162100494,
            46.32422021077946
          ],
          [
            7.556340162176639,
            46.32422021077946
          ],
          [
            7.556370162405074,
            46.32421021070331
          ],
          [
            7.556440162472427,
            46.32420021062717
          ],
          [
            7.556570162065327,
            46.324170210398734
          ],
          [
            7.556700162123889,
            46.324130210559815
          ],
          [
            7.556780162267387,
            46.32410021079704
          ],
          [
            7.556820162106305,
            46.3240902107209
          ],
          [
            7.55685016233474,
            46.32408021064475
          ],
          [
            7.556880162097514,
            46.32408021064475
          ],
          [
            7.556920162402093,
            46.32407021056861
          ],
          [
            7.556980162393302,
            46.32406021049246
          ],
          [
            7.557100162375718,
            46.32404021034017
          ],
          [
            7.55740016233176,
            46.323980210348964
          ],
          [
            7.557510162238032,
            46.323960210662335
          ],
          [
            7.55757016222924,
            46.32395021058619
          ],
          [
            7.557600162457675,
            46.32395021058619
          ],
          [
            7.557640162296593,
            46.323940210510045
          ],
          [
            7.557730162516236,
            46.323940210510045
          ],
          [
            7.55776016227901,
            46.3239302104339
          ],
          [
            7.557810162194073,
            46.323920210357755
          ],
          [
            7.557860162109137,
            46.32391021028161
          ],
          [
            7.557960162404925,
            46.32390021067113
          ],
          [
            7.558060162235051,
            46.32391021028161
          ],
          [
            7.558070162311196,
            46.32391021028161
          ],
          [
            7.55812016222626,
            46.323920210357755
          ],
          [
            7.558180162217468,
            46.323920210357755
          ],
          [
            7.5583301624283195,
            46.32390021067113
          ],
          [
            7.558470162563026,
            46.32389021059498
          ],
          [
            7.55848016217351,
            46.32389021059498
          ],
          [
            7.558550162240863,
            46.32389021059498
          ],
          [
            7.558560162317008,
            46.32389021059498
          ],
          [
            7.558590162545443,
            46.32390021067113
          ],
          [
            7.558630162384361,
            46.3239302104339
          ],
          [
            7.55865016207099,
            46.32395021058619
          ],
          [
            7.5586601621471345,
            46.323960210196674
          ],
          [
            7.558700161986053,
            46.323980210348964
          ],
          [
            7.558730162214488,
            46.32399021042511
          ],
          [
            7.558770162053406,
            46.32399021042511
          ],
          [
            7.558850162196904,
            46.323980210348964
          ],
          [
            7.558930162340403,
            46.323980210348964
          ],
          [
            7.558960162103176,
            46.323980210348964
          ],
          [
            7.559000161942095,
            46.323980210348964
          ],
          [
            7.559140162076801,
            46.32400021003559
          ],
          [
            7.5591801619157195,
            46.32399020995945
          ],
          [
            7.559370161965489,
            46.323960210196674
          ],
          [
            7.559540161862969,
            46.323940210044384
          ],
          [
            7.559550161939114,
            46.323940210044384
          ],
          [
            7.559670161921531,
            46.32395021012053
          ],
          [
            7.559730161912739,
            46.32397021027282
          ],
          [
            7.559840161819011,
            46.32399020995945
          ],
          [
            7.559900161810219,
            46.32400021003559
          ],
          [
            7.559930162038654,
            46.324010209646076
          ],
          [
            7.560070161707699,
            46.324010209646076
          ],
          [
            7.5601401617750525,
            46.32400020956993
          ],
          [
            7.560300161596388,
            46.32400020956993
          ],
          [
            7.560370161663741,
            46.32400020956993
          ],
          [
            7.560620161704719,
            46.32398020941764
          ],
          [
            7.5608401615172625,
            46.3239802098833
          ],
          [
            7.560880161821842,
            46.3239802098833
          ],
          [
            7.561180161777884,
            46.3239802098833
          ],
          [
            7.561350161675364,
            46.32398020941764
          ],
          [
            7.561610161792487,
            46.32398020941764
          ],
          [
            7.561750161461532,
            46.323990209493786
          ],
          [
            7.5620201616548,
            46.32400020956993
          ],
          [
            7.562230161391199,
            46.32400020956993
          ],
          [
            7.562670161481947,
            46.32402020925656
          ],
          [
            7.562860161531717,
            46.32402020925656
          ],
          [
            7.563110161572695,
            46.32404020940885
          ],
          [
            7.56327016139403,
            46.32404020940885
          ],
          [
            7.563400161452591,
            46.32405020901933
          ],
          [
            7.563490161206573,
            46.32405020901933
          ],
          [
            7.563520161435008,
            46.32406020909548
          ],
          [
            7.563780161552131,
            46.32406020909548
          ],
          [
            7.563860161229968,
            46.32406020909548
          ],
          [
            7.564000161364675,
            46.32406020909548
          ],
          [
            7.564320161473006,
            46.32406020909548
          ],
          [
            7.564500161446631,
            46.32408020924777
          ],
          [
            7.564730161335319,
            46.32409020885825
          ],
          [
            7.564880161080509,
            46.3241002089344
          ],
          [
            7.565010161139071,
            46.3241002089344
          ],
          [
            7.565080161206424,
            46.32411020901054
          ],
          [
            7.565120161045343,
            46.324120208621025
          ],
          [
            7.565230161417276,
            46.324120208621025
          ],
          [
            7.565380161162466,
            46.32413020869717
          ],
          [
            7.565510161221027,
            46.32413020869717
          ],
          [
            7.565570161212236,
            46.32413020869717
          ],
          [
            7.565640161279589,
            46.32413020869717
          ],
          [
            7.565720160957426,
            46.32413020869717
          ],
          [
            7.565850161015987,
            46.32413020869717
          ],
          [
            7.56647016108036,
            46.3241502083838
          ],
          [
            7.566550160758197,
            46.3241502083838
          ],
          [
            7.566670161206275,
            46.32416020845994
          ],
          [
            7.567240160889924,
            46.32419020868838
          ],
          [
            7.567820161115378,
            46.32419020868838
          ],
          [
            7.568190161138773,
            46.32419020868838
          ],
          [
            7.56899016071111,
            46.32419020822272
          ],
          [
            7.569030161015689,
            46.32419020822272
          ],
          [
            7.569880160503089,
            46.32418020768091
          ],
          [
            7.5708401603624225,
            46.324230207595974
          ],
          [
            7.571020160336047,
            46.324230207595974
          ],
          [
            7.571360160131007,
            46.324250207748264
          ],
          [
            7.572160160169005,
            46.324320207349956
          ],
          [
            7.572260160464793,
            46.3243302074261
          ],
          [
            7.57342015998438,
            46.324460207019
          ],
          [
            7.57416016003117,
            46.324550207238644
          ],
          [
            7.57486015977338,
            46.32463020691648
          ],
          [
            7.5756701598875225,
            46.32471020659432
          ],
          [
            7.576270159799606,
            46.3248002063483
          ],
          [
            7.576540159527212,
            46.32484020665288
          ],
          [
            7.576910159550607,
            46.3248802064918
          ],
          [
            7.5769701595418155,
            46.32489020610228
          ],
          [
            7.577060159295797,
            46.32490020617843
          ],
          [
            7.577100159600377,
            46.32491020625457
          ],
          [
            7.577330159489065,
            46.324920205865055
          ],
          [
            7.57751015946269,
            46.324940206017345
          ],
          [
            7.577590159140527,
            46.32495020609349
          ],
          [
            7.577610159292817,
            46.32495020609349
          ],
          [
            7.577720159199089,
            46.32497020578012
          ],
          [
            7.5778301591053605,
            46.324980205856264
          ],
          [
            7.577910159248859,
            46.32499020593241
          ],
          [
            7.577960159163922,
            46.32500020600855
          ],
          [
            7.578100159298629,
            46.32502020569518
          ],
          [
            7.578180159442127,
            46.32502020569518
          ],
          [
            7.5782901593483984,
            46.3250102060847
          ],
          [
            7.57838015910238,
            46.3250102060847
          ],
          [
            7.578530159313232,
            46.32501020561904
          ],
          [
            7.578650159295648,
            46.32500020600855
          ],
          [
            7.578730158973485,
            46.32499020593241
          ],
          [
            7.5789301590994,
            46.32497020578012
          ],
          [
            7.579050159081817,
            46.32497020578012
          ],
          [
            7.579380159266293,
            46.32495020562783
          ],
          [
            7.579490159172565,
            46.324940205551684
          ],
          [
            7.579580159392208,
            46.32491020578891
          ],
          [
            7.579630159307271,
            46.32489020563662
          ],
          [
            7.579660159070045,
            46.32489020563662
          ],
          [
            7.579680159222335,
            46.32488020602614
          ],
          [
            7.579750159289688,
            46.32486020587385
          ],
          [
            7.579790159128606,
            46.3248502057977
          ],
          [
            7.579810159280896,
            46.32484020572156
          ],
          [
            7.5798701592721045,
            46.32484020572156
          ],
          [
            7.580090159084648,
            46.32484020572156
          ],
          [
            7.580240159295499,
            46.32484020572156
          ],
          [
            7.580250159371644,
            46.32483020564541
          ],
          [
            7.580530159175396,
            46.324770205654204
          ],
          [
            7.580530159175396,
            46.324770205654204
          ],
          [
            7.580620158929378,
            46.324770205654204
          ],
          [
            7.5806701593101025,
            46.324770205654204
          ],
          [
            7.580760159064084,
            46.32476020557806
          ],
          [
            7.580850159283727,
            46.324750205501914
          ],
          [
            7.580910159274936,
            46.32474020589143
          ],
          [
            7.581050158943981,
            46.324710205662996
          ],
          [
            7.581100159324706,
            46.32470020558685
          ],
          [
            7.581140159163624,
            46.32470020558685
          ],
          [
            7.581310159061104,
            46.324690205510706
          ],
          [
            7.581320159137249,
            46.324690205510706
          ],
          [
            7.581420159433037,
            46.32467020582408
          ],
          [
            7.5814601592719555,
            46.3246302055195
          ],
          [
            7.581490159034729,
            46.32461020536721
          ],
          [
            7.5815301588736475,
            46.32459020568058
          ],
          [
            7.581660158932209,
            46.32457020552829
          ],
          [
            7.581750159151852,
            46.324560205452144
          ],
          [
            7.581880159210414,
            46.32453020568937
          ],
          [
            7.582240159157664,
            46.3244202057831
          ],
          [
            7.582280158996582,
            46.32440020563081
          ],
          [
            7.58236015914008,
            46.324370205868036
          ],
          [
            7.5824301592074335,
            46.32432020595297
          ],
          [
            7.582520159427077,
            46.32427020557225
          ],
          [
            7.5825901590287685,
            46.324220205657184
          ],
          [
            7.582660159096122,
            46.32415020558983
          ],
          [
            7.582710159011185,
            46.32411020528525
          ],
          [
            7.58272015908733,
            46.32408020552248
          ],
          [
            7.582730159163475,
            46.32406020537019
          ],
          [
            7.582690158858895,
            46.32394020538777
          ],
          [
            7.582670158706605,
            46.32386020524427
          ],
          [
            7.5826601586304605,
            46.32379020517692
          ],
          [
            7.582650159019977,
            46.323760204948485
          ],
          [
            7.582650159019977,
            46.32370020495728
          ],
          [
            7.582670158706605,
            46.32366020511836
          ],
          [
            7.582670158706605,
            46.32364020496607
          ],
          [
            7.58268015878275,
            46.323630205355585
          ],
          [
            7.582730158697814,
            46.323610205203295
          ],
          [
            7.582750158850104,
            46.323610205203295
          ],
          [
            7.582800158765167,
            46.323610205203295
          ],
          [
            7.582820158917457,
            46.323610205203295
          ],
          [
            7.582900159060955,
            46.323630205355585
          ],
          [
            7.582960159052163,
            46.32364020496607
          ],
          [
            7.582990158814937,
            46.32365020504221
          ],
          [
            7.583020159043372,
            46.32365020504221
          ],
          [
            7.583070158958435,
            46.32365020504221
          ],
          [
            7.5831101587973535,
            46.32364020496607
          ],
          [
            7.583150158636272,
            46.32364020496607
          ],
          [
            7.58323015877977,
            46.32362020527944
          ],
          [
            7.58338015852496,
            46.323590205051005
          ],
          [
            7.583600158803165,
            46.32352020498365
          ],
          [
            7.583710158709437,
            46.32350020483136
          ],
          [
            7.583770158700645,
            46.32348020514473
          ],
          [
            7.5839001587592065,
            46.3234502049163
          ],
          [
            7.58399015897885,
            46.32344020484015
          ],
          [
            7.5840801587328315,
            46.32343020476401
          ],
          [
            7.584130158647895,
            46.32343020476401
          ],
          [
            7.584170158486813,
            46.32344020484015
          ],
          [
            7.5842501586303115,
            46.3234502049163
          ],
          [
            7.584480158984661,
            46.32348020514473
          ],
          [
            7.584590158890933,
            46.32348020514473
          ],
          [
            7.584610158577561,
            46.32348020514473
          ],
          [
            7.584730158559978,
            46.32348020514473
          ],
          [
            7.5848701586946845,
            46.32348020514473
          ],
          [
            7.584950158838183,
            46.32349020522088
          ],
          [
            7.584990158677101,
            46.32350020483136
          ],
          [
            7.585080158896744,
            46.32351020490751
          ],
          [
            7.5852201585657895,
            46.32354020467028
          ],
          [
            7.585330158472061,
            46.323550204746425
          ],
          [
            7.585380158852786,
            46.32356020482257
          ],
          [
            7.585460158530623,
            46.323570204898715
          ],
          [
            7.585580158513039,
            46.32360020466149
          ],
          [
            7.585730158723891,
            46.32365020504221
          ],
          [
            7.585880158469081,
            46.32368020480499
          ],
          [
            7.585940158460289,
            46.32369020488113
          ],
          [
            7.5860101585276425,
            46.32371020456776
          ],
          [
            7.5861101588234305,
            46.32375020487234
          ],
          [
            7.586390158627182,
            46.32385020470247
          ],
          [
            7.586430158466101,
            46.32386020477861
          ],
          [
            7.586520158685744,
            46.32390020461753
          ],
          [
            7.586690158583224,
            46.32396020460874
          ],
          [
            7.586780158337206,
            46.32399020483717
          ],
          [
            7.586850158404559,
            46.3240102045238
          ],
          [
            7.5870201587677,
            46.32406020490453
          ],
          [
            7.5871501583606005,
            46.32411020481959
          ],
          [
            7.587470158468932,
            46.32422020472586
          ],
          [
            7.587480158545077,
            46.32423020480201
          ],
          [
            7.5875901584513485,
            46.32426020456478
          ],
          [
            7.5876001585274935,
            46.32426020456478
          ],
          [
            7.587690158281475,
            46.32428020471707
          ],
          [
            7.587710158433765,
            46.32429020432755
          ],
          [
            7.587730158586055,
            46.32431020447984
          ],
          [
            7.587750158272684,
            46.32432020455599
          ],
          [
            7.587780158501118,
            46.32433020463213
          ],
          [
            7.587810158263892,
            46.32434020470828
          ],
          [
            7.587830158416182,
            46.32434020470828
          ],
          [
            7.587850158568472,
            46.32434020470828
          ],
          [
            7.58793015871197,
            46.32433020463213
          ],
          [
            7.5880401586182415,
            46.32431020447984
          ],
          [
            7.58810015860945,
            46.32431020447984
          ],
          [
            7.58810015860945,
            46.32431020447984
          ],
          [
            7.58812015876174,
            46.32432020455599
          ],
          [
            7.588150158524513,
            46.32434020470828
          ],
          [
            7.588240158278495,
            46.32443020446226
          ],
          [
            7.58825015835464,
            46.32443020446226
          ],
          [
            7.588430158328265,
            46.32453020429239
          ],
          [
            7.588470158167183,
            46.32454020436853
          ],
          [
            7.588490158319473,
            46.32455020444468
          ],
          [
            7.588510158471763,
            46.32456020452082
          ],
          [
            7.588690158445388,
            46.324610204435885
          ],
          [
            7.588860158342868,
            46.32466020481661
          ],
          [
            7.588930158410221,
            46.32468020450324
          ],
          [
            7.588950158562511,
            46.32469020457938
          ],
          [
            7.588960158638656,
            46.32469020457938
          ],
          [
            7.589000158477575,
            46.32468020450324
          ],
          [
            7.589060158468783,
            46.3246502042748
          ],
          [
            7.589070158544928,
            46.3246502042748
          ],
          [
            7.589080158621073,
            46.324630204588175
          ],
          [
            7.5891901585273445,
            46.324380204081535
          ],
          [
            7.589190158061683,
            46.32435020431876
          ],
          [
            7.589200158137828,
            46.32433020416647
          ],
          [
            7.589190158061683,
            46.32428020425141
          ],
          [
            7.589170158375055,
            46.32426020409912
          ],
          [
            7.58916015829891,
            46.324230204336345
          ],
          [
            7.58916015829891,
            46.3242202042602
          ],
          [
            7.58916015829891,
            46.32420020410791
          ],
          [
            7.589180157985538,
            46.32412020396441
          ],
          [
            7.589200158137828,
            46.32408020365983
          ],
          [
            7.589230157900602,
            46.324020203668624
          ],
          [
            7.589280157815665,
            46.32399020390585
          ],
          [
            7.5894201579503715,
            46.32391020376235
          ],
          [
            7.58946015778929,
            46.32388020399958
          ],
          [
            7.589520157780498,
            46.323810203466564
          ],
          [
            7.589550158008933,
            46.323770203627646
          ],
          [
            7.589610158000141,
            46.32372020371258
          ],
          [
            7.58965015783906,
            46.323660203721374
          ],
          [
            7.5896601574495435,
            46.323620203416795
          ],
          [
            7.589730157516897,
            46.32353020319715
          ],
          [
            7.5897601577453315,
            46.32349020335823
          ],
          [
            7.5897701578214765,
            46.32348020328209
          ],
          [
            7.58978015743196,
            46.32346020359546
          ],
          [
            7.589790157508105,
            46.323370203375816
          ],
          [
            7.589790157508105,
            46.323370203375816
          ],
          [
            7.58982015773654,
            46.32331020338461
          ],
          [
            7.5898301573470235,
            46.32330020330846
          ],
          [
            7.589860157575458,
            46.32328020315617
          ],
          [
            7.589880157727748,
            46.32327020354569
          ],
          [
            7.589910157490522,
            46.323260203469545
          ],
          [
            7.589920157566667,
            46.323240203317255
          ],
          [
            7.589920157566667,
            46.32323020324111
          ],
          [
            7.589920157566667,
            46.32321020308882
          ],
          [
            7.589910157490522,
            46.32314020302147
          ],
          [
            7.589910157490522,
            46.32314020302147
          ],
          [
            7.589920157566667,
            46.32312020286918
          ],
          [
            7.589940157253295,
            46.32311020325869
          ],
          [
            7.58995015732944,
            46.32310020318255
          ],
          [
            7.589960157405585,
            46.32308020303026
          ],
          [
            7.590010157320648,
            46.32304020319134
          ],
          [
            7.590030157472938,
            46.32304020319134
          ],
          [
            7.590050157159567,
            46.323030203115195
          ],
          [
            7.5901001575402915,
            46.323010202962905
          ],
          [
            7.5901601575315,
            46.32300020288676
          ],
          [
            7.590180157218128,
            46.322990202810615
          ],
          [
            7.590240157209337,
            46.32297020312399
          ],
          [
            7.590340157505125,
            46.32292020274326
          ],
          [
            7.590410157106817,
            46.32290020305663
          ],
          [
            7.590440157335252,
            46.32290020305663
          ],
          [
            7.59050015732646,
            46.32291020266712
          ],
          [
            7.590530157089233,
            46.32291020266712
          ],
          [
            7.590560157317668,
            46.32291020266712
          ],
          [
            7.590700157452375,
            46.32283020298928
          ],
          [
            7.590820157434791,
            46.3227902026847
          ],
          [
            7.590870157349855,
            46.3227902026847
          ],
          [
            7.5910101570189,
            46.32281020283699
          ],
          [
            7.5911301570013165,
            46.322820202913135
          ],
          [
            7.591230157297105,
            46.322820202913135
          ],
          [
            7.591330157127231,
            46.322820202913135
          ],
          [
            7.591330164577812,
            46.32282021129504
          ],
          [
            7.5914701647125185,
            46.32282021129504
          ],
          [
            7.591690164525062,
            46.3228702112101
          ],
          [
            7.591740164440125,
            46.32289021089673
          ],
          [
            7.591790164355189,
            46.32291021104902
          ],
          [
            7.59192016441375,
            46.32295021088794
          ],
          [
            7.59194016456604,
            46.32295021088794
          ],
          [
            7.5920801647007465,
            46.32298021111637
          ],
          [
            7.59211016446352,
            46.323000210803
          ],
          [
            7.592140164226294,
            46.32303021103144
          ],
          [
            7.592170164454728,
            46.323050210718066
          ],
          [
            7.592190164607018,
            46.32306021079421
          ],
          [
            7.592200164217502,
            46.32306021079421
          ],
          [
            7.5922501645982265,
            46.323070210870355
          ],
          [
            7.59230016451329,
            46.32306021079421
          ],
          [
            7.592330164276063,
            46.323050210718066
          ],
          [
            7.592380164191127,
            46.323030210565776
          ],
          [
            7.592410164419562,
            46.32301021087915
          ],
          [
            7.592440164182335,
            46.32299021072686
          ],
          [
            7.59247016441077,
            46.32297021057457
          ],
          [
            7.592520164325833,
            46.32293021073565
          ],
          [
            7.592530164401978,
            46.322920210659504
          ],
          [
            7.592570164240897,
            46.32291021058336
          ],
          [
            7.592630164232105,
            46.32291021058336
          ],
          [
            7.592700164299458,
            46.322900210507214
          ],
          [
            7.592760164290667,
            46.32289021043107
          ],
          [
            7.592800164129585,
            46.322860210668296
          ],
          [
            7.59283016435802,
            46.32285021059215
          ],
          [
            7.592860164120793,
            46.32283021043986
          ],
          [
            7.592910164501518,
            46.322820210363716
          ],
          [
            7.592930164188147,
            46.32280021067709
          ],
          [
            7.592960164416581,
            46.32277021044865
          ],
          [
            7.592970164027065,
            46.3227002103813
          ],
          [
            7.59296016395092,
            46.32266021054238
          ],
          [
            7.5929501643404365,
            46.32260021055117
          ],
          [
            7.5929501643404365,
            46.32259021047503
          ],
          [
            7.5929501643404365,
            46.32256021024659
          ],
          [
            7.592920164112002,
            46.322500210255384
          ],
          [
            7.592920164112002,
            46.32245021034032
          ],
          [
            7.592920164112002,
            46.322440210264176
          ],
          [
            7.592930164188147,
            46.32243021018803
          ],
          [
            7.5929401642642915,
            46.32242021057755
          ],
          [
            7.59296016395092,
            46.3224102105014
          ],
          [
            7.592970164027065,
            46.3224102105014
          ],
          [
            7.593030164018273,
            46.3224102105014
          ],
          [
            7.593100164085627,
            46.3224102105014
          ],
          [
            7.59315016400069,
            46.3224102105014
          ],
          [
            7.593260163906962,
            46.32239021034911
          ],
          [
            7.5932901641353965,
            46.32239021034911
          ],
          [
            7.593310163822025,
            46.32240021042526
          ],
          [
            7.59332016389817,
            46.32240021042526
          ],
          [
            7.59334016405046,
            46.3224102105014
          ],
          [
            7.593350164126605,
            46.322420210111886
          ],
          [
            7.593390163965523,
            46.322460210416466
          ],
          [
            7.593420164193958,
            46.322480210103095
          ],
          [
            7.593470164109021,
            46.322500210255384
          ],
          [
            7.59351016394794,
            46.322520210407674
          ],
          [
            7.59355016425252,
            46.3225402100943
          ],
          [
            7.593560163863003,
            46.3225402100943
          ],
          [
            7.593640164006501,
            46.3225402100943
          ],
          [
            7.593650164082646,
            46.3225402100943
          ],
          [
            7.593740163836628,
            46.322520210407674
          ],
          [
            7.593780164141208,
            46.32249021017924
          ],
          [
            7.593790164217353,
            46.322480210103095
          ],
          [
            7.593860163819045,
            46.322460210416466
          ],
          [
            7.593950164038688,
            46.322440210264176
          ],
          [
            7.59404016379267,
            46.32243021018803
          ],
          [
            7.594100164249539,
            46.322420210111886
          ],
          [
            7.594120163936168,
            46.32243021018803
          ],
          [
            7.594130164012313,
            46.32245021034032
          ],
          [
            7.594150164164603,
            46.32247021002695
          ],
          [
            7.594170163851231,
            46.322480210103095
          ],
          [
            7.594170163851231,
            46.322480210103095
          ],
          [
            7.594180163927376,
            46.32249021017924
          ],
          [
            7.5942501639947295,
            46.32249021017924
          ],
          [
            7.5942601640708745,
            46.32249021017924
          ],
          [
            7.594300163909793,
            46.32247021002695
          ],
          [
            7.594350163824856,
            46.322460209950805
          ],
          [
            7.59440016373992,
            46.322440209798515
          ],
          [
            7.594470163807273,
            46.322440209798515
          ],
          [
            7.594510163646191,
            46.322440209798515
          ],
          [
            7.594670163933188,
            46.322460209950805
          ],
          [
            7.594710163772106,
            46.322460209950805
          ],
          [
            7.5947701637633145,
            46.32247021002695
          ],
          [
            7.594840163830668,
            46.32247021002695
          ],
          [
            7.594890163745731,
            46.322460209950805
          ],
          [
            7.594960163813084,
            46.322440209798515
          ],
          [
            7.594960163813084,
            46.322440209798515
          ],
          [
            7.594960163813084,
            46.322440209798515
          ],
          [
            7.595010163728148,
            46.322420210111886
          ],
          [
            7.5950401639565825,
            46.32241021003574
          ],
          [
            7.595160163938999,
            46.32241021003574
          ],
          [
            7.595240163616836,
            46.322400209959596
          ],
          [
            7.595300163608044,
            46.32239020988345
          ],
          [
            7.595360163599253,
            46.32237020973116
          ],
          [
            7.595380163751543,
            46.32235020957887
          ],
          [
            7.595400163903832,
            46.32233020989224
          ],
          [
            7.595410163514316,
            46.3223202098161
          ],
          [
            7.595410163514316,
            46.32230020966381
          ],
          [
            7.595410163514316,
            46.322270209901035
          ],
          [
            7.595410163514316,
            46.32226020982489
          ],
          [
            7.595380163751543,
            46.32220020983368
          ],
          [
            7.595360163599253,
            46.32217020960525
          ],
          [
            7.595330163836479,
            46.32213020976633
          ],
          [
            7.5952901635318995,
            46.32207020977512
          ],
          [
            7.5952801634557545,
            46.32205020962283
          ],
          [
            7.5952801634557545,
            46.32201020978391
          ],
          [
            7.5952901635318995,
            46.32200020970777
          ],
          [
            7.595330163836479,
            46.32196020986885
          ],
          [
            7.595360163599253,
            46.32194020971656
          ],
          [
            7.595360163599253,
            46.32194020971656
          ],
          [
            7.595360163599253,
            46.32193020964041
          ],
          [
            7.595370163675398,
            46.32192020956427
          ],
          [
            7.595380163751543,
            46.32190020987764
          ],
          [
            7.5953901638276875,
            46.32190020987764
          ],
          [
            7.595400163438171,
            46.321890209801495
          ],
          [
            7.595450163818896,
            46.321890209801495
          ],
          [
            7.595460163895041,
            46.32188020972535
          ],
          [
            7.595500163733959,
            46.321870209649205
          ],
          [
            7.595610163640231,
            46.32186020957306
          ],
          [
            7.595650163479149,
            46.32186020957306
          ],
          [
            7.595720163546503,
            46.32186020957306
          ],
          [
            7.595800163690001,
            46.32186020957306
          ],
          [
            7.595870163757354,
            46.32184020942077
          ],
          [
            7.595870163757354,
            46.32184020942077
          ],
          [
            7.595920163672417,
            46.32178020942956
          ],
          [
            7.595930163282901,
            46.32176020927727
          ],
          [
            7.595980163197964,
            46.3217302095145
          ],
          [
            7.596030163578689,
            46.32171020936221
          ],
          [
            7.596060163341463,
            46.321700209286064
          ],
          [
            7.596090163569897,
            46.321700209286064
          ],
          [
            7.596130163408816,
            46.321680209133774
          ],
          [
            7.596160163171589,
            46.32167020952329
          ],
          [
            7.596180163323879,
            46.321660209447145
          ],
          [
            7.596200163476169,
            46.321650209371
          ],
          [
            7.596260163467377,
            46.321640209294856
          ],
          [
            7.596310163382441,
            46.32163020968437
          ],
          [
            7.596380163449794,
            46.32160020945594
          ],
          [
            7.596450163517147,
            46.32159020937979
          ],
          [
            7.596510163508356,
            46.32158020930365
          ],
          [
            7.596550163347274,
            46.3215702092275
          ],
          [
            7.596650163643062,
            46.3215702092275
          ],
          [
            7.596670163329691,
            46.32156020961702
          ],
          [
            7.596680163405836,
            46.321550209540874
          ],
          [
            7.5967001635581255,
            46.321530209388584
          ],
          [
            7.5967001635581255,
            46.321510209236294
          ],
          [
            7.59671016363427,
            46.32146020932123
          ],
          [
            7.59671016363427,
            46.32142020948231
          ],
          [
            7.596720163244754,
            46.32139020925388
          ],
          [
            7.596720163244754,
            46.321360209491104
          ],
          [
            7.596720163244754,
            46.32135020941496
          ],
          [
            7.596730163320899,
            46.32133020926267
          ],
          [
            7.596730163320899,
            46.32133020926267
          ],
          [
            7.596740163397044,
            46.321320209186524
          ],
          [
            7.5967701631598175,
            46.32131020911038
          ],
          [
            7.596790163312107,
            46.321300209034234
          ],
          [
            7.596810163464397,
            46.32129020942375
          ],
          [
            7.596820163540542,
            46.32129020942375
          ],
          [
            7.596840163227171,
            46.32127020927146
          ],
          [
            7.596860163379461,
            46.321260209195316
          ],
          [
            7.596900163218379,
            46.32125020911917
          ],
          [
            7.596980163361877,
            46.3212202093564
          ],
          [
            7.5970401633530855,
            46.32121020928025
          ],
          [
            7.597100163344294,
            46.32120020920411
          ],
          [
            7.597130163572729,
            46.32119020912796
          ],
          [
            7.597190163563937,
            46.32119020912796
          ],
          [
            7.5972201633267105,
            46.32120020920411
          ],
          [
            7.597230163402855,
            46.32120020920411
          ],
          [
            7.597280163317919,
            46.32121020928025
          ],
          [
            7.597290163394064,
            46.3212202093564
          ],
          [
            7.597400163300335,
            46.32121020928025
          ],
          [
            7.597440163139254,
            46.32121020928025
          ],
          [
            7.597630163189024,
            46.32121020881459
          ],
          [
            7.597760162781924,
            46.321220208425075
          ],
          [
            7.5979701625183225,
            46.32123020803556
          ],
          [
            7.598190162330866,
            46.32125020772219
          ],
          [
            7.5983101623132825,
            46.32127020787448
          ],
          [
            7.598320162389427,
            46.32127020787448
          ],
          [
            7.598390161991119,
            46.32128020748496
          ],
          [
            7.598410162143409,
            46.32128020748496
          ],
          [
            7.598490162286907,
            46.32130020763725
          ],
          [
            7.598590162117034,
            46.32134020747617
          ],
          [
            7.5987201617099345,
            46.32138020731509
          ],
          [
            7.598790161777288,
            46.32141020707786
          ],
          [
            7.598830161616206,
            46.321420207154006
          ],
          [
            7.598900161683559,
            46.321460206992924
          ],
          [
            7.598990161437541,
            46.32150020683184
          ],
          [
            7.599070161115378,
            46.32152020651847
          ],
          [
            7.5992901609279215,
            46.32159020612016
          ],
          [
            7.599400160834193,
            46.32163020595908
          ],
          [
            7.599540160503238,
            46.32169020548463
          ],
          [
            7.5996301607228816,
            46.32174020539969
          ],
          [
            7.599780160468072,
            46.321810205001384
          ],
          [
            7.5998801602981985,
            46.321850205305964
          ],
          [
            7.599879603367299,
            46.321850249078125
          ],
          [
            7.599983312189579,
            46.3217952279374
          ],
          [
            7.600087022874504,
            46.32174110598862
          ],
          [
            7.600153136067092,
            46.32170592807233
          ],
          [
            7.600258148275316,
            46.32165270391852
          ],
          [
            7.6003631595522165,
            46.32159947929904
          ],
          [
            7.600438353605568,
            46.321561589837074
          ],
          [
            7.6005394593812525,
            46.32150477357209
          ],
          [
            7.600640567485243,
            46.321448856033385
          ],
          [
            7.6007624147459865,
            46.32138121454045
          ],
          [
            7.600847907364368,
            46.32131362520158
          ],
          [
            7.600933396723121,
            46.321245135739446
          ],
          [
            7.60103443171829,
            46.321164929308
          ],
          [
            7.601139441598207,
            46.32111170468852
          ],
          [
            7.60124445380643,
            46.32105937926099
          ],
          [
            7.601410395465791,
            46.32097548106685
          ],
          [
            7.601467282045633,
            46.32089443830773
          ],
          [
            7.601522869896144,
            46.32081339741126
          ],
          [
            7.601604317314923,
            46.320696336217225
          ],
          [
            7.601611838676035,
            46.32060636859387
          ],
          [
            7.601620658300817,
            46.32051639864221
          ],
          [
            7.601629424374551,
            46.32040843786672
          ],
          [
            7.601685008965433,
            46.320326497312635
          ],
          [
            7.601740595884621,
            46.32024545641616
          ],
          [
            7.601794884074479,
            46.32016441645101
          ],
          [
            7.601849175058305,
            46.32008427614346
          ],
          [
            7.601880074013025,
            46.319996973499656
          ],
          [
            7.601912270765752,
            46.31990966806188
          ],
          [
            7.601943168789148,
            46.31982236402109
          ],
          [
            7.601974066812545,
            46.319735060445964
          ],
          [
            7.602003680542111,
            46.31965225702152
          ],
          [
            7.602052766364068,
            46.319568525999784
          ],
          [
            7.602100553456694,
            46.3194847968407
          ],
          [
            7.602149641606957,
            46.31940196501091
          ],
          [
            7.602197429165244,
            46.319318236317486
          ],
          [
            7.6022490952163935,
            46.319229105021805
          ]
        ]
      }
    }
  ]
}