{
  "type": "FeatureCollection",
  "features": [
    {
      "type": "Feature",
      "properties": {
        "id": "c1070b53724c49d29f552064f4b3df60",
        "name": "Segment 001",
        "order": 1,
        "structure_type": "open",
        "structure_types": [
          "open"
        ],
        "display_mode": "single",
        "bicolor_colors": [],
        "water_status": "unknown",
        "continuous": false
      },
      "geometry": {
        "type": "MultiLineString",
        "coordinates": [
          [
            [
              7.371650116983801,
              46.259330155327916
            ],
            [
              7.371470117010176,
              46.259200155269355
            ],
            [
              7.371360116638243,
              46.25915015535429
            ],
            [
              7.371340116485953,
              46.25913015473634
            ],
            [
              7.371260116342455,
              46.259080154355615
            ],
            [
              7.371120116207749,
              46.25902015436441
            ],
            [
              7.371050116140395,
              46.25900015421212
            ],
            [
              7.3710401160642505,
              46.25900015421212
            ],
            [
              7.370920116081834,
              46.25896015390754
            ],
            [
              7.370840115938336,
              46.258930154144764
            ],
            [
              7.370780115947127,
              46.25892015406862
            ],
            [
              7.370690115727484,
              46.25890015391633
            ],
            [
              7.370610116049647,
              46.25888015376404
            ],
            [
              7.370560115668923,
              46.258870154153556
            ],
            [
              7.370520115830004,
              46.258850154001266
            ],
            [
              7.370510115753859,
              46.25884015392512
            ],
            [
              7.370450115762651,
              46.25878015393391
            ],
            [
              7.370370115619153,
              46.25871015386656
            ],
            [
              7.370350115932524,
              46.25869015371427
            ],
            [
              7.370280115865171,
              46.258660153951496
            ],
            [
              7.370240115560591,
              46.258620153646916
            ],
            [
              7.370220115873963,
              46.258580153808
            ],
            [
              7.370200115721673,
              46.258510153740644
            ],
            [
              7.370190115645528,
              46.2585001536645
            ],
            [
              7.370180115569383,
              46.258450153749436
            ],
            [
              7.370150115806609,
              46.25839015375823
            ],
            [
              7.370120115578175,
              46.25833015376702
            ],
            [
              7.370100115425885,
              46.258280153386295
            ],
            [
              7.370080115739256,
              46.25823015347123
            ],
            [
              7.370020115748048,
              46.25812015356496
            ],
            [
              7.369990115519613,
              46.258070153649896
            ],
            [
              7.3699601157568395,
              46.25802015373483
            ],
            [
              7.369950115680695,
              46.25798015343025
            ],
            [
              7.369950115680695,
              46.25793015351519
            ],
            [
              7.369930115528405,
              46.25789015367627
            ],
            [
              7.36992011545226,
              46.25788015360013
            ],
            [
              7.3698601154610515,
              46.25778015330434
            ],
            [
              7.3698501153849065,
              46.25776015361771
            ],
            [
              7.369840115308762,
              46.25771015370265
            ],
            [
              7.369820115622133,
              46.25765015324578
            ],
            [
              7.369780115317553,
              46.25763015355915
            ],
            [
              7.36975011555478,
              46.25759015325457
            ],
            [
              7.36973011540249,
              46.25759015325457
            ],
            [
              7.369640115648508,
              46.257540153339505
            ],
            [
              7.369550115428865,
              46.25750015350059
            ],
            [
              7.369480115361512,
              46.25747015327215
            ],
            [
              7.369470115285367,
              46.25747015327215
            ],
            [
              7.369420115370303,
              46.25743015343323
            ],
            [
              7.3694001152180135,
              46.257410153280944
            ],
            [
              7.369310115464032,
              46.257350153289735
            ],
            [
              7.369280115235597,
              46.257330153137445
            ],
            [
              7.369260115083307,
              46.2573201530613
            ],
            [
              7.36918011540547,
              46.25729015329853
            ],
            [
              7.369130115490407,
              46.25728015322238
            ],
            [
              7.369130115490407,
              46.25728015322238
            ],
            [
              7.36901011550799,
              46.25726015307009
            ],
            [
              7.3689901153557,
              46.25726015307009
            ],
            [
              7.3689601151272655,
              46.25725015299395
            ],
            [
              7.3689501150511205,
              46.25725015299395
            ],
            [
              7.368880115449429,
              46.257200153078884
            ],
            [
              7.368850115220994,
              46.257180153392255
            ],
            [
              7.368750115390867,
              46.25712015340105
            ],
            [
              7.368740115314722,
              46.2571101533249
            ],
            [
              7.368710115086287,
              46.25708015309647
            ],
            [
              7.368680115323514,
              46.257050153333694
            ],
            [
              7.368640115018934,
              46.256970153190196
            ],
            [
              7.36863011540845,
              46.25696015311405
            ],
            [
              7.368550115264952,
              46.25688015297055
            ],
            [
              7.368490115273744,
              46.2568101529032
            ],
            [
              7.3684401153586805,
              46.256780153140426
            ],
            [
              7.368390115443617,
              46.25675015291199
            ],
            [
              7.368360115215182,
              46.25673015322536
            ],
            [
              7.368290115147829,
              46.25669015292078
            ],
            [
              7.3682601153850555,
              46.2566801533103
            ],
            [
              7.368230115156621,
              46.256670153234154
            ],
            [
              7.368200115393847,
              46.25666015315801
            ],
            [
              7.3681601150892675,
              46.256650153081864
            ],
            [
              7.368010115344077,
              46.25662015285343
            ],
            [
              7.367830115370452,
              46.25658015301451
            ],
            [
              7.367710115388036,
              46.25655015325174
            ],
            [
              7.367660115007311,
              46.25654015317559
            ],
            [
              7.3676401153206825,
              46.25653015309945
            ],
            [
              7.367620115168393,
              46.2565201530233
            ],
            [
              7.367590114939958,
              46.25650015287101
            ],
            [
              7.367510115262121,
              46.256460153032094
            ],
            [
              7.367440115194768,
              46.256440152879804
            ],
            [
              7.367410114966333,
              46.256420152727515
            ],
            [
              7.367390115279704,
              46.25641015311703
            ],
            [
              7.367380115203559,
              46.256400153040886
            ],
            [
              7.3673601150512695,
              46.256380152888596
            ],
            [
              7.367350114975125,
              46.25634015304968
            ],
            [
              7.367340115364641,
              46.25631015282124
            ],
            [
              7.367320115212351,
              46.256270152982324
            ],
            [
              7.367290114983916,
              46.256250152830034
            ],
            [
              7.367280115373433,
              46.256250152830034
            ],
            [
              7.367280115373433,
              46.256250152830034
            ],
            [
              7.367220114916563,
              46.25622015306726
            ],
            [
              7.367180115077645,
              46.256210152991116
            ],
            [
              7.367110115010291,
              46.256170152686536
            ],
            [
              7.367070115171373,
              46.25615015299991
            ],
            [
              7.367020114790648,
              46.25613015284762
            ],
            [
              7.366890115197748,
              46.2560901530087
            ],
            [
              7.366880115121603,
              46.256080152932554
            ],
            [
              7.36683011520654,
              46.25605015316978
            ],
            [
              7.366760115139186,
              46.256000152789056
            ],
            [
              7.366710115224123,
              46.25595015287399
            ],
            [
              7.366670114919543,
              46.25592015311122
            ],
            [
              7.366650115232915,
              46.25588015280664
            ],
            [
              7.366630115080625,
              46.255830152891576
            ],
            [
              7.366630115080625,
              46.25569015275687
            ],
            [
              7.36664011515677,
              46.2555801528506
            ],
            [
              7.366650115232915,
              46.25557015277445
            ],
            [
              7.366650115232915,
              46.25548015302047
            ],
            [
              7.36664011515677,
              46.25546015286818
            ],
            [
              7.366610114928335,
              46.25540015287697
            ],
            [
              7.366560115013272,
              46.25533015280962
            ],
            [
              7.366530114784837,
              46.25522015290335
            ],
            [
              7.366520114708692,
              46.255150152835995
            ],
            [
              7.366520114708692,
              46.25509015284479
            ],
            [
              7.366520115174353,
              46.25503015285358
            ],
            [
              7.366520115174353,
              46.25499015301466
            ],
            [
              7.366520115174353,
              46.254980152938515
            ],
            [
              7.366500115022063,
              46.25493015302345
            ],
            [
              7.366480114869773,
              46.25488015310839
            ],
            [
              7.366460115183145,
              46.25483015272766
            ],
            [
              7.366450115107,
              46.254810153041035
            ],
            [
              7.366450115107,
              46.254790152888745
            ],
            [
              7.366450115107,
              46.254770152736455
            ],
            [
              7.366480114869773,
              46.254640152677894
            ],
            [
              7.366480114869773,
              46.254620152991265
            ],
            [
              7.366490114945918,
              46.25453015277162
            ],
            [
              7.366500115022063,
              46.25450015300885
            ],
            [
              7.366530114784837,
              46.25442015286535
            ],
            [
              7.366560115013272,
              46.25437015295029
            ],
            [
              7.3665701150894165,
              46.25431015295908
            ],
            [
              7.366560115013272,
              46.254280152730644
            ],
            [
              7.366520114708692,
              46.25423015234992
            ],
            [
              7.366500114556402,
              46.254200152587146
            ],
            [
              7.366500114556402,
              46.254200152587146
            ],
            [
              7.366480114869773,
              46.25417015235871
            ],
            [
              7.3664701147936285,
              46.25413015251979
            ],
            [
              7.3664601147174835,
              46.254030152689666
            ],
            [
              7.366450114641339,
              46.254010152537376
            ],
            [
              7.366450114641339,
              46.254010152537376
            ],
            [
              7.3664601147174835,
              46.25393015239388
            ],
            [
              7.3664601147174835,
              46.25391015224159
            ],
            [
              7.366450114641339,
              46.253880152478814
            ],
            [
              7.366420114878565,
              46.253860152326524
            ],
            [
              7.36639011465013,
              46.253840152639896
            ],
            [
              7.366360114887357,
              46.253840152639896
            ],
            [
              7.36622011475265,
              46.253820152487606
            ],
            [
              7.366170114837587,
              46.253820152487606
            ],
            [
              7.366150114685297,
              46.25381015241146
            ],
            [
              7.366090114694089,
              46.25381015241146
            ],
            [
              7.366060114931315,
              46.25381015241146
            ],
            [
              7.365980114787817,
              46.25381015241146
            ],
            [
              7.365810114890337,
              46.253840152639896
            ],
            [
              7.365640114527196,
              46.253860152326524
            ],
            [
              7.365520114544779,
              46.253860152326524
            ],
            [
              7.365460114553571,
              46.253860152326524
            ],
            [
              7.365440114401281,
              46.25385015225038
            ],
            [
              7.365280114579946,
              46.253820152021945
            ],
            [
              7.365200114436448,
              46.253800152335316
            ],
            [
              7.365160114597529,
              46.253800152335316
            ],
            [
              7.365100114606321,
              46.253800152335316
            ],
            [
              7.365010114852339,
              46.25381015241146
            ],
            [
              7.364920114632696,
              46.25379015225917
            ],
            [
              7.364730114582926,
              46.253760152030736
            ],
            [
              7.364680114667863,
              46.25374015234411
            ],
            [
              7.364620114676654,
              46.25370015250519
            ],
            [
              7.3645901144482195,
              46.2536801523529
            ],
            [
              7.364610114600509,
              46.25364015204832
            ],
            [
              7.364610114600509,
              46.253630151972175
            ],
            [
              7.364720114506781,
              46.25358015205711
            ],
            [
              7.364790114574134,
              46.25355015229434
            ],
            [
              7.364820114336908,
              46.25354015221819
            ],
            [
              7.364830114413053,
              46.25353015214205
            ],
            [
              7.364860114641488,
              46.253500152379274
            ],
            [
              7.364990114700049,
              46.253460152074695
            ],
            [
              7.365030114538968,
              46.25341015215963
            ],
            [
              7.365070114377886,
              46.25337015232071
            ],
            [
              7.365110114682466,
              46.25333015201613
            ],
            [
              7.365120114292949,
              46.253310152329504
            ],
            [
              7.365170114673674,
              46.253230152186006
            ],
            [
              7.365180114749819,
              46.25316015211865
            ],
            [
              7.365170114673674,
              46.2530901520513
            ],
            [
              7.365110114682466,
              46.252930152229965
            ],
            [
              7.365040114149451,
              46.25275015225634
            ],
            [
              7.365020114462823,
              46.25262015219778
            ],
            [
              7.365020114462823,
              46.25256015220657
            ],
            [
              7.3650401146151125,
              46.25247015198693
            ],
            [
              7.3650401146151125,
              46.25243015214801
            ],
            [
              7.365070114377886,
              46.2523701521568
            ],
            [
              7.365090114530176,
              46.25231015216559
            ],
            [
              7.365100114606321,
              46.25226015225053
            ],
            [
              7.365100114606321,
              46.25224015209824
            ],
            [
              7.365080114454031,
              46.25212015211582
            ],
            [
              7.365070114377886,
              46.25208015181124
            ],
            [
              7.365060114301741,
              46.25207015220076
            ],
            [
              7.365040114149451,
              46.25205015204847
            ],
            [
              7.365030114538968,
              46.25203015189618
            ],
            [
              7.365000114310533,
              46.252000152133405
            ],
            [
              7.3649401143193245,
              46.25195015175268
            ],
            [
              7.364900114480406,
              46.25193015206605
            ],
            [
              7.364850114565343,
              46.25191015191376
            ],
            [
              7.364850114565343,
              46.25191015191376
            ],
            [
              7.364840114489198,
              46.25191015191376
            ],
            [
              7.3647601143456995,
              46.25188015215099
            ],
            [
              7.364690114278346,
              46.251870152074844
            ],
            [
              7.364640114363283,
              46.2518601519987
            ],
            [
              7.364520114380866,
              46.251850151922554
            ],
            [
              7.364420114085078,
              46.251850151922554
            ],
            [
              7.364340114407241,
              46.251850151922554
            ],
            [
              7.364280114416033,
              46.251850151922554
            ],
            [
              7.36419011419639,
              46.251850151922554
            ],
            [
              7.364120114129037,
              46.25184015184641
            ],
            [
              7.364060114137828,
              46.25182015215978
            ],
            [
              7.3639701143838465,
              46.251790151931345
            ],
            [
              7.363910114392638,
              46.251770151779056
            ],
            [
              7.363890114240348,
              46.25176015216857
            ],
            [
              7.36385011440143,
              46.25176015216857
            ],
            [
              7.363790114410222,
              46.25176015216857
            ],
            [
              7.363760114181787,
              46.25176015216857
            ],
            [
              7.363750114105642,
              46.25176015216857
            ],
            [
              7.363710114266723,
              46.25175015209243
            ],
            [
              7.363670114427805,
              46.25174015201628
            ],
            [
              7.363510114140809,
              46.251700152177364
            ],
            [
              7.363410114310682,
              46.251660151872784
            ],
            [
              7.363270114175975,
              46.251600151881576
            ],
            [
              7.3632501140236855,
              46.25159015180543
            ],
            [
              7.363220114260912,
              46.25159015180543
            ],
            [
              7.363210114184767,
              46.251580151729286
            ],
            [
              7.363060113973916,
              46.251580151729286
            ],
            [
              7.362940113991499,
              46.251580151729286
            ],
            [
              7.36292011430487,
              46.251580151729286
            ],
            [
              7.3629001141525805,
              46.251580151729286
            ],
            [
              7.362880114000291,
              46.251580151729286
            ],
            [
              7.362800114322454,
              46.25155015196651
            ],
            [
              7.362780114170164,
              46.25154015189037
            ],
            [
              7.362710114102811,
              46.251490151975304
            ],
            [
              7.362690113950521,
              46.25148015189916
            ],
            [
              7.362650114111602,
              46.25146015174687
            ],
            [
              7.362510113976896,
              46.25140015175566
            ],
            [
              7.362490114290267,
              46.251390151679516
            ],
            [
              7.362430114299059,
              46.25136015191674
            ],
            [
              7.362390113994479,
              46.25133015168831
            ],
            [
              7.362350114155561,
              46.25129015184939
            ],
            [
              7.362310114316642,
              46.251240151934326
            ],
            [
              7.362260113935918,
              46.25118015194312
            ],
            [
              7.362220114096999,
              46.25114015163854
            ],
            [
              7.362190114334226,
              46.251110151875764
            ],
            [
              7.362170114181936,
              46.25108015164733
            ],
            [
              7.362090114038438,
              46.25102015165612
            ],
            [
              7.362050114199519,
              46.2509801518172
            ],
            [
              7.362030114047229,
              46.25095015158877
            ],
            [
              7.362010113894939,
              46.25091015174985
            ],
            [
              7.362010113894939,
              46.25089015159756
            ],
            [
              7.362020113971084,
              46.25087015191093
            ],
            [
              7.362030114047229,
              46.25085015175864
            ],
            [
              7.362070113886148,
              46.25081015191972
            ],
            [
              7.3621101141907275,
              46.250760151539
            ],
            [
              7.3621101141907275,
              46.25075015146285
            ],
            [
              7.3621101141907275,
              46.25070015154779
            ],
            [
              7.3621101141907275,
              46.250690151471645
            ],
            [
              7.362060114275664,
              46.25060015171766
            ],
            [
              7.362050114199519,
              46.25059015164152
            ],
            [
              7.362040114123374,
              46.25057015148923
            ],
            [
              7.362050114199519,
              46.250540151726454
            ],
            [
              7.3621101141907275,
              46.250500151421875
            ],
            [
              7.362170114181936,
              46.25049015181139
            ],
            [
              7.362330114003271,
              46.25049015181139
            ],
            [
              7.362360114231706,
              46.25049015181139
            ],
            [
              7.362400114070624,
              46.250480151735246
            ],
            [
              7.362510113976896,
              46.25045015150681
            ],
            [
              7.362540114205331,
              46.25044015189633
            ],
            [
              7.362630113959312,
              46.25043015182018
            ],
            [
              7.362660114187747,
              46.25042015174404
            ],
            [
              7.362690113950521,
              46.25041015166789
            ],
            [
              7.362710114102811,
              46.2503901515156
            ],
            [
              7.362820114009082,
              46.250310151837766
            ],
            [
              7.362850114237517,
              46.250290151685476
            ],
            [
              7.362910114228725,
              46.25028015160933
            ],
            [
              7.362930113915354,
              46.25028015160933
            ],
            [
              7.363030114211142,
              46.25026015145704
            ],
            [
              7.3630701140500605,
              46.25024015177041
            ],
            [
              7.363100113812834,
              46.25022015161812
            ],
            [
              7.363110113888979,
              46.25021015154198
            ],
            [
              7.363110113888979,
              46.25020015146583
            ],
            [
              7.363110113888979,
              46.25019015138969
            ],
            [
              7.363100114278495,
              46.25017015170306
            ],
            [
              7.363040113821626,
              46.25013015139848
            ],
            [
              7.362960114143789,
              46.25008015148342
            ],
            [
              7.362920113839209,
              46.25006015133113
            ],
            [
              7.3629001141525805,
              46.25005015172064
            ],
            [
              7.362830114085227,
              46.24998015165329
            ],
            [
              7.362760114017874,
              46.24991015158594
            ],
            [
              7.362740113865584,
              46.2498801513575
            ],
            [
              7.362680113874376,
              46.249760151375085
            ],
            [
              7.362660113722086,
              46.24972015153617
            ],
            [
              7.362640114035457,
              46.24969015130773
            ],
            [
              7.362630113959312,
              46.24965015146881
            ],
            [
              7.362630113959312,
              46.249570151325315
            ],
            [
              7.3626201138831675,
              46.24952015141025
            ],
            [
              7.362530114129186,
              46.24946015141904
            ],
            [
              7.362490113824606,
              46.249440151266754
            ],
            [
              7.3624501139856875,
              46.24943015165627
            ],
            [
              7.362340114079416,
              46.24941015150398
            ],
            [
              7.362260113935918,
              46.249400151427835
            ],
            [
              7.3620001138187945,
              46.24935015104711
            ],
            [
              7.361940113827586,
              46.249340150970966
            ],
            [
              7.361770113464445,
              46.24932015128434
            ],
            [
              7.361460113432258,
              46.249250151216984
            ],
            [
              7.361360113602132,
              46.24922015098855
            ],
            [
              7.361300113610923,
              46.249170151073486
            ],
            [
              7.3612101138569415,
              46.24913015123457
            ],
            [
              7.361150113865733,
              46.24907015124336
            ],
            [
              7.361000113654882,
              46.248890151269734
            ],
            [
              7.360940113663673,
              46.248850150965154
            ],
            [
              7.360860113520175,
              46.248810151126236
            ],
            [
              7.360710113774985,
              46.2487301514484
            ],
            [
              7.360470113810152,
              46.24858015123755
            ],
            [
              7.360290113836527,
              46.24848015094176
            ],
            [
              7.360160113777965,
              46.24838015111163
            ],
            [
              7.360110113397241,
              46.24833015119657
            ],
            [
              7.360090113710612,
              46.24829015089199
            ],
            [
              7.360070113558322,
              46.24827015120536
            ],
            [
              7.360040113795549,
              46.24823015090078
            ],
            [
              7.3598601133562624,
              46.24810015084222
            ],
            [
              7.359820113517344,
              46.24808015115559
            ],
            [
              7.359690113458782,
              46.24801015108824
            ],
            [
              7.359550113789737,
              46.247940151020885
            ],
            [
              7.359430113807321,
              46.24789015110582
            ]
          ],
          [
            [
              7.3586701126769185,
              46.24483014969155
            ],
            [
              7.358660112600774,
              46.24481014953926
            ],
            [
              7.358630112372339,
              46.2447601496242
            ],
            [
              7.358550112694502,
              46.24466014932841
            ],
            [
              7.358520112466067,
              46.24464014964178
            ],
            [
              7.358500112313777,
              46.24461014941335
            ],
            [
              7.358490112237632,
              46.244580149650574
            ],
            [
              7.358440112322569,
              46.24451014958322
            ],
            [
              7.358380112331361,
              46.24445014959201
            ],
            [
              7.358340112492442,
              46.24440014967695
            ],
            [
              7.358230112120509,
              46.244290149305016
            ],
            [
              7.358180112205446,
              46.24424014938995
            ],
            [
              7.358030112460256,
              46.2440901491791
            ],
            [
              7.357970112003386,
              46.24403014918789
            ],
            [
              7.357950112316757,
              46.2440101490356
            ],
            [
              7.357920112088323,
              46.24400014942512
            ],
            [
              7.357880112249404,
              46.24396014912054
            ],
            [
              7.357860112097114,
              46.24394014896825
            ],
            [
              7.357820112258196,
              46.24390014912933
            ],
            [
              7.357780111953616,
              46.24386014882475
            ],
            [
              7.357600111979991,
              46.24375014891848
            ],
            [
              7.357560112141073,
              46.243740148842335
            ],
            [
              7.357430112082511,
              46.24366014869884
            ],
            [
              7.357320111710578,
              46.24359014863148
            ],
            [
              7.35728011187166,
              46.24356014886871
            ],
            [
              7.35726011171937,
              46.243550148792565
            ],
            [
              7.357190111652017,
              46.243510148953646
            ],
            [
              7.35690011177212,
              46.243320148438215
            ],
            [
              7.356790111865848,
              46.24325014837086
            ],
            [
              7.356670111883432,
              46.243170148693025
            ],
            [
              7.356480111833662,
              46.24305014824495
            ],
            [
              7.356230111327022,
              46.24287014827132
            ],
            [
              7.35616011172533,
              46.24282014835626
            ],
            [
              7.356060111429542,
              46.24276014836505
            ],
            [
              7.355980111286044,
              46.242730148136616
            ],
            [
              7.355910111684352,
              46.2426901482977
            ],
            [
              7.355780111625791,
              46.24263014830649
            ],
            [
              7.355730111245066,
              46.242600148078054
            ],
            [
              7.355390111450106,
              46.24244014825672
            ],
            [
              7.355250111315399,
              46.24238014779985
            ],
            [
              7.355170111171901,
              46.242350148037076
            ],
            [
              7.355100111104548,
              46.242310147732496
            ],
            [
              7.35487011121586,
              46.24215014791116
            ],
            [
              7.354760111309588,
              46.2421001479961
            ],
            [
              7.3546601110138,
              46.24205014761537
            ],
            [
              7.3546101110987365,
              46.24204014800489
            ],
            [
              7.354560111183673,
              46.242030147928745
            ],
            [
              7.354480111040175,
              46.2420201478526
            ],
            [
              7.354410110972822,
              46.24200014770031
            ],
            [
              7.354400110896677,
              46.241990147624165
            ],
            [
              7.354370111133903,
              46.241970147471875
            ],
            [
              7.354310111142695,
              46.2419401477091
            ],
            [
              7.35428011091426,
              46.24192014755681
            ],
            [
              7.35426011076197,
              46.24191014748067
            ],
            [
              7.354180111084133,
              46.24189014732838
            ],
            [
              7.354150110855699,
              46.24188014771789
            ],
            [
              7.354050111025572,
              46.24184014741331
            ],
            [
              7.354000110644847,
              46.24182014726102
            ],
            [
              7.353810110595077,
              46.24177014734596
            ],
            [
              7.353670110460371,
              46.241740147117525
            ],
            [
              7.3536101104691625,
              46.241720146965235
            ],
            [
              7.353560110554099,
              46.24169014720246
            ],
            [
              7.353530110325664,
              46.24168014712632
            ],
            [
              7.353470110334456,
              46.24166014697403
            ],
            [
              7.353390110656619,
              46.241630147211254
            ],
            [
              7.353300110436976,
              46.241590146906674
            ],
            [
              7.353240110445768,
              46.24158014683053
            ],
            [
              7.353190110530704,
              46.241570146754384
            ],
            [
              7.353180110454559,
              46.241570146754384
            ],
            [
              7.353100110311061,
              46.241570146754384
            ],
            [
              7.353080110158771,
              46.24156014667824
            ],
            [
              7.353060110472143,
              46.24156014667824
            ],
            [
              7.353030110243708,
              46.24156014667824
            ],
            [
              7.353010110557079,
              46.24156014667824
            ],
            [
              7.3529901104047894,
              46.241550146602094
            ],
            [
              7.352950110565871,
              46.241530146915466
            ],
            [
              7.352910110261291,
              46.24152014683932
            ],
            [
              7.35278011020273,
              46.24145014677197
            ],
            [
              7.3527101101353765,
              46.24141014693305
            ],
            [
              7.352620110381395,
              46.241340146400034
            ],
            [
              7.35259011015296,
              46.241320146713406
            ],
            [
              7.352540110237896,
              46.24129014648497
            ],
            [
              7.352460110094398,
              46.24125014664605
            ],
            [
              7.3524301098659635,
              46.24122014641762
            ],
            [
              7.3523801099509,
              46.24120014626533
            ],
            [
              7.352340110111982,
              46.24118014611304
            ],
            [
              7.352270110044628,
              46.241150146350265
            ],
            [
              7.352230109740049,
              46.241130146197975
            ],
            [
              7.35219010990113,
              46.241110146045685
            ],
            [
              7.352120109833777,
              46.24105014605448
            ],
            [
              7.352010109927505,
              46.24098014598712
            ],
            [
              7.351850109640509,
              46.24086014600471
            ],
            [
              7.351760109886527,
              46.24081014608964
            ],
            [
              7.351700109895319,
              46.24077014578506
            ],
            [
              7.351650109514594,
              46.24072014587
            ],
            [
              7.351610109675676,
              46.24068014603108
            ],
            [
              7.351590109523386,
              46.24066014587879
            ],
            [
              7.351540109608322,
              46.24062014603987
            ],
            [
              7.351510109845549,
              46.24059014581144
            ],
            [
              7.351400109473616,
              46.2405101461336
            ],
            [
              7.351380109786987,
              46.24049014598131
            ],
            [
              7.351290109567344,
              46.24044014606625
            ],
            [
              7.351230109576136,
              46.240410145837814
            ],
            [
              7.351200109813362,
              46.240390145685524
            ],
            [
              7.351090109441429,
              46.24031014600769
            ],
            [
              7.351040109526366,
              46.24027014570311
            ],
            [
              7.351020109374076,
              46.24026014562696
            ],
            [
              7.350930109620094,
              46.240200145635754
            ],
            [
              7.350880109705031,
              46.24017014587298
            ],
            [
              7.350780109409243,
              46.24011014588177
            ],
            [
              7.350680109579116,
              46.240050145890564
            ],
            [
              7.350630109664053,
              46.240030145738274
            ],
            [
              7.350580109283328,
              46.23996014567092
            ],
            [
              7.3505501095205545,
              46.23990014567971
            ],
            [
              7.350490109529346,
              46.239820145536214
            ],
            [
              7.350460109300911,
              46.23977014562115
            ],
            [
              7.3504501092247665,
              46.239760145545006
            ],
            [
              7.350420109461993,
              46.23975014546886
            ],
            [
              7.35033010924235,
              46.23971014562994
            ],
            [
              7.350240109488368,
              46.23966014571488
            ],
            [
              7.350220109336078,
              46.239650145638734
            ],
            [
              7.35012010904029,
              46.239610145334154
            ],
            [
              7.350070109125227,
              46.23958014557138
            ],
            [
              7.350040109362453,
              46.23958014557138
            ],
            [
              7.350010109134018,
              46.239570145495236
            ],
            [
              7.349960109218955,
              46.239550145342946
            ],
            [
              7.349810109473765,
              46.2395401452668
            ],
            [
              7.349450109060854,
              46.23952014558017
            ],
            [
              7.349320109467953,
              46.23951014550403
            ],
            [
              7.349320109467953,
              46.23951014550403
            ],
            [
              7.349320109002292,
              46.23947014519945
            ]
          ],
          [
            [
              7.343120113015175,
              46.23615014972165
            ],
            [
              7.343080113176256,
              46.23613014956936
            ],
            [
              7.343080113176256,
              46.23613014956936
            ],
            [
              7.342910112813115,
              46.236090149730444
            ],
            [
              7.342820113059133,
              46.236070149578154
            ],
            [
              7.342700113076717,
              46.23604014934972
            ],
            [
              7.3426101128570735,
              46.236010149586946
            ],
            [
              7.342510113026947,
              46.235990149434656
            ],
            [
              7.34239011304453,
              46.23596014967188
            ],
            [
              7.342330113053322,
              46.23593014944345
            ],
            [
              7.3422701130621135,
              46.23589014960453
            ],
            [
              7.34222011314705,
              46.235820149537176
            ],
            [
              7.3421701127663255,
              46.23579014930874
            ],
            [
              7.342090113088489,
              46.23576014954597
            ],
            [
              7.34203011309728,
              46.23575014946982
            ],
            [
              7.341980112716556,
              46.23575014946982
            ],
            [
              7.341860112734139,
              46.23575014946982
            ],
            [
              7.341810112819076,
              46.23574014939368
            ],
            [
              7.341740112751722,
              46.23572014924139
            ],
            [
              7.341620112769306,
              46.235670149326324
            ],
            [
              7.341570112854242,
              46.235650149174035
            ],
            [
              7.341460112947971,
              46.235630149487406
            ],
            [
              7.341360112652183,
              46.235590149182826
            ],
            [
              7.341330112889409,
              46.2355701494962
            ],
            [
              7.341280112974346,
              46.23553014919162
            ],
            [
              7.341240112669766,
              46.235500149428844
            ],
            [
              7.341170112602413,
              46.2354901493527
            ],
            [
              7.341167125850916,
              46.235489159822464
            ],
            [
              7.341167125850916,
              46.235489159822464
            ],
            [
              7.341167125850916,
              46.235489159822464
            ],
            [
              7.341167125850916,
              46.235489159822464
            ],
            [
              7.341170118190348,
              46.23549016099423
            ],
            [
              7.341110121458769,
              46.23547015618533
            ],
            [
              7.340940117370337,
              46.2354001570493
            ],
            [
              7.340860125608742,
              46.23539015604183
            ],
            [
              7.340290122199804,
              46.23545016068965
            ],
            [
              7.340170115232468,
              46.23546015704051
            ],
            [
              7.340020121540874,
              46.2354501564987
            ],
            [
              7.3400201164186,
              46.235453160945326
            ],
            [
              7.340020104777068,
              46.235450139734894
            ],
            [
              7.340020104311407,
              46.23532013921067
            ],
            [
              7.3400001036934555,
              46.23521013837308
            ],
            [
              7.3400101037696,
              46.23516013799235
            ],
            [
              7.340020103380084,
              46.23512013768777
            ],
            [
              7.340020103380084,
              46.23511013761163
            ]
          ]
        ]
      }
    },
    {
      "type": "Feature",
      "properties": {
        "id": "153127d8083f4849a106a7a8761ed78c",
        "name": "Segment 002",
        "order": 2,
        "structure_type": "canalized",
        "structure_types": [
          "canalized"
        ],
        "display_mode": "single",
        "bicolor_colors": [],
        "water_status": "unknown",
        "continuous": false
      },
      "geometry": {
        "type": "MultiLineString",
        "coordinates": [
          [
            [
              7.3593301135115325,
              46.24783015111461
            ],
            [
              7.3593301135115325,
              46.24783015111461
            ],
            [
              7.359310113824904,
              46.24782015103847
            ],
            [
              7.359290113672614,
              46.247810151427984
            ],
            [
              7.359200113452971,
              46.247750150971115
            ],
            [
              7.359070113394409,
              46.24766015121713
            ],
            [
              7.359020113479346,
              46.24762015091255
            ],
            [
              7.358860113658011,
              46.24749015131965
            ],
            [
              7.3588201138190925,
              46.24747015116736
            ],
            [
              7.358730113599449,
              46.247370151337236
            ],
            [
              7.3587101134471595,
              46.2473401511088
            ],
            [
              7.358740113675594,
              46.2472601509653
            ],
            [
              7.358740113675594,
              46.24721015105024
            ],
            [
              7.358740113675594,
              46.247180150821805
            ],
            [
              7.358730113599449,
              46.2471201508306
            ],
            [
              7.3587101134471595,
              46.24707015091553
            ],
            [
              7.358650113455951,
              46.246990150772035
            ],
            [
              7.358640113379806,
              46.24697015108541
            ],
            [
              7.358600113540888,
              46.2469101510942
            ],
            [
              7.358450113330036,
              46.24672015104443
            ],
            [
              7.35835011349991,
              46.24657015083358
            ],
            [
              7.358290113508701,
              46.246500150766224
            ],
            [
              7.358150113373995,
              46.246310150716454
            ],
            [
              7.357930113561451,
              46.24602015083656
            ],
            [
              7.35780011350289,
              46.24586015101522
            ],
            [
              7.357670113444328,
              46.245680150575936
            ],
            [
              7.357620113529265,
              46.245590150821954
            ],
            [
              7.3576401132158935,
              46.24558015074581
            ],
            [
              7.3576401132158935,
              46.245570150669664
            ],
            [
              7.357660113368183,
              46.24556015059352
            ],
            [
              7.357720113359392,
              46.2455201507546
            ],
            [
              7.357850113417953,
              46.24548015045002
            ],
            [
              7.35810011299327,
              46.24539015023038
            ],
            [
              7.35831011319533,
              46.245320150163025
            ],
            [
              7.358410113025457,
              46.24529015040025
            ],
            [
              7.358490113168955,
              46.245260150171816
            ],
            [
              7.358510112855583,
              46.24524015001953
            ],
            [
              7.358520112931728,
              46.24523015040904
            ],
            [
              7.358530113007873,
              46.2452201503329
            ],
            [
              7.358550112694502,
              46.24521015025675
            ],
            [
              7.358570112846792,
              46.24519015010446
            ],
            [
              7.358590112999082,
              46.245150150265545
            ],
            [
              7.3586001130752265,
              46.245130150113255
            ],
            [
              7.358620112761855,
              46.245110149960965
            ],
            [
              7.358620112761855,
              46.24505014996976
            ],
            [
              7.35861011268571,
              46.244940150063485
            ],
            [
              7.35861011268571,
              46.244920149911195
            ],
            [
              7.35861011268571,
              46.24491014983505
            ],
            [
              7.358620112761855,
              46.244900149758905
            ],
            [
              7.358620112761855,
              46.24489015014842
            ],
            [
              7.358620112761855,
              46.24489015014842
            ],
            [
              7.358620112761855,
              46.24488015007228
            ],
            [
              7.358620112761855,
              46.24488015007228
            ],
            [
              7.358660112600774,
              46.24487014999613
            ],
            [
              7.3586701126769185,
              46.24487014999613
            ],
            [
              7.358680112753063,
              46.24487014999613
            ],
            [
              7.358690112829208,
              46.24487014999613
            ],
            [
              7.3586701126769185,
              46.2448401497677
            ],
            [
              7.358660112600774,
              46.24481014953926
            ],
            [
              7.358650112524629,
              46.24478014977649
            ]
          ],
          [
            [
              7.349320109002292,
              46.23949014535174
            ],
            [
              7.349320109002292,
              46.23945014504716
            ],
            [
              7.349330109078437,
              46.23941014520824
            ],
            [
              7.349330109078437,
              46.239360144827515
            ],
            [
              7.349330108612776,
              46.23931014491245
            ],
            [
              7.349300108384341,
              46.23918014438823
            ],
            [
              7.349300687666982,
              46.23917972762138
            ],
            [
              7.349184074439108,
              46.239140953402966
            ],
            [
              7.349067462608218,
              46.23910127952695
            ],
            [
              7.348950850777328,
              46.23906160518527
            ],
            [
              7.348834238946438,
              46.23902193084359
            ],
            [
              7.348717625718564,
              46.23898315569386
            ],
            [
              7.348601014353335,
              46.23894348088652
            ],
            [
              7.348511612974107,
              46.23891282407567
            ],
            [
              7.34838589373976,
              46.23889293242246
            ],
            [
              7.348260176368058,
              46.23887214064598
            ],
            [
              7.348133162595332,
              46.23885134793818
            ],
            [
              7.3480074452236295,
              46.2388305561617
            ],
            [
              7.347880431916565,
              46.2388097634539
            ],
            [
              7.347792299930006,
              46.23879529861733
            ],
            [
              7.347695169504732,
              46.23873584903777
            ],
            [
              7.347598037682474,
              46.238677298184484
            ],
            [
              7.347500907722861,
              46.238617848139256
            ],
            [
              7.34742320375517,
              46.23857010807842
            ],
            [
              7.34731828328222,
              46.23851784784347
            ],
            [
              7.347213362809271,
              46.238465587608516
            ],
            [
              7.347108442801982,
              46.2384133269079
            ],
            [
              7.347002227790654,
              46.23836016561836
            ],
            [
              7.346872698049992,
              46.238295291084796
            ],
            [
              7.346766479313374,
              46.23824482830241
            ],
            [
              7.346658964175731,
              46.23819436458871
            ],
            [
              7.346532020252198,
              46.2381339892745
            ],
            [
              7.34653010731563,
              46.23813014244661
            ],
            [
              7.346380107104778,
              46.238100142683834
            ],
            [
              7.346380107104778,
              46.238100142683834
            ],
            [
              7.34634010726586,
              46.23809014260769
            ],
            [
              7.346250107046217,
              46.2380701424554
            ],
            [
              7.3461701069027185,
              46.23803014261648
            ],
            [
              7.346080107148737,
              46.23799014277756
            ],
            [
              7.346030107233673,
              46.23796014254913
            ],
            [
              7.345970107242465,
              46.23792014271021
            ],
            [
              7.3458301071077585,
              46.23784014256671
            ],
            [
              7.345630106981844,
              46.237700142432004
            ],
            [
              7.345530107151717,
              46.23765014251694
            ],
            [
              7.345470107160509,
              46.23761014267802
            ],
            [
              7.345420106779784,
              46.23758014244959
            ],
            [
              7.345340107101947,
              46.237530142534524
            ],
            [
              7.345310106873512,
              46.23750014230609
            ],
            [
              7.345230107195675,
              46.23744014231488
            ],
            [
              7.345150107052177,
              46.23738014232367
            ],
            [
              7.345030107069761,
              46.2372701424174
            ],
            [
              7.345020106993616,
              46.237260142341256
            ],
            [
              7.344980107154697,
              46.23723014257848
            ],
            [
              7.3449401068501174,
              46.23721014242619
            ],
            [
              7.344920106697828,
              46.23720014235005
            ],
            [
              7.344800106715411,
              46.237150142434984
            ],
            [
              7.344670106656849,
              46.237110142130405
            ],
            [
              7.344600106589496,
              46.237090142443776
            ],
            [
              7.3444801066070795,
              46.237050142139196
            ],
            [
              7.344260106794536,
              46.23700014222413
            ],
            [
              7.343990106601268,
              46.23693014215678
            ],
            [
              7.3438601065427065,
              46.236880141776055
            ],
            [
              7.343820106703788,
              46.23687014169991
            ],
            [
              7.343790106475353,
              46.23685014201328
            ],
            [
              7.343750106636435,
              46.23682014178485
            ],
            [
              7.343730106484145,
              46.2368101417087
            ],
            [
              7.3436801065690815,
              46.23677014186978
            ],
            [
              7.343670106492937,
              46.23675014171749
            ],
            [
              7.343640106264502,
              46.23672014195472
            ],
            [
              7.343460106290877,
              46.236520141828805
            ],
            [
              7.3434001062996686,
              46.236460141371936
            ],
            [
              7.343370106536895,
              46.23642014153302
            ],
            [
              7.343300106469542,
              46.236350141465664
            ],
            [
              7.3432401064783335,
              46.23628014139831
            ],
            [
              7.3432401064783335,
              46.23628014139831
            ],
            [
              7.343200106173754,
              46.23625014163554
            ],
            [
              7.343210106249899,
              46.23623014148325
            ],
            [
              7.343200106173754,
              46.23620014125481
            ],
            [
              7.343190106097609,
              46.23619014117867
            ],
            [
              7.343180106021464,
              46.23618014110252
            ]
          ],
          [
            [
              7.3400010908953846,
              46.23512298427522
            ],
            [
              7.3400025512091815,
              46.235033029224724
            ],
            [
              7.34000401198864,
              46.234943073708564
            ],
            [
              7.3400054960511625,
              46.23484052484855
            ],
            [
              7.340012141969055,
              46.23475057492033
            ],
            [
              7.340017491951585,
              46.23466062312946
            ],
            [
              7.340022841468453,
              46.23457067180425
            ],
            [
              7.340029487386346,
              46.234480721410364
            ],
            [
              7.340034837368876,
              46.234390769619495
            ],
            [
              7.340040186885744,
              46.23430081829429
            ],
            [
              7.340045536402613,
              46.23421086650342
            ],
            [
              7.340053550899029,
              46.234081336297095
            ],
            [
              7.339972012210637,
              46.234011098276824
            ],
            [
              7.339890472125262,
              46.23394175991416
            ],
            [
              7.339808934368193,
              46.23387152235955
            ],
            [
              7.339727396611124,
              46.23380128433928
            ],
            [
              7.33966138958931,
              46.23374455375597
            ]
          ]
        ]
      }
    }
  ]
}