{
  "type": "FeatureCollection",
  "features": [
    {
      "type": "Feature",
      "properties": {
        "id": "a8dee7eaca8b40079c46290d4e2bdce1",
        "name": "Segment 001",
        "order": 1,
        "structure_type": "open",
        "structure_types": [
          "open"
        ],
        "display_mode": "single",
        "bicolor_colors": [],
        "water_status": "unknown",
        "continuous": false
      },
      "geometry": {
        "type": "MultiLineString",
        "coordinates": [
          [
            [
              7.467000042553991,
              46.197358870878816
            ],
            [
              7.4668717896565795,
              46.19734810711816
            ],
            [
              7.466682649217546,
              46.19733196031302
            ],
            [
              7.466680268291384,
              46.19733035052195
            ],
            [
              7.466680268291384,
              46.1973403505981
            ],
            [
              7.466640267986804,
              46.197360350284725
            ],
            [
              7.466610268224031,
              46.19737035036087
            ],
            [
              7.466520268004388,
              46.19741035019979
            ],
            [
              7.4664302677847445,
              46.197440350428224
            ],
            [
              7.466350268106908,
              46.19745035050437
            ],
            [
              7.4662602678872645,
              46.19748035026714
            ],
            [
              7.46623026765883,
              46.19748035026714
            ],
            [
              7.466170267667621,
              46.19752035010606
            ],
            [
              7.466140267904848,
              46.197530350182205
            ],
            [
              7.466120267752558,
              46.19754035025835
            ],
            [
              7.466100268065929,
              46.19758035009727
            ],
            [
              7.4660902679897845,
              46.19758035009727
            ],
            [
              7.4660802679136395,
              46.197610350325704
            ],
            [
              7.466070267837495,
              46.19765035016462
            ],
            [
              7.466070267837495,
              46.19767035031691
            ],
            [
              7.46606026776135,
              46.19771035015583
            ],
            [
              7.466050267685205,
              46.19779035029933
            ],
            [
              7.46604026760906,
              46.19780035037547
            ],
            [
              7.465990267693996,
              46.19792035035789
            ],
            [
              7.465970267541707,
              46.19796035019681
            ],
            [
              7.465930267702788,
              46.19798034988344
            ],
            [
              7.46587026771158,
              46.19799034995958
            ],
            [
              7.465790267568082,
              46.19801035011187
            ],
            [
              7.465760267805308,
              46.19801035011187
            ],
            [
              7.465690267737955,
              46.19801035011187
            ],
            [
              7.465550267603248,
              46.19799034995958
            ],
            [
              7.46549026761204,
              46.19798034988344
            ],
            [
              7.465220267418772,
              46.19792034942657
            ],
            [
              7.465180267114192,
              46.19791034935042
            ],
            [
              7.465120267122984,
              46.19790034927428
            ],
            [
              7.465030267369002,
              46.19790034927428
            ],
            [
              7.465010267216712,
              46.19791034935042
            ],
            [
              7.464780266862363,
              46.19795034918934
            ],
            [
              7.464670266956091,
              46.19797034934163
            ],
            [
              7.464580267202109,
              46.19797034934163
            ],
            [
              7.464380267076194,
              46.19795034918934
            ],
            [
              7.464110266882926,
              46.19793034903705
            ],
            [
              7.464040266815573,
              46.197920348960906
            ],
            [
              7.46397026674822,
              46.197920348960906
            ],
            [
              7.463870266918093,
              46.197960349265486
            ],
            [
              7.46380026685074,
              46.197980348952115
            ],
            [
              7.463790266774595,
              46.19799034902826
            ],
            [
              7.463790266774595,
              46.19799034902826
            ],
            [
              7.463710266631097,
              46.19803034886718
            ],
            [
              7.463620266877115,
              46.19810034893453
            ],
            [
              7.46361026680097,
              46.198110349010676
            ],
            [
              7.4635602668859065,
              46.19814034923911
            ],
            [
              7.463520267046988,
              46.198170349001884
            ],
            [
              7.463480266742408,
              46.198170349001884
            ],
            [
              7.4632802666164935,
              46.198170349001884
            ],
            [
              7.463130266871303,
              46.19816034892574
            ],
            [
              7.46306026680395,
              46.198150348849595
            ],
            [
              7.462990266736597,
              46.198150348849595
            ],
            [
              7.462690266780555,
              46.19816034892574
            ],
            [
              7.462610266637057,
              46.19816034892574
            ],
            [
              7.462570266798139,
              46.198170349001884
            ],
            [
              7.462540266569704,
              46.19818034907803
            ],
            [
              7.462390266358852,
              46.19825034867972
            ],
            [
              7.462350266519934,
              46.19827034883201
            ],
            [
              7.4623102666810155,
              46.1982903489843
            ],
            [
              7.462250266689807,
              46.19831034867093
            ],
            [
              7.462160266470164,
              46.198320348747075
            ],
            [
              7.462060266640037,
              46.198320348747075
            ],
            [
              7.462010266724974,
              46.198320348747075
            ],
            [
              7.461960266344249,
              46.198320348747075
            ],
            [
              7.461930266581476,
              46.198320348747075
            ],
            [
              7.461880266666412,
              46.19831034867093
            ],
            [
              7.461820266675204,
              46.198300348594785
            ],
            [
              7.461770266294479,
              46.198300348594785
            ],
            [
              7.461720266379416,
              46.19829034851864
            ],
            [
              7.4616802665404975,
              46.19829034851864
            ],
            [
              7.461490266025066,
              46.19827034836635
            ],
            [
              7.461440266110003,
              46.198260348290205
            ],
            [
              7.461350266356021,
              46.198260348290205
            ],
            [
              7.461330266203731,
              46.198260348290205
            ],
            [
              7.46120026614517,
              46.198280348442495
            ],
            [
              7.460290265735239,
              46.19840034795925
            ]
          ],
          [
            [
              7.456560262478888,
              46.19793034391478
            ],
            [
              7.456440262496471,
              46.19794034352526
            ],
            [
              7.456390262115747,
              46.197950343601406
            ],
            [
              7.4563202620483935,
              46.197950343135744
            ],
            [
              7.45623026182875,
              46.197950343135744
            ],
            [
              7.456120261922479,
              46.197950343135744
            ],
            [
              7.455980261787772,
              46.19794034259394
            ],
            [
              7.455720261204988,
              46.19794034212828
            ],
            [
              7.455350260715932,
              46.19792034197599
            ],
            [
              7.455050260294229,
              46.19791034096852
            ],
            [
              7.455050260294229,
              46.19791034096852
            ],
            [
              7.455040260218084,
              46.19791034096852
            ],
            [
              7.454860259778798,
              46.19789034081623
            ],
            [
              7.454680259805173,
              46.19787034019828
            ],
            [
              7.454610259737819,
              46.19786034012213
            ],
            [
              7.454480259213597,
              46.1978303398937
            ],
            [
              7.454280259087682,
              46.19781033974141
            ],
            [
              7.454140258952975,
              46.19779033958912
            ],
            [
              7.454060258809477,
              46.197780339512974
            ],
            [
              7.454010258894414,
              46.19777033943683
            ],
            [
              7.4539402588270605,
              46.19778033904731
            ],
            [
              7.453880258835852,
              46.19778033904731
            ],
            [
              7.453840258531272,
              46.19778033904731
            ],
            [
              7.453730258625001,
              46.19775033881888
            ],
            [
              7.453700258396566,
              46.19773033866659
            ],
            [
              7.453640258405358,
              46.1977103385143
            ],
            [
              7.453620258718729,
              46.1977103385143
            ],
            [
              7.453580258414149,
              46.19770033843815
            ],
            [
              7.453540258575231,
              46.19770033843815
            ],
            [
              7.453420258592814,
              46.19770033843815
            ],
            [
              7.453230258543044,
              46.19770033843815
            ],
            [
              7.453190258238465,
              46.19770033843815
            ],
            [
              7.453170258551836,
              46.19770033843815
            ],
            [
              7.453090258408338,
              46.197660338599235
            ],
            [
              7.453060258179903,
              46.19765033852309
            ],
            [
              7.453050258103758,
              46.19765033852309
            ],
            [
              7.452960257884115,
              46.19763033790514
            ],
            [
              7.452870258130133,
              46.197620337828994
            ],
            [
              7.4528102576732635,
              46.197620337828994
            ],
            [
              7.452800257597119,
              46.197620337828994
            ],
            [
              7.452720257919282,
              46.19763033790514
            ],
            [
              7.452670257538557,
              46.19765033759177
            ],
            [
              7.452610257547349,
              46.19767033774406
            ],
            [
              7.452230257447809,
              46.19782033748925
            ],
            [
              7.452150257769972,
              46.19784033764154
            ],
            [
              7.452130257617682,
              46.19784033764154
            ],
            [
              7.452050257474184,
              46.197840337175876
            ],
            [
              7.452010257169604,
              46.197840337175876
            ],
            [
              7.4519102573394775,
              46.19785033678636
            ],
            [
              7.4518002569675446,
              46.19787033693865
            ]
          ],
          [
            [
              7.446900252252817,
              46.199230330996215
            ],
            [
              7.446720251813531,
              46.199250330682844
            ],
            [
              7.446600251831114,
              46.19926033029333
            ],
            [
              7.446450251620263,
              46.199260329827666
            ],
            [
              7.446350251790136,
              46.199260329827666
            ],
            [
              7.446330251637846,
              46.199260329827666
            ],
            [
              7.446220251265913,
              46.19923033006489
            ],
            [
              7.44617025135085,
              46.19922032998875
            ],
            [
              7.446090251207352,
              46.19920032983646
            ],
            [
              7.44600025145337,
              46.19919032976031
            ],
            [
              7.445640250574797,
              46.19913032883778
            ],
            [
              7.44533025007695,
              46.19908032845706
            ],
            [
              7.445230250246823,
              46.19906032830477
            ],
            [
              7.445100250188261,
              46.19905032822862
            ],
            [
              7.4448902499862015,
              46.19904032768682
            ],
            [
              7.444810249842703,
              46.19902032753453
            ],
            [
              7.44476024992764,
              46.19901032745838
            ],
            [
              7.44472024962306,
              46.19901032745838
            ],
            [
              7.444650249555707,
              46.19901032745838
            ],
            [
              7.44455024972558,
              46.19903032761067
            ],
            [
              7.444410249590874,
              46.1990503272973
            ],
            [
              7.444320249371231,
              46.199060326907784
            ],
            [
              7.444310249295086,
              46.199060326907784
            ],
            [
              7.444300249218941,
              46.199060326907784
            ],
            [
              7.4442202490754426,
              46.199080327060074
            ],
            [
              7.444160249084234,
              46.199080327060074
            ],
            [
              7.444000249262899,
              46.19913032697514
            ],
            [
              7.443960248958319,
              46.19914032658562
            ],
            [
              7.443930249195546,
              46.199150326661766
            ],
            [
              7.4437802489846945,
              46.19922032672912
            ],
            [
              7.443680248688906,
              46.19926032656804
            ],
            [
              7.4436102490872145,
              46.19929032679647
            ],
            [
              7.443530248478055,
              46.199320326559246
            ],
            [
              7.443470248952508,
              46.19933032663539
            ],
            [
              7.443460248876363,
              46.19933032663539
            ],
            [
              7.443300248589367,
              46.19937032600865
            ],
            [
              7.443260248284787,
              46.19939032616094
            ],
            [
              7.44318024860695,
              46.199410325847566
            ],
            [
              7.443090248387307,
              46.199440326076
            ],
            [
              7.443070248235017,
              46.199440326076
            ],
            [
              7.44297024840489,
              46.199470325838774
            ],
            [
              7.442900248337537,
              46.19948032544926
            ],
            [
              7.442820247728378,
              46.19950032560155
            ],
            [
              7.442770247813314,
              46.19951032567769
            ],
            [
              7.4426602479070425,
              46.199540325440466
            ],
            [
              7.442450247704983,
              46.19961032504216
            ],
            [
              7.442400247789919,
              46.1996203251183
            ],
            [
              7.442340247798711,
              46.19963032519445
            ],
            [
              7.442240247502923,
              46.19963032472879
            ],
            [
              7.442070247139782,
              46.19964032433927
            ],
            [
              7.442050246987492,
              46.19964032433927
            ],
            [
              7.441970246843994,
              46.1996603240259
            ],
            [
              7.441870247013867,
              46.19970032433048
            ],
            [
              7.441850246861577,
              46.19970032433048
            ],
            [
              7.441810247022659,
              46.19972032401711
            ],
            [
              7.441800246946514,
              46.19972032401711
            ],
            [
              7.441800254397094,
              46.19972033239901
            ],
            [
              7.441800210159272,
              46.19971990492195
            ],
            [
              7.441705642268062,
              46.19978197617456
            ],
            [
              7.441611074376851,
              46.19984314823523
            ],
            [
              7.441515210550278,
              46.19990431936458
            ],
            [
              7.441420642193407,
              46.199965490959585
            ],
            [
              7.441326073370874,
              46.20002666255459
            ],
            [
              7.441231504548341,
              46.20008783368394
            ],
            [
              7.4411006616428494,
              46.20017239358276
            ],
            [
              7.440980181563646,
              46.200205678120255
            ],
            [
              7.4408597010187805,
              46.20023896312341
            ],
            [
              7.440718492958695,
              46.200277645140886
            ],
            [
              7.440598011016846,
              46.20024256315082
            ],
            [
              7.440478824544698,
              46.200208380352706
            ],
            [
              7.44035963807255,
              46.20017329836264
            ],
            [
              7.44022620189935,
              46.200133718084544
            ],
            [
              7.4401264493353665,
              46.20019218977541
            ],
            [
              7.4400577885098755,
              46.20023266971111
            ],
            [
              7.439928238745779,
              46.200220975559205
            ],
            [
              7.4397598234936595,
              46.20020568277687
            ],
            [
              7.439638047013432,
              46.20023626741022
            ],
            [
              7.4395149745978415,
              46.20026685157791
            ],
            [
              7.439435948617756,
              46.200286641251296
            ],
            [
              7.439345263876021,
              46.200351409148425
            ],
            [
              7.439255873672664,
              46.20041707670316
            ],
            [
              7.439137982670218,
              46.200502533931285
            ],
            [
              7.4390485920012,
              46.20056820102036
            ],
            [
              7.438959201332182,
              46.200633868109435
            ],
            [
              7.438871106132865,
              46.2006986355409
            ],
            [
              7.438781715463847,
              46.20076430262998
            ],
            [
              7.438693619798869,
              46.20082996925339
            ],
            [
              7.438604228198528,
              46.200895636342466
            ],
            [
              7.438490221742541,
              46.200979293789715
            ],
            [
              7.438361966051161,
              46.200964899268
            ],
            [
              7.438233710359782,
              46.20094960508868
            ],
            [
              7.43810156872496,
              46.2009343104437
            ],
            [
              7.4380963887088,
              46.20084435446188
            ],
            [
              7.438091209158301,
              46.20075439848006
            ],
            [
              7.438087325077504,
              46.20066444249824
            ],
            [
              7.438082145061344,
              46.20057538617402
            ],
            [
              7.438076965510845,
              46.20048542972654
            ],
            [
              7.4380717859603465,
              46.20039547374472
            ],
            [
              7.438067901879549,
              46.2003055177629
            ],
            [
              7.43806272232905,
              46.20020566601306
            ],
            [
              7.43801867775619,
              46.20012110704556
            ],
            [
              7.43797463318333,
              46.2000365476124
            ],
            [
              7.437933179549873,
              46.19995378702879
            ],
            [
              7.437807518057525,
              46.19993219524622
            ],
            [
              7.437680560629815,
              46.19991150312126
            ],
            [
              7.437554898671806,
              46.199889910873026
            ],
            [
              7.437429237179458,
              46.199868319090456
            ],
            [
              7.437303576152772,
              46.199846726842225
            ],
            [
              7.437142936512828,
              46.19981883652508
            ],
            [
              7.43709630286321,
              46.19973517674953
            ],
            [
              7.437050964683294,
              46.19965061638504
            ],
            [
              7.437000444624573,
              46.19955796003342
            ],
            [
              7.436879966873676,
              46.19952377397567
            ],
            [
              7.436760784126818,
              46.19948958745226
            ],
            [
              7.436640306841582,
              46.199455400928855
            ],
            [
              7.436521124560386,
              46.199421213939786
            ],
            [
              7.43640064727515,
              46.19938702695072
            ],
            [
              7.436274987645447,
              46.199351040646434
            ],
            [
              7.436228355392814,
              46.199267379473895
            ],
            [
              7.43618172314018,
              46.199183718301356
            ],
            [
              7.4361350908875465,
              46.19909915793687
            ],
            [
              7.436087163630873,
              46.19901549676433
            ],
            [
              7.43605478014797,
              46.19895522436127
            ],
            [
              7.435936894733459,
              46.19891743874177
            ],
            [
              7.43582030525431,
              46.19887875299901
            ],
            [
              7.435702420771122,
              46.1988400677219
            ],
            [
              7.4355884226970375,
              46.198802281636745
            ],
            [
              7.435619519557804,
              46.198715025093406
            ],
            [
              7.43565061641857,
              46.19862776855007
            ],
            [
              7.4356791214086115,
              46.198550406843424
            ],
            [
              7.435616945382208,
              46.1984712430276
            ],
            [
              7.4355236808769405,
              46.19835249707103
            ],
            [
              7.435395432636142,
              46.19833720009774
            ],
            [
              7.435268479399383,
              46.19832100300118
            ],
            [
              7.435140231158584,
              46.198305705562234
            ],
            [
              7.43494073394686,
              46.19828050909564
            ],
            [
              7.434822851326317,
              46.19824182288721
            ],
            [
              7.434706264641136,
              46.198203136678785
            ],
            [
              7.434616880957037,
              46.19817254738882
            ],
            [
              7.434562479611486,
              46.198090684600174
            ],
            [
              7.434508078265935,
              46.198009721469134
            ],
            [
              7.434460152871907,
              46.19793775398284
            ],
            [
              7.434506796300411,
              46.19785319734365
            ],
            [
              7.434552144259214,
              46.1977695398964
            ],
            [
              7.434597491752356,
              46.19768498279154
            ],
            [
              7.434641543310136,
              46.19760492350906
            ],
            [
              7.434616937767714,
              46.19751676544547
            ],
            [
              7.434591036755592,
              46.19742860691622
            ],
            [
              7.43456513620913,
              46.19734044838697
            ],
            [
              7.434540530666709,
              46.19725229032338
            ],
            [
              7.434512039646506,
              46.197155135683715
            ],
            [
              7.434447275940329,
              46.197076870594174
            ],
            [
              7.43438251176849,
              46.19699950516224
            ],
            [
              7.434317748062313,
              46.1969212400727
            ],
            [
              7.434265936724842,
              46.19685826776549
            ],
            [
              7.434168786276132,
              46.19679889176041
            ],
            [
              7.434071636293083,
              46.19673951622099
            ],
            [
              7.433974486310035,
              46.1966801402159
            ],
            [
              7.4338773363269866,
              46.19662076374516
            ],
            [
              7.433734849561006,
              46.1965343975462
            ],
            [
              7.433693405240774,
              46.19644893659279
            ],
            [
              7.433653256855905,
              46.19636347563937
            ],
            [
              7.433592385612428,
              46.19623753335327
            ],
            [
              7.433525032829493,
              46.19616106664762
            ],
            [
              7.43345768051222,
              46.19608370028436
            ],
            [
              7.433389032725245,
              46.19600723311305
            ],
            [
              7.433321680407971,
              46.1959307664074
            ],
            [
              7.4332543280906975,
              46.19585429877043
            ],
            [
              7.433203813619912,
              46.19579672301188
            ],
            [
              7.433179210871458,
              46.19570856448263
            ],
            [
              7.433155904058367,
              46.195620405487716
            ],
            [
              7.433131301775575,
              46.19553134730086
            ],
            [
              7.433107994962484,
              46.195443188771605
            ],
            [
              7.433083392679691,
              46.19535502977669
            ],
            [
              7.433061379939318,
              46.19527496723458
            ],
            [
              7.433051027357578,
              46.19518501032144
            ],
            [
              7.433040674775839,
              46.19509595260024
            ],
            [
              7.433029026724398,
              46.1950059956871
            ],
            [
              7.433018674142659,
              46.194916038773954
            ],
            [
              7.433008321560919,
              46.194826981052756
            ],
            [
              7.432996673509479,
              46.19473702367395
            ],
            [
              7.432986320927739,
              46.19464706676081
            ],
            [
              7.432973380666226,
              46.19453372107819
            ],
            [
              7.432903440669179,
              46.194458154030144
            ],
            [
              7.4328335002064705,
              46.19438168685883
            ],
            [
              7.432792054489255,
              46.19433580664918
            ],
            [
              7.432737659662962,
              46.19425394339487
            ],
            [
              7.43268456030637,
              46.1941720796749
            ],
            [
              7.432610739488155,
              46.194056930951774
            ],
            [
              7.432556345127523,
              46.193975067231804
            ],
            [
              7.432503245770931,
              46.193893203511834
            ],
            [
              7.4324488514102995,
              46.1938113393262
            ],
            [
              7.432416474446654,
              46.19376006163657
            ],
            [
              7.4324177810922265,
              46.193670105654746
            ],
            [
              7.432419087737799,
              46.193580149672925
            ],
            [
              7.432421689853072,
              46.19349019322544
            ],
            [
              7.432422996032983,
              46.1934002363123
            ],
            [
              7.432424302678555,
              46.19331027986482
            ],
            [
              7.432425609324127,
              46.193220323417336
            ],
            [
              7.432428211439401,
              46.193130366969854
            ],
            [
              7.432429512962699,
              46.193076393101364
            ],
            [
              7.432337553240359,
              46.193012518342584
            ],
            [
              7.43224559398368,
              46.19294864311814
            ],
            [
              7.4321057121269405,
              46.1928514810279
            ],
            [
              7.432113495655358,
              46.19276152504608
            ],
            [
              7.432121279183775,
              46.19267156906426
            ],
            [
              7.432129063177854,
              46.19258161308244
            ],
            [
              7.432136846706271,
              46.192492556758225
            ],
            [
              7.4321446302346885,
              46.192402600776404
            ],
            [
              7.432153709232807,
              46.192312645260245
            ],
            [
              7.432161493226886,
              46.192222689278424
            ],
            [
              7.432170572690666,
              46.19212283799425
            ],
            [
              7.432152450550348,
              46.19203377980739
            ],
            [
              7.432135623414069,
              46.19194472208619
            ],
            [
              7.432118796277791,
              46.19185566389933
            ],
            [
              7.432099379133433,
              46.19175670994446
            ],
            [
              7.432116230018437,
              46.191667654085904
            ],
            [
              7.432134375441819,
              46.19157859869301
            ],
            [
              7.432151225861162,
              46.19148954283446
            ],
            [
              7.4321680762805045,
              46.19139958685264
            ],
            [
              7.432184926234186,
              46.19131053099409
            ],
            [
              7.432203071191907,
              46.191221474669874
            ],
            [
              7.432216032408178,
              46.19115400733426
            ],
            [
              7.432293758261949,
              46.19108204729855
            ],
            [
              7.432371483184397,
              46.19101008633152
            ],
            [
              7.4323883331380785,
              46.190921030472964
            ],
            [
              7.432405182626098,
              46.19083197461441
            ],
            [
              7.43242203257978,
              46.19074201909825
            ],
            [
              7.4324388820678,
              46.19065296277404
            ],
            [
              7.432449250482023,
              46.19059629039839
            ],
            [
              7.432493300177157,
              46.190511733759195
            ],
            [
              7.43253734940663,
              46.19042717712
            ],
            [
              7.432565851137042,
              46.19037140533328
            ],
            [
              7.432524412870407,
              46.19028594344854
            ],
            [
              7.432462255936116,
              46.19015550101176
            ],
            [
              7.432484285905957,
              46.190066444687545
            ],
            [
              7.432506314944476,
              46.18997828802094
            ],
            [
              7.432529639918357,
              46.189889231231064
            ],
            [
              7.432551668956876,
              46.189801074098796
            ],
            [
              7.4325736979953945,
              46.18971201730892
            ],
            [
              7.432595727033913,
              46.18962386017665
            ],
            [
              7.432617755141109,
              46.18953930074349
            ],
            [
              7.432600928004831,
              46.189449342899024
            ],
            [
              7.432585395872593,
              46.189360284712166
            ],
            [
              7.432565981056541,
              46.18925143638626
            ]
          ]
        ]
      }
    },
    {
      "type": "Feature",
      "properties": {
        "id": "263a3fca149e4abda2c2f44d2ed73f40",
        "name": "Segment 002",
        "order": 2,
        "structure_type": "canalized",
        "structure_types": [
          "canalized"
        ],
        "display_mode": "single",
        "bicolor_colors": [],
        "water_status": "unknown",
        "continuous": false
      },
      "geometry": {
        "type": "MultiLineString",
        "coordinates": [
          [
            [
              7.460290265735239,
              46.19840034795925
            ],
            [
              7.460280265659094,
              46.19840034795925
            ],
            [
              7.4602302657440305,
              46.19840034749359
            ],
            [
              7.460060265380889,
              46.19840034749359
            ],
            [
              7.459870265331119,
              46.19840034702793
            ],
            [
              7.45981026487425,
              46.19840034702793
            ],
            [
              7.459780265111476,
              46.19840034702793
            ],
            [
              7.459750264883041,
              46.19840034702793
            ],
            [
              7.459720265120268,
              46.19839034695178
            ],
            [
              7.459700264967978,
              46.19839034695178
            ],
            [
              7.45964026497677,
              46.19837034679949
            ],
            [
              7.459590265061706,
              46.19836034672335
            ],
            [
              7.459490264765918,
              46.19836034672335
            ],
            [
              7.459420265164226,
              46.19836034672335
            ],
            [
              7.459340264555067,
              46.19836034672335
            ],
            [
              7.459230264183134,
              46.19835034618154
            ],
            [
              7.459150264505297,
              46.19833034602925
            ],
            [
              7.459060264285654,
              46.19830034626648
            ],
            [
              7.459000264760107,
              46.19828034657985
            ],
            [
              7.458950264845043,
              46.198250346817076
            ],
            [
              7.4589302646927536,
              46.19824034674093
            ],
            [
              7.45888026477769,
              46.198230346664786
            ],
            [
              7.4588602646254,
              46.198230346664786
            ],
            [
              7.458820264320821,
              46.19824034580961
            ],
            [
              7.458760264329612,
              46.1982603459619
            ],
            [
              7.458670264109969,
              46.19827034603804
            ],
            [
              7.458600264508277,
              46.1982603459619
            ],
            [
              7.458590264432132,
              46.1982603459619
            ],
            [
              7.458570264279842,
              46.198250345885754
            ],
            [
              7.458520264364779,
              46.198230345733464
            ],
            [
              7.458390264306217,
              46.198150345589966
            ],
            [
              7.458360264077783,
              46.19814034597948
            ],
            [
              7.458350264001638,
              46.19813034590334
            ],
            [
              7.458320264238864,
              46.19813034590334
            ],
            [
              7.4582802639342844,
              46.19812034582719
            ],
            [
              7.458200263790786,
              46.19812034582719
            ],
            [
              7.458050264045596,
              46.19812034536153
            ],
            [
              7.457930263597518,
              46.19810034520924
            ],
            [
              7.45787026360631,
              46.19808034552261
            ],
            [
              7.457690263632685,
              46.1980103449896
            ],
            [
              7.457670263480395,
              46.1980103449896
            ],
            [
              7.457560263574123,
              46.19799034530297
            ],
            [
              7.457520263735205,
              46.197980345226824
            ],
            [
              7.457440263591707,
              46.19798034476116
            ],
            [
              7.457430263515562,
              46.19798034476116
            ],
            [
              7.457320263143629,
              46.19799034483731
            ],
            [
              7.45728026330471,
              46.19798034476116
            ],
            [
              7.4572602631524205,
              46.19798034476116
            ],
            [
              7.4572602631524205,
              46.19798034476116
            ],
            [
              7.457240263000131,
              46.19797034468502
            ],
            [
              7.457180263008922,
              46.19794034445658
            ],
            [
              7.4570902632549405,
              46.19791034469381
            ],
            [
              7.457010263111442,
              46.19791034469381
            ],
            [
              7.4569802628830075,
              46.197900344617665
            ],
            [
              7.456900263205171,
              46.197900344617665
            ],
            [
              7.456830263137817,
              46.197900344617665
            ],
            [
              7.456740262918174,
              46.19791034422815
            ],
            [
              7.456560262478888,
              46.19793034391478
            ]
          ],
          [
            [
              7.4518002569675446,
              46.19787033693865
            ],
            [
              7.451610256917775,
              46.19790033623576
            ],
            [
              7.45158025668934,
              46.19791033631191
            ],
            [
              7.451500256545842,
              46.19792033638805
            ],
            [
              7.451470256783068,
              46.197930336464196
            ],
            [
              7.451380256563425,
              46.19794033607468
            ],
            [
              7.451340256724507,
              46.19794033607468
            ],
            [
              7.451190256513655,
              46.197950336150825
            ],
            [
              7.451090256217867,
              46.19796033622697
            ],
            [
              7.45099025638774,
              46.197970335837454
            ],
            [
              7.450710256118327,
              46.19802033575252
            ],
            [
              7.450630255974829,
              46.198040335439146
            ],
            [
              7.450570255983621,
              46.198060335591435
            ],
            [
              7.4505202560685575,
              46.198080335743725
            ],
            [
              7.450500255916268,
              46.198100335430354
            ],
            [
              7.450470256153494,
              46.198120335582644
            ],
            [
              7.450460256077349,
              46.19816033542156
            ],
            [
              7.450450256001204,
              46.19819033565
            ],
            [
              7.450430255848914,
              46.198210335336626
            ],
            [
              7.4504202557727695,
              46.198230335488915
            ],
            [
              7.450370255857706,
              46.19826033525169
            ],
            [
              7.450340255629271,
              46.198290335480124
            ],
            [
              7.450320255942643,
              46.1983203352429
            ],
            [
              7.450290255714208,
              46.19836033554748
            ],
            [
              7.450230255723,
              46.198400335386395
            ],
            [
              7.450080255512148,
              46.198530334979296
            ],
            [
              7.45002025552094,
              46.198570334818214
            ],
            [
              7.449970255140215,
              46.19860033458099
            ],
            [
              7.449920255225152,
              46.19862033473328
            ],
            [
              7.449900255538523,
              46.19863033480942
            ],
            [
              7.449840255547315,
              46.19866033503786
            ],
            [
              7.449780255090445,
              46.19869033433497
            ],
            [
              7.449760254938155,
              46.19871033448726
            ],
            [
              7.449660254642367,
              46.19875033386052
            ],
            [
              7.449520254507661,
              46.19887033384293
            ],
            [
              7.449410254601389,
              46.19897033367306
            ],
            [
              7.449270254001021,
              46.19906033342704
            ],
            [
              7.44918025424704,
              46.199110332876444
            ],
            [
              7.449010253883898,
              46.19919033301994
            ],
            [
              7.448870254214853,
              46.199240332935005
            ],
            [
              7.448760254308581,
              46.19927033316344
            ],
            [
              7.44861025409773,
              46.19929033285007
            ],
            [
              7.448190253227949,
              46.19925033207983
            ],
            [
              7.448080252856016,
              46.19924033153802
            ],
            [
              7.447920253034681,
              46.19922033185139
            ],
            [
              7.4477902529761195,
              46.19921033224091
            ],
            [
              7.447400252800435,
              46.19921033177525
            ],
            [
              7.447270252741873,
              46.19921033177525
            ],
            [
              7.4471702529117465,
              46.19921033130959
            ],
            [
              7.447080252692103,
              46.19923033146188
            ],
            [
              7.4470602525398135,
              46.19923033146188
            ],
            [
              7.44701025262475,
              46.19923033146188
            ],
            [
              7.446900252252817,
              46.199230330996215
            ]
          ]
        ]
      }
    }
  ]
}