{
  "type": "FeatureCollection",
  "features": [
    {
      "type": "Feature",
      "properties": {
        "id": "6edcfc4dece64b778b0a347d78d40dfa",
        "name": "Segment 001",
        "order": 1,
        "structure_type": "explorationencours",
        "structure_types": [
          "explorationencours"
        ],
        "display_mode": "single",
        "bicolor_colors": [],
        "water_status": "unknown",
        "continuous": false
      },
      "geometry": {
        "type": "MultiLineString",
        "coordinates": [
          [
            [
              7.716195565182716,
              46.287189380731434
            ],
            [
              7.7162102912552655,
              46.28727840166539
            ],
            [
              7.716225017793477,
              46.287367422599345
            ],
            [
              7.716241046320647,
              46.28745734039694
            ],
            [
              7.716262457892299,
              46.287585026584566
            ],
            [
              7.716307001188397,
              46.28766857739538
            ],
            [
              7.716352846473455,
              46.28775302460417
            ],
            [
              7.716398692224175,
              46.2878374713473
            ],
            [
              7.716444538440555,
              46.287921918556094
            ],
            [
              7.716489086858928,
              46.288006369024515
            ],
            [
              7.71652444684878,
              46.28807015158236
            ],
            [
              7.71658583637327,
              46.288149163126945
            ],
            [
              7.7166472263634205,
              46.28822817467153
            ],
            [
              7.716709914151579,
              46.28830718295649
            ],
            [
              7.716771304607391,
              46.28838619450107
            ],
            [
              7.716832694597542,
              46.28846520604566
            ],
            [
              7.716903223190457,
              46.28855498926714
            ],
            [
              7.716867331415415,
              46.2886414360255
            ],
            [
              7.716832736972719,
              46.28872787952423
            ],
            [
              7.716782768722624,
              46.28885304136202
            ],
            [
              7.716855815146118,
              46.28892752667889
            ],
            [
              7.716928861569613,
              46.2890020115301
            ],
            [
              7.717001908458769,
              46.28907649638131
            ],
            [
              7.717108868062496,
              46.289185082074255
            ],
            [
              7.717168966773897,
              46.28926499560475
            ],
            [
              7.717229065485299,
              46.28934490960091
            ],
            [
              7.717290457803756,
              46.28942392067984
            ],
            [
              7.7173505569808185,
              46.289503834676
            ],
            [
              7.717410656623542,
              46.289583748206496
            ],
            [
              7.717472049407661,
              46.28966275928542
            ],
            [
              7.717558276373893,
              46.28977679274976
            ],
            [
              7.717561331577599,
              46.289866741746664
            ],
            [
              7.717564386781305,
              46.289956690743566
            ],
            [
              7.7175674005411565,
              46.290038543287665
            ],
            [
              7.717681803740561,
              46.29007964255288
            ],
            [
              7.717797504737973,
              46.29012073855847
            ],
            [
              7.7179444041103125,
              46.29017255222425
            ],
            [
              7.717966920230538,
              46.29026155406609
            ],
            [
              7.717984116636217,
              46.29032538086176
            ],
            [
              7.717950196471065,
              46.290330247953534
            ],
            [
              7.717880196403712,
              46.29047024762258
            ],
            [
              7.717880196403712,
              46.29057024791837
            ],
            [
              7.717870196327567,
              46.29064024798572
            ],
            [
              7.717830196488649,
              46.290670247748494
            ],
            [
              7.717800196260214,
              46.2907302477397
            ],
            [
              7.717810196336359,
              46.29079024773091
            ],
            [
              7.717820196412504,
              46.29083024756983
            ],
            [
              7.717830196022987,
              46.29085024772212
            ],
            [
              7.717840196099132,
              46.29085024772212
            ],
            [
              7.717870196327567,
              46.29088024748489
            ],
            [
              7.71794019639492,
              46.290930247399956
            ],
            [
              7.718010196462274,
              46.29098024778068
            ],
            [
              7.718080196063966,
              46.291010247543454
            ],
            [
              7.718180196359754,
              46.29105024738237
            ],
            [
              7.718210196122527,
              46.29108024761081
            ],
            [
              7.718230196274817,
              46.2911002477631
            ],
            [
              7.718240196350962,
              46.291120247449726
            ],
            [
              7.7182601960375905,
              46.291200247593224
            ],
            [
              7.71828019618988,
              46.291230247356
            ],
            [
              7.718320196028799,
              46.29126024758443
            ],
            [
              7.718340196181089,
              46.29128024773672
            ],
            [
              7.71845019608736,
              46.291330247651786
            ],
            [
              7.718500196002424,
              46.291350247338414
            ],
            [
              7.7185401963070035,
              46.29138024756685
            ],
            [
              7.718590196222067,
              46.2914502476342
            ],
            [
              7.718760196119547,
              46.291650247294456
            ],
            [
              7.718970196321607,
              46.2918202476576
            ],
            [
              7.719150196295232,
              46.29193024756387
            ],
            [
              7.719270196277648,
              46.29201024770737
            ],
            [
              7.719460196327418,
              46.29216024745256
            ],
            [
              7.7195001961663365,
              46.292200247291476
            ],
            [
              7.719460195861757,
              46.292200247291476
            ],
            [
              7.719460114836693,
              46.292200034018606
            ],
            [
              7.719548700377345,
              46.292266382835805
            ],
            [
              7.7196685411036015,
              46.292354244273156
            ],
            [
              7.7197221727110445,
              46.292436871211976
            ],
            [
              7.719786259811372,
              46.292533865664154
            ],
            [
              7.719907116610557,
              46.29256685031578
            ],
            [
              7.720027968287468,
              46.292598934844136
            ],
            [
              7.7201488255523145,
              46.2926319190301
            ],
            [
              7.720319055020809,
              46.292676475364715
            ],
            [
              7.720427023712546,
              46.292726582847536
            ],
            [
              7.720534987747669,
              46.29277579113841
            ],
            [
              7.720642956439406,
              46.29282589815557
            ],
            [
              7.7207509209401906,
              46.292875105980784
            ],
            [
              7.720865387935191,
              46.29292699648067
            ],
            [
              7.720984952989966,
              46.29296088265255
            ],
            [
              7.721105815842748,
              46.29299476509914
            ],
            [
              7.721225381363183,
              46.293028651271015
            ],
            [
              7.721346244215965,
              46.2930625337176
            ],
            [
              7.721437213942409,
              46.29308749502525
            ],
            [
              7.721551635302603,
              46.293130388949066
            ],
            [
              7.7216647593304515,
              46.29317328566685
            ],
            [
              7.7217791811563075,
              46.29321617959067
            ],
            [
              7.721893598791212,
              46.293258173856884
            ],
            [
              7.722008021082729,
              46.29330106731504
            ],
            [
              7.722122443374246,
              46.29334396030754
            ],
            [
              7.722236865665764,
              46.293386853300035
            ],
            [
              7.722351283766329,
              46.293428847100586
            ],
            [
              7.7224904098547995,
              46.29348067380488
            ],
            [
              7.722615111619234,
              46.293503750581294
            ],
            [
              7.722741111647338,
              46.29352682409808
            ],
            [
              7.722865813411772,
              46.293549900408834
            ],
            [
              7.722991813439876,
              46.29357297345996
            ],
            [
              7.723117813467979,
              46.29359604604542
            ],
            [
              7.723217830993235,
              46.293613786809146
            ],
            [
              7.72333740349859,
              46.29364856984466
            ],
            [
              7.723458269611001,
              46.293682449962944
            ],
            [
              7.723577837459743,
              46.29371633334085
            ],
            [
              7.723697406239808,
              46.29375021671876
            ],
            [
              7.723818272352219,
              46.29378409637138
            ],
            [
              7.723937841132283,
              46.29381797974929
            ],
            [
              7.724036613944918,
              46.29384561814368
            ],
            [
              7.724165021907538,
              46.29383270116523
            ],
            [
              7.724293429870158,
              46.29381978372112
            ],
            [
              7.7244218327105045,
              46.2938059666194
            ],
            [
              7.724548942875117,
              46.29379305243492
            ],
            [
              7.724659187719226,
              46.293781080748886
            ],
            [
              7.724788959138095,
              46.293780753389
            ],
            [
              7.724918730556965,
              46.293780426029116
            ],
            [
              7.725022547878325,
              46.29378016432747
            ],
            [
              7.725136524997652,
              46.293737596832216
            ],
            [
              7.725250501651317,
              46.29369502933696
            ],
            [
              7.725411105901003,
              46.29363525239751
            ],
            [
              7.7255395273678005,
              46.293625032529235
            ],
            [
              7.725667948834598,
              46.2936148121953
            ],
            [
              7.725748369004577,
              46.293607412371784
            ],
            [
              7.7258524699136615,
              46.293661122210324
            ],
            [
              7.725995596963912,
              46.29373272508383
            ]
          ],
          [
            [
              7.71852548699826,
              46.29138553561643
            ],
            [
              7.718412820715457,
              46.291430791374296
            ],
            [
              7.718279437161982,
              46.29148509260267
            ],
            [
              7.718240945134312,
              46.29157064575702
            ],
            [
              7.718215290922672,
              46.291629179846495
            ],
            [
              7.7181182699278,
              46.291688789613545
            ],
            [
              7.718019946012646,
              46.291747502051294
            ],
            [
              7.717904815915972,
              46.29181884974241
            ],
            [
              7.717780373059213,
              46.291845242958516
            ],
            [
              7.717655929736793,
              46.29187163570896
            ],
            [
              7.717532783746719,
              46.29189802519977
            ],
            [
              7.717347413767129,
              46.29193716077134
            ],
            [
              7.717220333404839,
              46.2919554640539
            ],
            [
              7.717093252576888,
              46.291973766405135
            ],
            [
              7.716966171748936,
              46.29199206875637
            ],
            [
              7.716839090920985,
              46.29201037110761
            ],
            [
              7.716712010093033,
              46.29202867299318
            ],
            [
              7.7165928073227406,
              46.2920649475418
            ],
            [
              7.7164736040867865,
              46.29210122162476
            ],
            [
              7.716355698183179,
              46.29213749244809
            ],
            [
              7.716206694021821,
              46.2921828343533
            ],
            [
              7.71610706532374,
              46.29224064992741
            ],
            [
              7.715973796788603,
              46.29231833713129
            ],
            [
              7.715861122123897,
              46.292362690903246
            ],
            [
              7.715748447459191,
              46.2924070446752
            ],
            [
              7.715675923041999,
              46.29243600741029
            ],
            [
              7.7155486536212265,
              46.2924174265936
            ],
            [
              7.715421384666115,
              46.292398845776916
            ],
            [
              7.715312296524644,
              46.292382918763906
            ],
            [
              7.715187590569258,
              46.29235803429037
            ],
            [
              7.715062889736146,
              46.29233404947445
            ],
            [
              7.714936886448413,
              46.29230916779488
            ],
            [
              7.714857649989426,
              46.29229406779632
            ],
            [
              7.714731665793806,
              46.29227278428152
            ],
            [
              7.714605676475912,
              46.29225060110912
            ],
            [
              7.714479691814631,
              46.29222931712866
            ],
            [
              7.71435370715335,
              46.29220803268254
            ],
            [
              7.714182262774557,
              46.292178762611
            ]
          ]
        ]
      }
    },
    {
      "type": "Feature",
      "properties": {
        "id": "984cdb6fd8b243a5b535c13221ffbae4",
        "name": "Segment 002",
        "order": 2,
        "structure_type": "canalized",
        "structure_types": [
          "canalized"
        ],
        "display_mode": "single",
        "bicolor_colors": [],
        "water_status": "unknown",
        "continuous": false
      },
      "geometry": {
        "type": "MultiLineString",
        "coordinates": [
          [
            [
              7.710618854500353,
              46.2659047562629
            ],
            [
              7.710676328279078,
              46.26598557969555
            ],
            [
              7.7107325051911175,
              46.266066405922174
            ],
            [
              7.7107899794355035,
              46.26614722888917
            ],
            [
              7.710846156813204,
              46.26622805465013
            ],
            [
              7.71090363105759,
              46.26630887761712
            ],
            [
              7.710959808900952,
              46.26638970337808
            ],
            [
              7.711017283145338,
              46.26647052587941
            ],
            [
              7.7110734609887,
              46.26655135117471
            ],
            [
              7.711130935698748,
              46.266632173676044
            ],
            [
              7.711180584039539,
              46.2667040200904
            ]
          ],
          [
            [
              7.710740206297487,
              46.26770026003942
            ],
            [
              7.710700205992907,
              46.267880260013044
            ],
            [
              7.710700205992907,
              46.26794025953859
            ],
            [
              7.710680205840617,
              46.26798025984317
            ],
            [
              7.7106602056883276,
              46.268010259605944
            ],
            [
              7.710640206001699,
              46.26809025974944
            ],
            [
              7.710640206001699,
              46.268160259816796
            ],
            [
              7.710680205840617,
              46.26826025964692
            ],
            [
              7.710680205840617,
              46.26828025979921
            ],
            [
              7.710660206153989,
              46.26832025963813
            ],
            [
              7.7106002061627805,
              46.26834025979042
            ],
            [
              7.710550205782056,
              46.268350259866565
            ],
            [
              7.710520206019282,
              46.268370259553194
            ],
            [
              7.710470205638558,
              46.26842025946826
            ],
            [
              7.710440205875784,
              46.26844025962055
            ],
            [
              7.710410205647349,
              46.26849025953561
            ],
            [
              7.710400205571204,
              46.268520259764045
            ],
            [
              7.710370205808431,
              46.26855025952682
            ],
            [
              7.710350205656141,
              46.26862025959417
            ],
            [
              7.7103202058933675,
              46.2686402592808
            ]
          ],
          [
            [
              7.710230204742402,
              46.26952025806531
            ],
            [
              7.710200204513967,
              46.269590258132666
            ],
            [
              7.710190204437822,
              46.269650258123875
            ],
            [
              7.710200204513967,
              46.26970025803894
            ],
            [
              7.710220204200596,
              46.269750257954
            ],
            [
              7.7102302042767406,
              46.269780257716775
            ],
            [
              7.7102402043528855,
              46.26981025794521
            ],
            [
              7.710260204505175,
              46.26985025778413
            ],
            [
              7.710290204267949,
              46.26989025762305
            ],
            [
              7.710300204344094,
              46.26990025769919
            ]
          ],
          [
            [
              7.710430203936994,
              46.270310257561505
            ],
            [
              7.710430203936994,
              46.27035025740042
            ],
            [
              7.710390204098076,
              46.27040025731549
            ],
            [
              7.710270204115659,
              46.27055025752634
            ],
            [
              7.710220203734934,
              46.27058025728911
            ]
          ],
          [
            [
              7.709890204016119,
              46.27077025733888
            ],
            [
              7.709890204016119,
              46.270780257415026
            ],
            [
              7.709920203778893,
              46.2708102571778
            ],
            [
              7.709950204007328,
              46.27084025694057
            ],
            [
              7.709960203617811,
              46.27085025701672
            ],
            [
              7.709960203617811,
              46.27087025716901
            ],
            [
              7.709950204007328,
              46.27088025724515
            ],
            [
              7.709930203855038,
              46.27090025693178
            ],
            [
              7.709890204016119,
              46.27093025716022
            ],
            [
              7.709870203863829,
              46.27096025738865
            ],
            [
              7.709800203796476,
              46.271010257303715
            ]
          ],
          [
            [
              7.709200203418732,
              46.27468025684357
            ],
            [
              7.709210203494877,
              46.274720256682485
            ],
            [
              7.70924020325765,
              46.27475025644526
            ],
            [
              7.7093002032488585,
              46.27479025628418
            ],
            [
              7.709340203087777,
              46.27483025658876
            ],
            [
              7.709380203392357,
              46.274870256427675
            ],
            [
              7.709420203231275,
              46.274930256418884
            ],
            [
              7.709440202917904,
              46.27498025633395
            ],
            [
              7.7094702031463385,
              46.27503025624901
            ],
            [
              7.7094702031463385,
              46.2750502564013
            ],
            [
              7.7094602030701935,
              46.275080256164074
            ],
            [
              7.709440202917904,
              46.275120256468654
            ],
            [
              7.70943020330742,
              46.27516025630757
            ],
            [
              7.70941020315513,
              46.27520025614649
            ],
            [
              7.70939020300284,
              46.27524025645107
            ],
            [
              7.709360203240067,
              46.275290256366134
            ],
            [
              7.709340203087777,
              46.27532025612891
            ],
            [
              7.7092902031727135,
              46.27535025635734
            ],
            [
              7.709230203181505,
              46.27541025634855
            ]
          ],
          [
            [
              7.7091602007858455,
              46.277260253205895
            ],
            [
              7.709180200472474,
              46.277280253358185
            ],
            [
              7.709200200624764,
              46.27731025358662
            ],
            [
              7.709200200624764,
              46.277320253197104
            ],
            [
              7.7091602007858455,
              46.27735025342554
            ],
            [
              7.709140200633556,
              46.27737025357783
            ],
            [
              7.709120200946927,
              46.2774002533406
            ],
            [
              7.709120200481266,
              46.277430253103375
            ],
            [
              7.709140200633556,
              46.277450253255665
            ],
            [
              7.709140200633556,
              46.277470253407955
            ],
            [
              7.709130200557411,
              46.277490253560245
            ],
            [
              7.709090200718492,
              46.277510253246874
            ],
            [
              7.7090602004900575,
              46.27754025347531
            ],
            [
              7.709050200879574,
              46.27758025377989
            ],
            [
              7.709040200803429,
              46.27762025361881
            ],
            [
              7.709040200337768,
              46.277660252992064
            ],
            [
              7.709040200337768,
              46.27770025329664
            ],
            [
              7.709000200498849,
              46.27774025313556
            ],
            [
              7.708950200583786,
              46.277790253050625
            ],
            [
              7.708940200507641,
              46.27786025311798
            ],
            [
              7.708980200346559,
              46.27792025310919
            ],
            [
              7.709010200574994,
              46.27793025318533
            ],
            [
              7.7090502004139125,
              46.27795025333762
            ],
            [
              7.709130200557411,
              46.277960252948105
            ],
            [
              7.709210200235248,
              46.27799025317654
            ]
          ],
          [
            [
              7.709620200097561,
              46.27850025240332
            ],
            [
              7.709590199403465,
              46.278520251624286
            ],
            [
              7.709620198700577,
              46.27857025107369
            ],
            [
              7.709650198929012,
              46.27862025098875
            ],
            [
              7.70967019861564,
              46.278650250751525
            ],
            [
              7.70967019861564,
              46.27868025097996
            ],
            [
              7.70969019876793,
              46.27872025081888
            ]
          ],
          [
            [
              7.709640198852867,
              46.27891025086865
            ],
            [
              7.709630198776722,
              46.279010251164436
            ],
            [
              7.709620198700577,
              46.2790602510795
            ],
            [
              7.709580198861659,
              46.27910025091842
            ],
            [
              7.70952019887045,
              46.279200250748545
            ],
            [
              7.7094901986420155,
              46.279260251205415
            ],
            [
              7.709450198803097,
              46.27931025112048
            ],
            [
              7.709420198574662,
              46.27933025080711
            ],
            [
              7.709410198964179,
              46.27936025103554
            ]
          ],
          [
            [
              7.709260198287666,
              46.27964025037363
            ],
            [
              7.709220198448747,
              46.27968025021255
            ],
            [
              7.7092001982964575,
              46.27973025012761
            ],
            [
              7.709180198144168,
              46.27979025011882
            ],
            [
              7.709160197991878,
              46.279840250033885
            ],
            [
              7.709160197991878,
              46.279880250338465
            ],
            [
              7.709180198144168,
              46.27995025040582
            ],
            [
              7.709220197983086,
              46.280030250083655
            ],
            [
              7.70925019774586,
              46.2800902496092
            ],
            [
              7.709280197974294,
              46.28011024976149
            ],
            [
              7.709300198126584,
              46.28013025037944
            ],
            [
              7.709310198202729,
              46.28018025029451
            ]
          ],
          [
            [
              7.7105701975524426,
              46.281260249204934
            ],
            [
              7.710610197391361,
              46.28127024928108
            ],
            [
              7.710620197467506,
              46.28128024935722
            ],
            [
              7.7106501972302794,
              46.28129024896771
            ],
            [
              7.710740197915584,
              46.28131024958566
            ],
            [
              7.710790197830647,
              46.28133024973795
            ]
          ],
          [
            [
              7.711020197719336,
              46.28165024938062
            ],
            [
              7.711020197719336,
              46.28172024944797
            ],
            [
              7.711010197643191,
              46.281790249515325
            ]
          ],
          [
            [
              7.712630197405815,
              46.28292024927214
            ],
            [
              7.712650197558105,
              46.28292024927214
            ],
            [
              7.712710197549313,
              46.28292024927214
            ],
            [
              7.712770198006183,
              46.282930249813944
            ],
            [
              7.712840197607875,
              46.28294024942443
            ],
            [
              7.712900197599083,
              46.28295024950057
            ],
            [
              7.712940197438002,
              46.282960249111056
            ],
            [
              7.713100197259337,
              46.282980249263346
            ],
            [
              7.7131401975639164,
              46.283000248949975
            ],
            [
              7.71319019747898,
              46.283040249254555
            ],
            [
              7.713220197241753,
              46.28307024901733
            ],
            [
              7.713280197232962,
              46.28309024916962
            ],
            [
              7.713330197613686,
              46.28311024932191
            ],
            [
              7.713390197604895,
              46.28311024932191
            ],
            [
              7.7134701972827315,
              46.283130249008536
            ],
            [
              7.713560197502375,
              46.28314024908468
            ],
            [
              7.713610197417438,
              46.283170248847455
            ],
            [
              7.713710197247565,
              46.283190248999745
            ],
            [
              7.7137501975521445,
              46.28322024922818
            ],
            [
              7.713780197314918,
              46.28324024891481
            ],
            [
              7.713790197391063,
              46.28329024882987
            ],
            [
              7.713800197467208,
              46.283320249058306
            ],
            [
              7.713830197229981,
              46.28335024928674
            ]
          ],
          [
            [
              7.714320197235793,
              46.2836902490817
            ],
            [
              7.714350197464228,
              46.283720248844475
            ],
            [
              7.714370197150856,
              46.283760249149054
            ],
            [
              7.714400197379291,
              46.28379024891183
            ],
            [
              7.714450197294354,
              46.283830248750746
            ],
            [
              7.714520197361708,
              46.283870249055326
            ],
            [
              7.7145901969634,
              46.28388024866581
            ],
            [
              7.714670197106898,
              46.283870249055326
            ]
          ],
          [
            [
              7.715380197390914,
              46.28409024886787
            ],
            [
              7.715440197382122,
              46.28409024886787
            ],
            [
              7.715490197297186,
              46.284100248944014
            ],
            [
              7.715550197288394,
              46.28415024885908
            ],
            [
              7.715590197127312,
              46.28416024893522
            ],
            [
              7.715660197194666,
              46.28418024908751
            ],
            [
              7.715740197338164,
              46.28419024916366
            ],
            [
              7.715830197092146,
              46.284190248697996
            ],
            [
              7.715980197302997,
              46.28420024877414
            ],
            [
              7.716100197285414,
              46.28420024877414
            ],
            [
              7.716280196793377,
              46.28420024830848
            ],
            [
              7.716400197241455,
              46.284210248384625
            ],
            [
              7.7164101973176,
              46.284210248850286
            ],
            [
              7.716450197156519,
              46.284210248850286
            ],
            [
              7.7164801973849535,
              46.284230249002576
            ],
            [
              7.716490197461098,
              46.28424024907872
            ]
          ],
          [
            [
              7.716750196646899,
              46.28581024799496
            ],
            [
              7.716800196561962,
              46.28594024805352
            ],
            [
              7.716820196714252,
              46.286010248120874
            ],
            [
              7.716840196400881,
              46.286060247570276
            ],
            [
              7.716840196400881,
              46.286100247409195
            ],
            [
              7.716830196324736,
              46.28613024763763
            ],
            [
              7.716810196172446,
              46.28620024770498
            ],
            [
              7.716800196561962,
              46.28622024785727
            ],
            [
              7.7167801964096725,
              46.286270247772336
            ],
            [
              7.716710196342319,
              46.2864002478309
            ],
            [
              7.716640196740627,
              46.286560248117894
            ],
            [
              7.716630196664482,
              46.286580248270184
            ],
            [
              7.716580196749419,
              46.28660024795681
            ],
            [
              7.716530196834356,
              46.28663024818525
            ],
            [
              7.716470196377486,
              46.286670248024166
            ],
            [
              7.716420196462423,
              46.286710247863084
            ],
            [
              7.716380196623504,
              46.28676024777815
            ],
            [
              7.716330196708441,
              46.28685024799779
            ]
          ],
          [
            [
              7.71593019226566,
              46.28794024279341
            ],
            [
              7.715980192646384,
              46.28805024269968
            ],
            [
              7.716030192561448,
              46.288160242605954
            ],
            [
              7.716060192324221,
              46.28823024267331
            ]
          ]
        ]
      }
    },
    {
      "type": "Feature",
      "properties": {
        "id": "b868ea39842a46b0903aa08f922a270b",
        "name": "Segment 003",
        "order": 3,
        "structure_type": "open",
        "structure_types": [
          "open"
        ],
        "display_mode": "single",
        "bicolor_colors": [],
        "water_status": "unknown",
        "continuous": false
      },
      "geometry": {
        "type": "MultiLineString",
        "coordinates": [
          [
            [
              7.711180584039539,
              46.2667040200904
            ],
            [
              7.711080996785313,
              46.26676183147356
            ],
            [
              7.711016327608377,
              46.26679886877537
            ],
            [
              7.711020206101239,
              46.266800260171294
            ],
            [
              7.710970206186175,
              46.26683025993407
            ],
            [
              7.710900206118822,
              46.2668602601625
            ],
            [
              7.710830206051469,
              46.266890259925276
            ],
            [
              7.7107802061364055,
              46.26692026015371
            ],
            [
              7.710740206297487,
              46.26694025984034
            ],
            [
              7.710700206458569,
              46.26698026014492
            ],
            [
              7.710670206230134,
              46.26704026013613
            ],
            [
              7.710640206001699,
              46.267100260127336
            ],
            [
              7.71062020631507,
              46.26713025989011
            ],
            [
              7.7106102062389255,
              46.26719025988132
            ],
            [
              7.7106102062389255,
              46.26728026010096
            ],
            [
              7.7106102062389255,
              46.26738025993109
            ],
            [
              7.7106102062389255,
              46.26743025984615
            ],
            [
              7.7106002061627805,
              46.26747026015073
            ],
            [
              7.7106002061627805,
              46.26749025983736
            ],
            [
              7.710640206001699,
              46.26754025975242
            ],
            [
              7.710710206069052,
              46.26762025989592
            ],
            [
              7.710730206221342,
              46.2676602602005
            ],
            [
              7.710740206297487,
              46.26770026003942
            ]
          ],
          [
            [
              7.7103202058933675,
              46.2686402592808
            ],
            [
              7.710300205741078,
              46.26866025943309
            ],
            [
              7.710300205741078,
              46.26870025927201
            ],
            [
              7.710300205275416,
              46.26872025895864
            ],
            [
              7.710320205427706,
              46.26875025918707
            ],
            [
              7.710380205418915,
              46.26879025902599
            ],
            [
              7.71037020534277,
              46.2688502590172
            ],
            [
              7.710370204877108,
              46.26885025855154
            ],
            [
              7.71037020534277,
              46.2688502590172
            ],
            [
              7.710390205029398,
              46.26896025845781
            ],
            [
              7.710410204716027,
              46.26904025860131
            ],
            [
              7.710400204639882,
              46.269100258126855
            ],
            [
              7.710370204411447,
              46.26920025795698
            ],
            [
              7.710390204563737,
              46.26923025818542
            ],
            [
              7.710380204487592,
              46.269290258176625
            ],
            [
              7.710380204487592,
              46.26933025801554
            ],
            [
              7.710360204800963,
              46.26936025824398
            ],
            [
              7.71027020458132,
              46.269440258387476
            ],
            [
              7.710240204818547,
              46.26947025815025
            ],
            [
              7.710230204742402,
              46.26952025806531
            ]
          ],
          [
            [
              7.710300204344094,
              46.26990025769919
            ],
            [
              7.710270204115659,
              46.269930257927626
            ],
            [
              7.7102302042767406,
              46.269950257614255
            ],
            [
              7.710210204124451,
              46.26998025784269
            ],
            [
              7.710210204124451,
              46.27001025760546
            ],
            [
              7.7102302042767406,
              46.27005025744438
            ],
            [
              7.710260204039514,
              46.270100257359445
            ],
            [
              7.710270204115659,
              46.27013025758788
            ],
            [
              7.710300204344094,
              46.270140257664025
            ],
            [
              7.710320204030722,
              46.2701702574268
            ],
            [
              7.710320204030722,
              46.27019025757909
            ],
            [
              7.710360204335302,
              46.27021025726572
            ],
            [
              7.710380204021931,
              46.27022025734186
            ],
            [
              7.710400204174221,
              46.27023025741801
            ],
            [
              7.71042020432651,
              46.270290257409215
            ],
            [
              7.710430203936994,
              46.270310257561505
            ]
          ],
          [
            [
              7.710220203734934,
              46.27058025728911
            ],
            [
              7.7101302039809525,
              46.270610257051885
            ],
            [
              7.710010203998536,
              46.27066025743261
            ],
            [
              7.709980203770101,
              46.27066025743261
            ],
            [
              7.709940203931183,
              46.27068025711924
            ],
            [
              7.709910204168409,
              46.27070025727153
            ],
            [
              7.709890204016119,
              46.27073025749996
            ],
            [
              7.709890204016119,
              46.27077025733888
            ]
          ],
          [
            [
              7.709800203796476,
              46.271010257303715
            ],
            [
              7.709770204033703,
              46.27103025699034
            ],
            [
              7.709730203729123,
              46.27104025706649
            ],
            [
              7.709690203890204,
              46.27105025714263
            ],
            [
              7.709670203737915,
              46.27106025721878
            ],
            [
              7.709650204051286,
              46.27107025729492
            ],
            [
              7.709630203898996,
              46.2711002570577
            ],
            [
              7.709620203822851,
              46.271140257362276
            ],
            [
              7.709620203822851,
              46.27117025712505
            ],
            [
              7.709610203746706,
              46.27119025727734
            ],
            [
              7.709600203670561,
              46.27121025742963
            ],
            [
              7.709540204145014,
              46.27125025726855
            ],
            [
              7.70949020376429,
              46.27127025742084
            ],
            [
              7.709420203696936,
              46.27128025703132
            ],
            [
              7.709360203705728,
              46.27130025718361
            ],
            [
              7.709270203951746,
              46.27136025717482
            ],
            [
              7.709220204036683,
              46.27143025724217
            ],
            [
              7.709180203732103,
              46.27145025739446
            ],
            [
              7.70913020381704,
              46.27147025708109
            ],
            [
              7.709070203825831,
              46.27151025738567
            ],
            [
              7.708910204004496,
              46.27159025752917
            ],
            [
              7.708860204089433,
              46.27163025736809
            ],
            [
              7.708840203937143,
              46.271670257207006
            ],
            [
              7.708830203860998,
              46.27170025743544
            ],
            [
              7.708840203937143,
              46.271730257198215
            ],
            [
              7.708860204089433,
              46.271770257502794
            ],
            [
              7.708870203699917,
              46.27180025726557
            ],
            [
              7.708870203699917,
              46.27185025718063
            ],
            [
              7.708860204089433,
              46.27193025732413
            ],
            [
              7.708850204013288,
              46.272010257001966
            ],
            [
              7.708850204013288,
              46.2721202573739
            ],
            [
              7.708860203623772,
              46.27232025703415
            ],
            [
              7.708850203547627,
              46.272390257101506
            ],
            [
              7.70877020386979,
              46.27255025692284
            ],
            [
              7.7087502037175,
              46.2726802569814
            ],
            [
              7.7087502037175,
              46.2727602571249
            ],
            [
              7.7087702034041286,
              46.272920256946236
            ],
            [
              7.7087702034041286,
              46.272940256632864
            ],
            [
              7.708790203556418,
              46.272980256937444
            ],
            [
              7.708800203632563,
              46.27301025716588
            ],
            [
              7.708790203556418,
              46.2730502570048
            ],
            [
              7.7087802034802735,
              46.27308025676757
            ],
            [
              7.708720203489065,
              46.273170256987214
            ],
            [
              7.708690203726292,
              46.27322025690228
            ],
            [
              7.708650203421712,
              46.273280256893486
            ],
            [
              7.708620203658938,
              46.27331025712192
            ],
            [
              7.7086102035827935,
              46.27333025680855
            ],
            [
              7.7086002035066485,
              46.27335025696084
            ],
            [
              7.7086102035827935,
              46.27344025671482
            ],
            [
              7.708620203658938,
              46.27350025670603
            ],
            [
              7.7086102035827935,
              46.27354025701061
            ],
            [
              7.708620203658938,
              46.27357025677338
            ],
            [
              7.708620203658938,
              46.27360025700182
            ],
            [
              7.708630203735083,
              46.27363025676459
            ],
            [
              7.708620203658938,
              46.273660256993026
            ],
            [
              7.708630203269422,
              46.273720256984234
            ],
            [
              7.708620203193277,
              46.27375025674701
            ],
            [
              7.7086102035827935,
              46.2737702568993
            ],
            [
              7.7086102035827935,
              46.27380025666207
            ],
            [
              7.7086102035827935,
              46.27384025696665
            ],
            [
              7.7086102035827935,
              46.27388025680557
            ],
            [
              7.7086102035827935,
              46.27390025695786
            ],
            [
              7.708620203193277,
              46.27392025664449
            ],
            [
              7.708640203345567,
              46.27394025679678
            ],
            [
              7.708650203421712,
              46.27397025702521
            ],
            [
              7.708650203421712,
              46.274020256940275
            ],
            [
              7.708660203497857,
              46.274060256779194
            ],
            [
              7.708660203497857,
              46.27414025692269
            ],
            [
              7.708670203574002,
              46.274190256837755
            ],
            [
              7.70869020326063,
              46.27422025660053
            ],
            [
              7.70871020341292,
              46.27426025690511
            ],
            [
              7.70873020356521,
              46.27430025674403
            ],
            [
              7.708750203251839,
              46.27431025682017
            ],
            [
              7.708790203556418,
              46.27432025689632
            ],
            [
              7.708830203395337,
              46.27435025665909
            ],
            [
              7.70890020346269,
              46.274420256726444
            ],
            [
              7.7089502033777535,
              46.27446025656536
            ],
            [
              7.708970203530043,
              46.27448025671765
            ],
            [
              7.709000203292817,
              46.27452025655657
            ],
            [
              7.709010203368962,
              46.274530256632715
            ],
            [
              7.70907020336017,
              46.27456025686115
            ],
            [
              7.70909020351246,
              46.27460025670007
            ],
            [
              7.709130203351378,
              46.27463025646284
            ],
            [
              7.709200203418732,
              46.27468025684357
            ]
          ],
          [
            [
              7.709230203181505,
              46.27541025634855
            ],
            [
              7.709160203114152,
              46.275460256263614
            ],
            [
              7.709100203122944,
              46.27551025617868
            ],
            [
              7.709060202818364,
              46.275570256169885
            ],
            [
              7.709040202666074,
              46.27562025608495
            ],
            [
              7.709040202666074,
              46.27566025592387
            ],
            [
              7.709040202666074,
              46.27569025568664
            ],
            [
              7.709030202589929,
              46.275720255915076
            ],
            [
              7.709000202827156,
              46.275740256067365
            ],
            [
              7.708880202844739,
              46.275800256058574
            ],
            [
              7.708770202472806,
              46.27588025573641
            ],
            [
              7.708680202718824,
              46.275950255803764
            ],
            [
              7.708610202651471,
              46.27601025579497
            ],
            [
              7.708550202660263,
              46.27609025593847
            ],
            [
              7.708520202431828,
              46.27613025577739
            ],
            [
              7.708520202431828,
              46.27616025554016
            ],
            [
              7.708520202431828,
              46.276190255302936
            ],
            [
              7.708510202355683,
              46.276240255218
            ],
            [
              7.708470202051103,
              46.27628025505692
            ],
            [
              7.70844020228833,
              46.27630025520921
            ],
            [
              7.70842020213604,
              46.27633025497198
            ],
            [
              7.70840020198375,
              46.276380254887044
            ],
            [
              7.70840020198375,
              46.276420255191624
            ],
            [
              7.70842020213604,
              46.27647025510669
            ],
            [
              7.708450201898813,
              46.27652025502175
            ],
            [
              7.708460201974958,
              46.27656025486067
            ],
            [
              7.708480201661587,
              46.27661025431007
            ],
            [
              7.708480201661587,
              46.27663025446236
            ],
            [
              7.708480201661587,
              46.27665025461465
            ],
            [
              7.708490201737732,
              46.276660254690796
            ],
            [
              7.708540201652795,
              46.27669025445357
            ],
            [
              7.7085802014917135,
              46.27672025421634
            ],
            [
              7.708620201330632,
              46.276790254283696
            ],
            [
              7.708630201406777,
              46.27680025435984
            ],
            [
              7.708670201245695,
              46.27686025435105
            ],
            [
              7.708700201008469,
              46.276980253867805
            ],
            [
              7.708750200457871,
              46.27712025260553
            ],
            [
              7.7087802002206445,
              46.27714025275782
            ],
            [
              7.708830200601369,
              46.27714025275782
            ],
            [
              7.708950200583786,
              46.277200252749026
            ],
            [
              7.708980200346559,
              46.277220252901316
            ],
            [
              7.7090602004900575,
              46.27724025351927
            ],
            [
              7.709110200405121,
              46.27725025312975
            ],
            [
              7.7091602007858455,
              46.277260253205895
            ]
          ],
          [
            [
              7.709210200235248,
              46.27799025317654
            ],
            [
              7.709260200150311,
              46.278000252787024
            ],
            [
              7.709320200607181,
              46.278020252939314
            ],
            [
              7.709350199904293,
              46.27805025270209
            ],
            [
              7.709390200208873,
              46.27806025277823
            ],
            [
              7.709440200123936,
              46.27806025277823
            ],
            [
              7.709470200352371,
              46.27806025277823
            ],
            [
              7.709490200504661,
              46.27806025324389
            ],
            [
              7.7095102006569505,
              46.27808025293052
            ],
            [
              7.709530200343579,
              46.27810025308281
            ],
            [
              7.7095702001824975,
              46.278110252693295
            ],
            [
              7.709590199869126,
              46.278130252379924
            ],
            [
              7.709620200097561,
              46.278150252997875
            ],
            [
              7.7096401997841895,
              46.27818025229499
            ],
            [
              7.709680200088769,
              46.27819025237113
            ],
            [
              7.709780200384557,
              46.27829025266692
            ],
            [
              7.709790200460702,
              46.278300252743065
            ],
            [
              7.709820200223476,
              46.2783302529715
            ],
            [
              7.709830200299621,
              46.278360252734274
            ],
            [
              7.709830200299621,
              46.27839025296271
            ],
            [
              7.709790199995041,
              46.27842025272548
            ],
            [
              7.7097402000799775,
              46.278450252488256
            ],
            [
              7.709640200249851,
              46.27848025271669
            ],
            [
              7.709620200097561,
              46.27850025240332
            ]
          ],
          [
            [
              7.70969019876793,
              46.27872025081888
            ],
            [
              7.70967019861564,
              46.27883025072515
            ],
            [
              7.709640198852867,
              46.27891025086865
            ]
          ],
          [
            [
              7.709410198964179,
              46.27936025103554
            ],
            [
              7.709390198811889,
              46.279410250950605
            ],
            [
              7.709370198659599,
              46.27945025078952
            ],
            [
              7.709350198507309,
              46.2794902510941
            ],
            [
              7.7093201987445354,
              46.27951025078073
            ],
            [
              7.7093101986683905,
              46.279540251009166
            ],
            [
              7.709260198753327,
              46.27957025077194
            ],
            [
              7.709260198753327,
              46.27960025053471
            ],
            [
              7.709260198287666,
              46.27964025037363
            ]
          ],
          [
            [
              7.709310198202729,
              46.28018025029451
            ],
            [
              7.7093701981939375,
              46.28027025004849
            ],
            [
              7.709470198024064,
              46.28046025009826
            ],
            [
              7.709530198015273,
              46.280560249928385
            ],
            [
              7.709570197854191,
              46.28064024960622
            ],
            [
              7.7096201977692544,
              46.280690249521285
            ],
            [
              7.709690197836608,
              46.280750249512494
            ],
            [
              7.709760197903961,
              46.28084024973214
            ],
            [
              7.709830197505653,
              46.28093024948612
            ],
            [
              7.709860197734088,
              46.2809702497907
            ],
            [
              7.709880197886378,
              46.28099024947733
            ],
            [
              7.709930197801441,
              46.28103024978191
            ],
            [
              7.709960198029876,
              46.28108024969697
            ],
            [
              7.710020197555423,
              46.28111024945974
            ],
            [
              7.710090197622776,
              46.28115024976432
            ],
            [
              7.7102401978336275,
              46.28122024983168
            ],
            [
              7.710310197900981,
              46.28125024959445
            ],
            [
              7.710420197807252,
              46.28125024959445
            ],
            [
              7.710520197637379,
              46.28125024959445
            ],
            [
              7.7105701975524426,
              46.281260249204934
            ]
          ],
          [
            [
              7.710790197830647,
              46.28133024973795
            ],
            [
              7.710820197593421,
              46.28136024950072
            ],
            [
              7.710830197669566,
              46.28138024965301
            ],
            [
              7.7108501978218555,
              46.281410249881446
            ],
            [
              7.710890197660774,
              46.28144024964422
            ],
            [
              7.711000197567046,
              46.28157024970278
            ],
            [
              7.711020197719336,
              46.28165024938062
            ]
          ],
          [
            [
              7.711010197643191,
              46.281790249515325
            ],
            [
              7.710990197490901,
              46.28186024958268
            ],
            [
              7.710980197880417,
              46.281940249726176
            ],
            [
              7.710980197880417,
              46.28199024964124
            ],
            [
              7.711010197643191,
              46.28203024948016
            ],
            [
              7.711010197643191,
              46.2820402495563
            ],
            [
              7.711080197710544,
              46.28207024931908
            ],
            [
              7.711160197388381,
              46.28210024908185
            ],
            [
              7.711290197446942,
              46.28214024938643
            ],
            [
              7.711430197581649,
              46.28219024930149
            ],
            [
              7.711570197716355,
              46.28222024952993
            ],
            [
              7.7116501978598535,
              46.28227024944499
            ],
            [
              7.71173019753769,
              46.282320249360055
            ],
            [
              7.7118201977573335,
              46.28237024927512
            ],
            [
              7.711900197900832,
              46.2824102495797
            ],
            [
              7.711980197578669,
              46.28242024965584
            ],
            [
              7.71211019763723,
              46.282430249266326
            ],
            [
              7.712210197467357,
              46.28242024965584
            ],
            [
              7.712240197695792,
              46.28242024965584
            ],
            [
              7.712260197848082,
              46.282430249266326
            ],
            [
              7.71228019753471,
              46.28244024934247
            ],
            [
              7.712310197763145,
              46.28246024949476
            ],
            [
              7.7123401975259185,
              46.28248024964705
            ],
            [
              7.712400197982788,
              46.28250024979934
            ],
            [
              7.712410198058933,
              46.282530249562114
            ],
            [
              7.712420197669417,
              46.28255024924874
            ],
            [
              7.712410197593272,
              46.28256024932489
            ],
            [
              7.712370197754353,
              46.28259024955332
            ],
            [
              7.7123401975259185,
              46.28261024923995
            ],
            [
              7.7123401975259185,
              46.282640249468386
            ],
            [
              7.712350197602063,
              46.28267024923116
            ],
            [
              7.712380197364837,
              46.28272024914622
            ],
            [
              7.712430197745562,
              46.2827602494508
            ],
            [
              7.71247019758448,
              46.282790249213576
            ],
            [
              7.712530197575688,
              46.282850249204785
            ],
            [
              7.712560197338462,
              46.28288024943322
            ],
            [
              7.7126101977191865,
              46.28291024919599
            ],
            [
              7.712630197405815,
              46.28292024927214
            ]
          ],
          [
            [
              7.713830197229981,
              46.28335024928674
            ],
            [
              7.713840197306126,
              46.28341024927795
            ],
            [
              7.713850197382271,
              46.28344024904072
            ],
            [
              7.713880197610706,
              46.2834802493453
            ],
            [
              7.71391019737348,
              46.283510249108076
            ],
            [
              7.714000197593123,
              46.28354024887085
            ],
            [
              7.7140901973471045,
              46.28362024901435
            ],
            [
              7.714140197262168,
              46.28365024924278
            ],
            [
              7.714170197490603,
              46.283660248853266
            ],
            [
              7.7142701973207295,
              46.28367024892941
            ],
            [
              7.714320197235793,
              46.2836902490817
            ]
          ],
          [
            [
              7.714670197106898,
              46.283870249055326
            ],
            [
              7.714700197335333,
              46.28388024866581
            ],
            [
              7.714730197098106,
              46.283930249046534
            ],
            [
              7.714760197326541,
              46.28395024873316
            ],
            [
              7.7148901973851025,
              46.284000248648226
            ],
            [
              7.714970197062939,
              46.28403024887666
            ],
            [
              7.715100197121501,
              46.284040248952806
            ],
            [
              7.715220197103918,
              46.284060248639435
            ],
            [
              7.715320197399706,
              46.28409024886787
            ],
            [
              7.715380197390914,
              46.28409024886787
            ]
          ],
          [
            [
              7.716240196954459,
              46.28452024888247
            ],
            [
              7.716250197030604,
              46.284610248636454
            ],
            [
              7.7162601966410875,
              46.28465024847537
            ],
            [
              7.716250197030604,
              46.284680248238146
            ],
            [
              7.716240196954459,
              46.284700248390436
            ],
            [
              7.716180196963251,
              46.284760248847306
            ],
            [
              7.7161001968197525,
              46.28482024837285
            ],
            [
              7.716010196600109,
              46.284870247822255
            ],
            [
              7.7159201968461275,
              46.284910248126835
            ],
            [
              7.715870196931064,
              46.284930248279124
            ],
            [
              7.715860196854919,
              46.28495024796575
            ],
            [
              7.715860196854919,
              46.28497024811804
            ],
            [
              7.715860196854919,
              46.28500024788082
            ],
            [
              7.715880196541548,
              46.28503024810925
            ],
            [
              7.715980196837336,
              46.285120248328894
            ],
            [
              7.716050196439028,
              46.28518024785444
            ],
            [
              7.7161501962691545,
              46.285250247921795
            ],
            [
              7.7162601966410875,
              46.28534024814144
            ],
            [
              7.716410196851939,
              46.285480248276144
            ],
            [
              7.716520196758211,
              46.28562024794519
            ],
            [
              7.716550196520984,
              46.285650248173624
            ],
            [
              7.716600196901709,
              46.2856802479364
            ],
            [
              7.716670196503401,
              46.28572024824098
            ],
            [
              7.7167101968079805,
              46.285760248079896
            ],
            [
              7.716740196570754,
              46.28579024830833
            ],
            [
              7.716750196646899,
              46.28581024799496
            ]
          ],
          [
            [
              7.716330196708441,
              46.28685024799779
            ],
            [
              7.716300196480006,
              46.28689024783671
            ],
            [
              7.716300444211811,
              46.28689046762884
            ],
            [
              7.7162684495560825,
              46.286977804265916
            ],
            [
              7.716236450709403,
              46.28706424077973
            ],
            [
              7.716204455588013,
              46.28715157741681
            ],
            [
              7.71618270361796,
              46.28721190104261
            ],
            [
              7.716060892678797,
              46.28724368289113
            ],
            [
              7.715871699154377,
              46.28729361994192
            ],
            [
              7.715748288668692,
              46.28726603416726
            ],
            [
              7.715624873526394,
              46.28723754873499
            ],
            [
              7.715520944911987,
              46.28721351362765
            ],
            [
              7.7155539728701115,
              46.287329476792365
            ],
            [
              7.715540192555636,
              46.287330243270844
            ],
            [
              7.715560192707926,
              46.28739024326205
            ],
            [
              7.715640192385763,
              46.287570242770016
            ],
            [
              7.715670192614198,
              46.28762024315074
            ],
            [
              7.715710192453116,
              46.28768024314195
            ],
            [
              7.715720192529261,
              46.28770024282858
            ],
            [
              7.7157701924443245,
              46.28773024305701
            ],
            [
              7.715810192748904,
              46.287760242819786
            ],
            [
              7.715860192663968,
              46.28779024304822
            ],
            [
              7.715890192426741,
              46.28785024303943
            ],
            [
              7.71593019226566,
              46.28794024279341
            ]
          ],
          [
            [
              7.716060192324221,
              46.28823024267331
            ],
            [
              7.716090192552656,
              46.28829024313018
            ],
            [
              7.716100192628801,
              46.28836024273187
            ],
            [
              7.716130192391574,
              46.28842024272308
            ],
            [
              7.716180192772299,
              46.2884702431038
            ],
            [
              7.716240192763507,
              46.28851024294272
            ],
            [
              7.716290192678571,
              46.288540242705494
            ],
            [
              7.716310192365199,
              46.28859024308622
            ],
            [
              7.716320192441344,
              46.28859024308622
            ],
            [
              7.716310192365199,
              46.288650242611766
            ],
            [
              7.716270192526281,
              46.288730243220925
            ],
            [
              7.716240192763507,
              46.2887602429837
            ],
            [
              7.716230192687362,
              46.28878024267033
            ],
            [
              7.716240192297846,
              46.288820242509246
            ],
            [
              7.716260192450136,
              46.288880242500454
            ],
            [
              7.716330192517489,
              46.28900024248287
            ],
            [
              7.716410192660987,
              46.28908024262637
            ],
            [
              7.716480192262679,
              46.28919024253264
            ],
            [
              7.716550192330033,
              46.289280242752284
            ],
            [
              7.716580192558467,
              46.2893202425912
            ],
            [
              7.716610192321241,
              46.28936024243012
            ],
            [
              7.716620192397386,
              46.2894002427347
            ],
            [
              7.716670192312449,
              46.28942024288699
            ],
            [
              7.716720192693174,
              46.2894802428782
            ],
            [
              7.716760192532092,
              46.28953024279326
            ],
            [
              7.716820192523301,
              46.28957024309784
            ],
            [
              7.716820192523301,
              46.28957024309784
            ],
            [
              7.716860192362219,
              46.28961024293676
            ],
            [
              7.716870192438364,
              46.289660242851824
            ],
            [
              7.716900192666799,
              46.28971024323255
            ],
            [
              7.716950192581862,
              46.28978024283424
            ],
            [
              7.716990192420781,
              46.28982024267316
            ],
            [
              7.717090192250907,
              46.28995024273172
            ],
            [
              7.7171801924705505,
              46.29004024295136
            ],
            [
              7.717240192461759,
              46.29009024286643
            ],
            [
              7.717300192452967,
              46.29012024309486
            ],
            [
              7.717310192529112,
              46.290150242857635
            ],
            [
              7.717320192605257,
              46.29016024293378
            ],
            [
              7.717320192605257,
              46.29018024262041
            ],
            [
              7.717310192529112,
              46.29021024238318
            ],
            [
              7.717270192224532,
              46.29025024268776
            ],
            [
              7.717150192242116,
              46.290300242602825
            ],
            [
              7.7170701920986176,
              46.29036024259403
            ],
            [
              7.717030192259699,
              46.29040024243295
            ],
            [
              7.717020192183554,
              46.29048024211079
            ],
            [
              7.717030192259699,
              46.29055024217814
            ],
            [
              7.717050191946328,
              46.290600242093205
            ],
            [
              7.717110191937536,
              46.29067024216056
            ],
            [
              7.717200191691518,
              46.290770241990685
            ],
            [
              7.717280191835016,
              46.29084024205804
            ],
            [
              7.717500191647559,
              46.29107024194673
            ],
            [
              7.717610192019492,
              46.291170242242515
            ],
            [
              7.717660191934556,
              46.29127024207264
            ],
            [
              7.717720191925764,
              46.29139024205506
            ],
            [
              7.7177701918408275,
              46.291490241885185
            ],
            [
              7.717810191679746,
              46.291550241876394
            ],
            [
              7.717880191747099,
              46.29162024194375
            ],
            [
              7.718000191729516,
              46.291680241934955
            ],
            [
              7.718120191711932,
              46.29174024192616
            ],
            [
              7.718200191855431,
              46.29176024207845
            ],
            [
              7.718200391158462,
              46.29176055220887
            ],
            [
              7.718126801773906,
              46.29183449735865
            ],
            [
              7.718054514378309,
              46.29190933890641
            ],
            [
              7.718004158232361,
              46.291958938352764
            ],
            [
              7.717911048326641,
              46.292022136971354
            ],
            [
              7.717817933298647,
              46.292084436398
            ],
            [
              7.7177248182706535,
              46.29214673535898
            ],
            [
              7.717642052099109,
              46.29220271157101
            ],
            [
              7.717561959754676,
              46.29227397451177
            ],
            [
              7.717481862287968,
              46.29234433732927
            ],
            [
              7.7173914378508925,
              46.292425520252436
            ],
            [
              7.717474839184433,
              46.29249368188903
            ],
            [
              7.7175582447089255,
              46.292562743183225
            ],
            [
              7.717676831409335,
              46.29265960492194
            ],
            [
              7.7177705825306475,
              46.29272144427523
            ],
            [
              7.717864338774234,
              46.29278418328613
            ],
            [
              7.717958090361208,
              46.29284602217376
            ],
            [
              7.718015382066369,
              46.2928836629726
            ],
            [
              7.71812334889546,
              46.29293377278373
            ],
            [
              7.718231311067939,
              46.29298298293725
            ],
            [
              7.718340576160699,
              46.293033089488745
            ],
            [
              7.718448538798839,
              46.293082299176604
            ],
            [
              7.718556506559253,
              46.29313240898773
            ],
            [
              7.718664470128715,
              46.29318161867559
            ],
            [
              7.7187958476133645,
              46.29324156558141
            ],
            [
              7.718780187424272,
              46.293260236270726
            ],
            [
              7.718870187178254,
              46.29329023649916
            ],
            [
              7.718910187482834,
              46.29331023618579
            ],
            [
              7.7190301874652505,
              46.29335023602471
            ],
            [
              7.719180187210441,
              46.29339023632929
            ],
            [
              7.7193701872602105,
              46.29346023639664
            ],
            [
              7.719520187005401,
              46.293510236311704
            ]
          ]
        ]
      }
    },
    {
      "type": "Feature",
      "properties": {
        "id": "740f448b40004c80a8ed3ce2ffb02243",
        "name": "Segment 004",
        "order": 4,
        "structure_type": "mixed",
        "structure_types": [
          "canalized",
          "open"
        ],
        "display_mode": "bicolor",
        "bicolor_colors": [
          "#111111",
          "#1e88e5"
        ],
        "water_status": "unknown",
        "continuous": true
      },
      "geometry": {
        "type": "LineString",
        "coordinates": [
          [
            7.716490197461098,
            46.28424024907872
          ],
          [
            7.716500197071582,
            46.28426024876535
          ],
          [
            7.716490197461098,
            46.284270248841494
          ],
          [
            7.716460197232664,
            46.28428024891764
          ],
          [
            7.716420197393745,
            46.284290248993784
          ],
          [
            7.7163801970891654,
            46.28431024868041
          ],
          [
            7.716350197326392,
            46.28434024890885
          ],
          [
            7.716310197021812,
            46.28439024882391
          ],
          [
            7.716260197106749,
            46.2844602484256
          ],
          [
            7.716240196954459,
            46.28452024888247
          ]
        ]
      }
    },
    {
      "type": "Feature",
      "properties": {
        "id": "614f752f315e4e75a419d361b1152aeb",
        "name": "Segment 005",
        "order": 5,
        "structure_type": "canalabandonn",
        "structure_types": [
          "canalabandonn"
        ],
        "display_mode": "single",
        "bicolor_colors": [],
        "water_status": "unknown",
        "continuous": false
      },
      "geometry": {
        "type": "MultiLineString",
        "coordinates": [
          [
            [
              7.719520187005401,
              46.293510236311704
            ],
            [
              7.71956018730998,
              46.29352023592219
            ],
            [
              7.719650187063962,
              46.29355023615062
            ],
            [
              7.719700187444687,
              46.29356023622677
            ],
            [
              7.719790187198669,
              46.29356023622677
            ],
            [
              7.719830187037587,
              46.29358023637906
            ],
            [
              7.719880187418312,
              46.293600236065686
            ],
            [
              7.719930187333375,
              46.293620236217976
            ],
            [
              7.720010187011212,
              46.29363023629412
            ],
            [
              7.720140187069774,
              46.29365023598075
            ],
            [
              7.720600187312812,
              46.29373023612425
            ],
            [
              7.72081018704921,
              46.29376023588702
            ],
            [
              7.7209601867944,
              46.29378023603931
            ],
            [
              7.7209601867944,
              46.29378023603931
            ],
            [
              7.720960638020188,
              46.29378043767065
            ],
            [
              7.72107763774693,
              46.2938197273761
            ],
            [
              7.721193335019052,
              46.29385812114924
            ],
            [
              7.7213103347457945,
              46.2938974108547
            ],
            [
              7.721427334472537,
              46.29393670009449
            ],
            [
              7.721544334664941,
              46.293975988868624
            ],
            [
              7.721661334391683,
              46.29401527810842
            ],
            [
              7.7217783303931355,
              46.294053667224944
            ],
            [
              7.721895330585539,
              46.29409295646474
            ],
            [
              7.722012331709266,
              46.29413224523887
            ],
            [
              7.722129332367331,
              46.29417153354734
            ],
            [
              7.722207331564277,
              46.29419742617756
            ],
            [
              7.722323048859835,
              46.29423941625282
            ],
            [
              7.722437473013997,
              46.29428230877966
            ]
          ],
          [
            [
              7.725943143945187,
              46.29510918259621
            ],
            [
              7.726068916264921,
              46.29508817382157
            ],
            [
              7.726234880276024,
              46.29505986627191
            ]
          ]
        ]
      }
    },
    {
      "type": "Feature",
      "properties": {
        "id": "02db1b4f52a34f49a09b14f478cf1e7c",
        "name": "Segment 006",
        "order": 6,
        "structure_type": "abandoned",
        "structure_types": [
          "abandoned"
        ],
        "display_mode": "single",
        "bicolor_colors": [],
        "water_status": "unknown",
        "continuous": false
      },
      "geometry": {
        "type": "MultiLineString",
        "coordinates": [
          [
            [
              7.722437473013997,
              46.29428230877966
            ],
            [
              7.7225713967345655,
              46.29433145001531
            ],
            [
              7.722666454035789,
              46.29439328191802
            ],
            [
              7.722760214004666,
              46.29445511708036
            ],
            [
              7.722844856791198,
              46.29451067838818
            ],
            [
              7.722956705838442,
              46.29455717559904
            ],
            [
              7.723068555351347,
              46.2946036728099
            ],
            [
              7.72317910194397,
              46.29464927362278
            ],
            [
              7.723290951456875,
              46.29469577036798
            ],
            [
              7.723423611838371,
              46.29475121060386
            ],
            [
              7.723553404677659,
              46.29475448280573
            ],
            [
              7.723728627432138,
              46.294759440235794
            ],
            [
              7.723853342235088,
              46.29478431446478
            ],
            [
              7.723978057038039,
              46.29480918869376
            ],
            [
              7.72410277184099,
              46.294834062922746
            ],
            [
              7.72422748664394,
              46.29485893668607
            ],
            [
              7.724352201912552,
              46.29488381044939
            ],
            [
              7.724476917181164,
              46.294908684212714
            ],
            [
              7.724601632449776,
              46.2949335584417
            ],
            [
              7.724687373265624,
              46.29495043400675
            ],
            [
              7.724810809828341,
              46.29497890872881
            ],
            [
              7.724934241734445,
              46.29500648379326
            ],
            [
              7.725057678762823,
              46.295034958049655
            ],
            [
              7.725207099225372,
              46.29506876459345
            ],
            [
              7.7253330941312015,
              46.295090035535395
            ],
            [
              7.725459093693644,
              46.295112206600606
            ],
            [
              7.725585088599473,
              46.29513347754255
            ],
            [
              7.72569030104205,
              46.29515120247379
            ],
            [
              7.725817371159792,
              46.295130190905184
            ],
            [
              7.725943143945187,
              46.29510918259621
            ]
          ],
          [
            [
              7.726234880276024,
              46.29505986627191
            ],
            [
              7.726360633503646,
              46.29503525933251
            ],
            [
              7.726485084276646,
              46.29500975552946
            ],
            [
              7.726597868837416,
              46.2949869800359
            ],
            [
              7.726707140915096,
              46.29503617901355
            ],
            [
              7.726816412992775,
              46.29508537752554
            ],
            [
              7.726924387272447,
              46.295134579297155
            ],
            [
              7.727053173352033,
              46.29519272362813
            ],
            [
              7.72717789048329,
              46.29521759459749
            ],
            [
              7.727302608080208,
              46.29524246510118
            ],
            [
              7.7274273303337395,
              46.29526823479682
            ],
            [
              7.727552047464997,
              46.295293105300516
            ],
            [
              7.727676765061915,
              46.29531797533855
            ],
            [
              7.727806678507477,
              46.29534373153001
            ]
          ]
        ]
      }
    }
  ]
}