{
  "type": "FeatureCollection",
  "features": [
    {
      "type": "Feature",
      "properties": {
        "id": "429ae37f9a934d66853c7d760e9ac818",
        "name": "Segment 001",
        "order": 1,
        "structure_type": "canalized",
        "structure_types": [
          "canalized"
        ],
        "display_mode": "single",
        "bicolor_colors": [],
        "water_status": "unknown",
        "continuous": false
      },
      "geometry": {
        "type": "MultiLineString",
        "coordinates": [
          [
            [
              7.223625567372409,
              46.04621281647553
            ],
            [
              7.2236067919093045,
              46.0462239864472
            ],
            [
              7.2234619526225,
              46.04621840146165
            ],
            [
              7.223317113335696,
              46.04628728291068
            ],
            [
              7.223255422528354,
              46.04631334613927
            ],
            [
              7.223180142696947,
              46.046398841775954
            ],
            [
              7.2231165282428265,
              46.04647787986323
            ],
            [
              7.223106079945865,
              46.046540113746524
            ],
            [
              7.223047071347537,
              46.0466045908955
            ],
            [
              7.2229860365359855,
              46.04665406462893
            ],
            [
              7.222905570265539,
              46.04676576335179
            ],
            [
              7.222843879458196,
              46.04683092083582
            ],
            [
              7.222798281904943,
              46.04691097135384
            ],
            [
              7.222771459814794,
              46.04695006575071
            ],
            [
              7.22275804876972,
              46.0470189462874
            ],
            [
              7.222693675753362,
              46.04707665694121
            ],
            [
              7.222650760409124,
              46.047115751220815
            ],
            [
              7.222618573900945,
              46.04713809079675
            ],
            [
              7.222849813533628,
              46.04766365396691
            ],
            [
              7.222900775504911,
              46.04775114971983
            ],
            [
              7.222980286926031,
              46.04793039197102
            ],
            [
              7.223056343627775,
              46.04810944215593
            ],
            [
              7.223170086179465,
              46.04827698574115
            ],
            [
              7.223191543851584,
              46.04833448272003
            ],
            [
              7.223175450597495,
              46.04840708470689
            ],
            [
              7.22316203955242,
              46.04849271769695
            ],
            [
              7.223141862511966,
              46.0485746273893
            ],
            [
              7.223237123645276,
              46.04896994161343
            ]
          ],
          [
            [
              7.223410504665537,
              46.04931348013305
            ],
            [
              7.223420404363424,
              46.04933993378654
            ],
            [
              7.223519642837346,
              46.04940039431676
            ],
            [
              7.223533886280222,
              46.04941214259962
            ]
          ],
          [
            [
              7.22430914829161,
              46.05072209650484
            ],
            [
              7.224311830500625,
              46.05078538781406
            ]
          ],
          [
            [
              7.224332509292594,
              46.05158532250926
            ],
            [
              7.224331383762518,
              46.05169484653735
            ],
            [
              7.224331383762518,
              46.051791643276054
            ],
            [
              7.22427237516419,
              46.05191077749081
            ],
            [
              7.224210684356848,
              46.05203177291463
            ],
            [
              7.224130218086401,
              46.05221108199017
            ],
            [
              7.224078475726998,
              46.052346968401274
            ],
            [
              7.2240865223540425,
              46.05245175515514
            ],
            [
              7.224056744712385,
              46.05254890744273
            ],
            [
              7.224075148071023,
              46.05293095557213
            ]
          ],
          [
            [
              7.223780412226915,
              46.05337060941383
            ],
            [
              7.223748567950935,
              46.05345739015689
            ],
            [
              7.223743203532905,
              46.05354115390201
            ],
            [
              7.223743203532905,
              46.05360258056768
            ],
            [
              7.2237566145779795,
              46.053686846001646
            ],
            [
              7.223783436668128,
              46.05376502517622
            ],
            [
              7.223794165504188,
              46.05380783753446
            ],
            [
              7.223791483295173,
              46.05384828654715
            ],
            [
              7.223791483295173,
              46.05389718495776
            ],
            [
              7.223796847713203,
              46.053961832122894
            ],
            [
              7.223812940967292,
              46.05408626330031
            ],
            [
              7.223829034221382,
              46.05421656092074
            ],
            [
              7.223863902938575,
              46.05434980214221
            ],
            [
              7.223934120199402,
              46.05457525519975
            ],
            [
              7.2239528956625065,
              46.05465157173899
            ],
            [
              7.223971671125611,
              46.05470741304234
            ],
            [
              7.224017268678864,
              46.05481164999085
            ],
            [
              7.224126729429116,
              46.054945262922935
            ]
          ],
          [
            [
              7.224629686679691,
              46.05555994389579
            ],
            [
              7.224679722916335,
              46.05564999440685
            ],
            [
              7.224899879191071,
              46.05585011513904
            ],
            [
              7.224950032774359,
              46.055910480674356
            ],
            [
              7.2250101724639535,
              46.05605992069468
            ],
            [
              7.225036690477282,
              46.05621649324894
            ],
            [
              7.22502771530975,
              46.056310011148504
            ],
            [
              7.2249901643835415,
              46.05638260265176
            ],
            [
              7.224944566830288,
              46.05642355166279
            ],
            [
              7.224885558231961,
              46.05644402615691
            ],
            [
              7.224802409752499,
              46.05646077801009
            ],
            [
              7.22469971049577,
              46.05648031877354
            ],
            [
              7.224549670238048,
              46.05652051186189
            ],
            [
              7.2245095376856625,
              46.05654022563249
            ],
            [
              7.224449903704226,
              46.05659048631787
            ],
            [
              7.224360567714939,
              46.05679413866018
            ],
            [
              7.224277419235477,
              46.056872313435896
            ],
            [
              7.224200482480228,
              46.05693004047498
            ],
            [
              7.224156651634985,
              46.056961655901226
            ]
          ],
          [
            [
              7.2176299365237355,
              46.05921023897827
            ],
            [
              7.217520104255527,
              46.05921002198011
            ]
          ],
          [
            [
              7.2172024862026944,
              46.059430741517616
            ],
            [
              7.217172981903531,
              46.05946052097562
            ],
            [
              7.216859882231802,
              46.059510068036616
            ],
            [
              7.216790021862835,
              46.05953061953187
            ],
            [
              7.2167498036287725,
              46.05957012064755
            ],
            [
              7.216730215586722,
              46.05962045677006
            ],
            [
              7.216719635762274,
              46.05967980623245
            ],
            [
              7.2167297271080315,
              46.05974009633064
            ],
            [
              7.2167897638864815,
              46.05991023033857
            ]
          ],
          [
            [
              7.214196514017942,
              46.06219577202945
            ],
            [
              7.214150916464689,
              46.062192049782475
            ],
            [
              7.2140919078663615,
              46.06218274416396
            ],
            [
              7.214059721358183,
              46.06216785517108
            ],
            [
              7.214011441595915,
              46.06216041067313
            ],
            [
              7.213603745825651,
              46.06210457690652
            ]
          ]
        ]
      }
    },
    {
      "type": "Feature",
      "properties": {
        "id": "33adba851f644aaeb4ec17fed94d2017",
        "name": "Segment 002",
        "order": 2,
        "structure_type": "open",
        "structure_types": [
          "open"
        ],
        "display_mode": "single",
        "bicolor_colors": [],
        "water_status": "unknown",
        "continuous": false
      },
      "geometry": {
        "type": "MultiLineString",
        "coordinates": [
          [
            [
              7.223237123645276,
              46.04896994161343
            ],
            [
              7.223320505116135,
              46.049120251554996
            ],
            [
              7.223349784035236,
              46.04923005308956
            ],
            [
              7.22339996881783,
              46.049280524253845
            ],
            [
              7.223410504665537,
              46.04931348013305
            ]
          ],
          [
            [
              7.223533886280222,
              46.04941214259962
            ],
            [
              7.223659947980195,
              46.049530198797584
            ],
            [
              7.223661247175187,
              46.049528401810676
            ],
            [
              7.223661247175187,
              46.049528401810676
            ],
            [
              7.223737995714089,
              46.04958394015514
            ],
            [
              7.223772864431282,
              46.049615586470914
            ],
            [
              7.223786275476357,
              46.04964350967567
            ],
            [
              7.223974030107399,
              46.04977195623569
            ],
            [
              7.224035512496755,
              46.049893603056695
            ],
            [
              7.224091838886068,
              46.04999971062555
            ],
            [
              7.224183033992574,
              46.050100233397494
            ],
            [
              7.224269554018974,
              46.05023031262681
            ],
            [
              7.224306535975558,
              46.05031640526374
            ],
            [
              7.224325311438662,
              46.05046905000721
            ],
            [
              7.224338722483736,
              46.050610234026315
            ],
            [
              7.224306535975558,
              46.05070517115521
            ],
            [
              7.22430914829161,
              46.05072209650484
            ]
          ],
          [
            [
              7.224311830500625,
              46.05078538781406
            ],
            [
              7.224330675856692,
              46.05095275152758
            ],
            [
              7.224293124930483,
              46.05113518337971
            ],
            [
              7.224287760512453,
              46.05132505566965
            ],
            [
              7.224341404692751,
              46.05158938659425
            ]
          ],
          [
            [
              7.224075148071023,
              46.05293095557213
            ],
            [
              7.224059695377946,
              46.05299063399434
            ],
            [
              7.223859739955515,
              46.05324032623321
            ],
            [
              7.223829668480903,
              46.05333022400737
            ],
            [
              7.223780412226915,
              46.05337060941383
            ]
          ],
          [
            [
              7.224126729429116,
              46.054945262922935
            ],
            [
              7.224301073015084,
              46.05510720168587
            ],
            [
              7.224488827646127,
              46.055253616158836
            ],
            [
              7.22452906078135,
              46.05532317718164
            ],
            [
              7.2245799661614,
              46.05538983363658
            ],
            [
              7.224629686679691,
              46.05555994389579
            ]
          ],
          [
            [
              7.224156651634985,
              46.056961655901226
            ],
            [
              7.224103007454687,
              46.05696351720105
            ],
            [
              7.224019547458738,
              46.056940488517284
            ],
            [
              7.223960150498897,
              46.056930479593575
            ],
            [
              7.2236502058804035,
              46.056890305597335
            ],
            [
              7.223570174537599,
              46.05687036179006
            ],
            [
              7.2233449353928165,
              46.05675181482281
            ],
            [
              7.223272515749414,
              46.05673878567278
            ],
            [
              7.223224235987146,
              46.056777873113646
            ],
            [
              7.223210824942072,
              46.056846741394544
            ],
            [
              7.223192049478968,
              46.057034732751106
            ],
            [
              7.223154498552759,
              46.057105462006696
            ],
            [
              7.223023070311029,
              46.0573092926433
            ],
            [
              7.223028434729059,
              46.05754381445055
            ],
            [
              7.223004294847925,
              46.057669775818184
            ],
            [
              7.222969735506922,
              46.05774986976758
            ],
            [
              7.222930733114481,
              46.057810064870864
            ],
            [
              7.222869764547795,
              46.05787021713331
            ],
            [
              7.222799829673022,
              46.05791056249291
            ],
            [
              7.222568533096904,
              46.0580112514458
            ],
            [
              7.222466609154338,
              46.058072673139336
            ],
            [
              7.222246668015117,
              46.05827368911323
            ],
            [
              7.222122724144327,
              46.058368613068744
            ],
            [
              7.221999342529642,
              46.058454230614146
            ],
            [
              7.221933739579271,
              46.05848028810161
            ],
            [
              7.221820592880249,
              46.058510473463684
            ],
            [
              7.221767442620347,
              46.05851379056743
            ],
            [
              7.221729891694139,
              46.05856032173624
            ],
            [
              7.221684294140886,
              46.05866455141206
            ],
            [
              7.221610151231289,
              46.05878982692957
            ],
            [
              7.2215400957502425,
              46.058859856333584
            ],
            [
              7.221459703054279,
              46.05892986571416
            ],
            [
              7.221340502612293,
              46.059010594617575
            ],
            [
              7.221260231919587,
              46.059050019364804
            ],
            [
              7.221169699449092,
              46.059070533607155
            ],
            [
              7.220990052446723,
              46.059080080129206
            ],
            [
              7.220920237712562,
              46.059089839458466
            ],
            [
              7.22085029957816,
              46.059130183421075
            ],
            [
              7.220769905950874,
              46.05920019233599
            ],
            [
              7.220659871585667,
              46.05925035336986
            ],
            [
              7.220579679589719,
              46.05926998751238
            ],
            [
              7.220420662779361,
              46.05929036810994
            ],
            [
              7.220199666451663,
              46.059299832675606
            ],
            [
              7.2201699037104845,
              46.05931056942791
            ],
            [
              7.22008046368137,
              46.059380560182035
            ],
            [
              7.220010568387806,
              46.05941010918468
            ],
            [
              7.2194401221349835,
              46.05956012010574
            ],
            [
              7.219270727131516,
              46.05959037365392
            ],
            [
              7.219129802659154,
              46.059609888121486
            ],
            [
              7.219019966199994,
              46.05961057264358
            ],
            [
              7.218830139841884,
              46.059580515138805
            ],
            [
              7.218480411916971,
              46.05947008356452
            ],
            [
              7.218482978176326,
              46.05947458650917
            ],
            [
              7.218482978176326,
              46.05947458650917
            ],
            [
              7.218480411916971,
              46.05947008356452
            ],
            [
              7.218360402621329,
              46.05943026766181
            ],
            [
              7.218160400632769,
              46.05936060892418
            ],
            [
              7.217870358843356,
              46.05919002275914
            ],
            [
              7.217809748835862,
              46.059160218108445
            ],
            [
              7.217760607134551,
              46.05917001655325
            ],
            [
              7.217690747696906,
              46.05919056851417
            ],
            [
              7.2176299365237355,
              46.05921023897827
            ]
          ],
          [
            [
              7.217520104255527,
              46.05921002198011
            ],
            [
              7.217500681988895,
              46.05921987909824
            ],
            [
              7.217438520596005,
              46.05932465206792
            ],
            [
              7.217390240833737,
              46.05933023572825
            ],
            [
              7.2172507659649625,
              46.05935815402142
            ],
            [
              7.2172024862026944,
              46.059430741517616
            ]
          ],
          [
            [
              7.2167897638864815,
              46.05991023033857
            ],
            [
              7.216910533141345,
              46.060080484487116
            ],
            [
              7.216970450244844,
              46.06028030347079
            ],
            [
              7.217020070645958,
              46.060470207128674
            ],
            [
              7.217050756327808,
              46.060550327878445
            ],
            [
              7.217048194259405,
              46.06054492574185
            ],
            [
              7.217048194259405,
              46.06054492574185
            ],
            [
              7.217050756327808,
              46.060550327878445
            ],
            [
              7.217069880490925,
              46.06063204522574
            ],
            [
              7.217040376191761,
              46.06070835339445
            ],
            [
              7.2170081896835825,
              46.06073440981816
            ],
            [
              7.216927723413136,
              46.06072510395396
            ],
            [
              7.216796295171406,
              46.06070835339445
            ],
            [
              7.21668900681081,
              46.06071393691486
            ],
            [
              7.216638044839527,
              46.06071765926148
            ],
            [
              7.216592447286274,
              46.0607381321634
            ],
            [
              7.21656294298711,
              46.06082188486494
            ],
            [
              7.2165575785690805,
              46.06092052677272
            ],
            [
              7.216587082868244,
              46.06104522478128
            ],
            [
              7.216576354032185,
              46.061184888328604
            ],
            [
              7.216520027642872,
              46.061250028802576
            ],
            [
              7.216471747880604,
              46.06129283535791
            ],
            [
              7.216402010446217,
              46.06132750260709
            ],
            [
              7.21631081533971,
              46.06137403140474
            ],
            [
              7.216198162561085,
              46.061414976714225
            ],
            [
              7.216077463155415,
              46.0614521996965
            ],
            [
              7.21595408154073,
              46.061446616250755
            ],
            [
              7.215878979688313,
              46.061441032804446
            ],
            [
              7.215731458192494,
              46.061414976714225
            ],
            [
              7.21559204973056,
              46.06139450406327
            ],
            [
              7.21547429432411,
              46.06137847769407
            ],
            [
              7.215281175275038,
              46.061376616543065
            ],
            [
              7.215136335988234,
              46.061398950350956
            ],
            [
              7.215047823090742,
              46.061421284149816
            ],
            [
              7.214900301594923,
              46.06149014663942
            ],
            [
              7.214835753996994,
              46.06161682564385
            ],
            [
              7.21479552086177,
              46.06169685473214
            ],
            [
              7.214825025160934,
              46.061750827772684
            ],
            [
              7.214857236904066,
              46.06184204098993
            ],
            [
              7.214865283531111,
              46.06195184786608
            ],
            [
              7.2148813767852005,
              46.06207096016275
            ],
            [
              7.214919733814895,
              46.06216978142038
            ],
            [
              7.214882791020557,
              46.06220692234815
            ],
            [
              7.214823782422229,
              46.0622218113305
            ],
            [
              7.214750201441348,
              46.062230612151325
            ],
            [
              7.214659746736288,
              46.062230431474745
            ],
            [
              7.214429895859212,
              46.062190391123295
            ],
            [
              7.214309760835022,
              46.06218025600538
            ],
            [
              7.21422964381054,
              46.06218009535223
            ],
            [
              7.214196514017942,
              46.06219577202945
            ]
          ]
        ]
      }
    },
    {
      "type": "Feature",
      "properties": {
        "id": "31a0d7493f9a4c40a5ae6efbc9eed3da",
        "name": "Segment 003",
        "order": 3,
        "structure_type": "abandoned",
        "structure_types": [
          "abandoned"
        ],
        "display_mode": "single",
        "bicolor_colors": [],
        "water_status": "unknown",
        "continuous": true
      },
      "geometry": {
        "type": "LineString",
        "coordinates": [
          [
            7.224332509292594,
            46.05158532250926
          ],
          [
            7.224403510861919,
            46.05175658521957
          ],
          [
            7.2243820531897995,
            46.051827321235464
          ],
          [
            7.224339137845561,
            46.05193156362009
          ],
          [
            7.224288175874278,
            46.05200788381264
          ],
          [
            7.224237213902995,
            46.05210095707546
          ],
          [
            7.224202345185802,
            46.05217913849501
          ],
          [
            7.224172840886638,
            46.052298271873916
          ],
          [
            7.224175523095653,
            46.052376888952246
          ],
          [
            7.224172840886638,
            46.05244390126955
          ],
          [
            7.2241326077514145,
            46.05250905205565
          ],
          [
            7.2241084678702805,
            46.05258164855533
          ],
          [
            7.22411383228831,
            46.05265796784955
          ],
          [
            7.22411383228831,
            46.05273987136504
          ],
          [
            7.22411383228831,
            46.052814329000995
          ],
          [
            7.224103103452251,
            46.05289062320316
          ],
          [
            7.224075148071023,
            46.05293095557213
          ]
        ]
      }
    }
  ]
}