{
  "type": "FeatureCollection",
  "features": [
    {
      "type": "Feature",
      "properties": {
        "id": "seg-001",
        "name": "Prise d'eau - forêt",
        "order": 1,
        "structure_type": "open",
        "water_status": "in_water",
        "continuous": true
      },
      "geometry": {
        "type": "LineString",
        "coordinates": [
          [7.410, 46.210],
          [7.415, 46.213],
          [7.421, 46.216]
        ]
      }
    },
    {
      "type": "Feature",
      "properties": {
        "id": "seg-002",
        "name": "Traversée canalisée",
        "order": 2,
        "structure_type": "canalized",
        "water_status": "unknown",
        "continuous": true
      },
      "geometry": {
        "type": "LineString",
        "coordinates": [
          [7.421, 46.216],
          [7.426, 46.218],
          [7.431, 46.219]
        ]
      }
    },
    {
      "type": "Feature",
      "properties": {
        "id": "seg-003",
        "name": "Ancien tronçon visible",
        "order": 3,
        "structure_type": "abandoned",
        "water_status": "dry",
        "continuous": false
      },
      "geometry": {
        "type": "LineString",
        "coordinates": [
          [7.433, 46.218],
          [7.438, 46.217],
          [7.442, 46.216]
        ]
      }
    }
  ]
}
