{
  "type": "FeatureCollection",
  "features": [
    {
      "type": "Feature",
      "properties": {
        "id": "71f6a2ddc1314bf6bbd0be5ecce17f67",
        "name": "Segment 001",
        "order": 1,
        "structure_type": "abandoned",
        "structure_types": [
          "abandoned"
        ],
        "display_mode": "single",
        "bicolor_colors": [],
        "water_status": "unknown",
        "continuous": true
      },
      "geometry": {
        "type": "LineString",
        "coordinates": [
          [
            8.13703617798397,
            46.4356075718839
          ],
          [
            8.13709274894908,
            46.4355577180076
          ],
          [
            8.13714978679994,
            46.4354651077842
          ],
          [
            8.13722307270546,
            46.4353153645102
          ],
          [
            8.13724987505286,
            46.4351357132211
          ],
          [
            8.13730641559496,
            46.4350045247872
          ],
          [
            8.13742184966846,
            46.4349249746255
          ],
          [
            8.13752532611488,
            46.4348589174888
          ],
          [
            8.13762821594477,
            46.4347944397777
          ],
          [
            8.13770925518122,
            46.4347219730153
          ],
          [
            8.13774356083273,
            46.4346578903287
          ],
          [
            8.13775042860746,
            46.4345849805916
          ],
          [
            8.1376958732527,
            46.4345616974579
          ],
          [
            8.13763466628088,
            46.4345575762812
          ],
          [
            8.13756813931088,
            46.4345444918377
          ],
          [
            8.13750804809322,
            46.4345259701544
          ],
          [
            8.1374374409634,
            46.434488304282
          ],
          [
            8.13739519723208,
            46.4344519980514
          ],
          [
            8.13734038768156,
            46.434408081817
          ],
          [
            8.1373019896358,
            46.4343878005499
          ],
          [
            8.13726051548962,
            46.4343652770037
          ],
          [
            8.1372184736343,
            46.4343424443226
          ],
          [
            8.13708589434932,
            46.4342784794565
          ],
          [
            8.13699479288653,
            46.4342419017536
          ],
          [
            8.13688132091965,
            46.4342328030116
          ],
          [
            8.13682865357684,
            46.4342289816077
          ],
          [
            8.13680863145581,
            46.4342132928471
          ],
          [
            8.13679623193709,
            46.4341975572136
          ],
          [
            8.13679293885797,
            46.4341786032107
          ],
          [
            8.13678324944263,
            46.4341364977855
          ],
          [
            8.13677387186572,
            46.4341186353187
          ],
          [
            8.13677364138754,
            46.4341007166098
          ],
          [
            8.13677799801188,
            46.4340838238216
          ],
          [
            8.13677162880224,
            46.4340627804821
          ],
          [
            8.13677742859246,
            46.4340395540701
          ],
          [
            8.13677412197199,
            46.434019546025
          ],
          [
            8.1367677527714,
            46.4339985026853
          ],
          [
            8.13676810382448,
            46.4339763808051
          ],
          [
            8.13676904618422,
            46.4339484874706
          ],
          [
            8.13675964973521,
            46.4339260552929
          ],
          [
            8.13675941833866,
            46.4339080647541
          ],
          [
            8.13675116095261,
            46.4338730311991
          ],
          [
            8.13674307712028,
            46.4338514905477
          ],
          [
            8.13674282259048,
            46.433831700955
          ],
          [
            8.13673339146446,
            46.4338065701942
          ],
          [
            8.13672784028365,
            46.433779616382
          ],
          [
            8.13671974490539,
            46.433757176202
          ],
          [
            8.13671824720612,
            46.4337418922427
          ],
          [
            8.13671283486758,
            46.433725732753
          ],
          [
            8.13670604052672,
            46.4337032845731
          ],
          [
            8.13670291290013,
            46.4336796128593
          ],
          [
            8.13670267022755,
            46.4336607440149
          ],
          [
            8.13669802908254,
            46.4336349499832
          ],
          [
            8.1366949264736,
            46.4336170918972
          ],
          [
            8.13669183663873,
            46.4336002269082
          ],
          [
            8.13668737431115,
            46.433588336235
          ],
          [
            8.13666121341613,
            46.4335646608519
          ],
          [
            8.13664953101698,
            46.4335498350368
          ],
          [
            8.13664506870284,
            46.4335379443619
          ],
          [
            8.13664485159331,
            46.4335210617116
          ],
          [
            8.1366403765115,
            46.4335081779394
          ],
          [
            8.1366387358227,
            46.4334922972161
          ],
          [
            8.13663969989888,
            46.4334495784097
          ],
          [
            8.13664064231551,
            46.433421685076
          ],
          [
            8.13664680036188,
            46.4333946592771
          ],
          [
            8.13664645332665,
            46.4333676734684
          ],
          [
            8.13664356210179,
            46.4333452012904
          ],
          [
            8.13664071715024,
            46.4333263272202
          ],
          [
            8.1366353048763,
            46.4333101677267
          ],
          [
            8.13663388041486,
            46.4332776030589
          ],
          [
            8.13662720183775,
            46.4332641501438
          ],
          [
            8.13661133520734,
            46.4332444565234
          ],
          [
            8.13659536448585,
            46.433216667158
          ],
          [
            8.13657287716011,
            46.4331880182496
          ],
          [
            8.13655825375039,
            46.4331638189897
          ],
          [
            8.13654357252333,
            46.433135122093
          ],
          [
            8.13653524599885,
            46.4330946913601
          ],
          [
            8.13652750309106,
            46.4330608469431
          ],
          [
            8.13652723707784,
            46.4330401578226
          ],
          [
            8.1365229986503,
            46.4330140955302
          ],
          [
            8.13650981510166,
            46.433000682591
          ],
          [
            8.13650951439905,
            46.4329772948896
          ],
          [
            8.13649477542214,
            46.4329441003515
          ],
          [
            8.13648000176836,
            46.4329082072306
          ],
          [
            8.13646125573651,
            46.4328669409337
          ],
          [
            8.13644640117513,
            46.4328247511195
          ],
          [
            8.1364316044576,
            46.4327870589382
          ],
          [
            8.136416992783,
            46.4327637591869
          ],
          [
            8.13638636440151,
            46.4327090719306
          ],
          [
            8.13637697988887,
            46.4326875392478
          ],
          [
            8.13636493557201,
            46.4326615249187
          ],
          [
            8.13634889577209,
            46.4326283383564
          ],
          [
            8.13633120234076,
            46.4325677242126
          ],
          [
            8.13632101128625,
            46.4325340519076
          ],
          [
            8.13630109169176,
            46.4325026883754
          ],
          [
            8.13628767708846,
            46.4324712848701
          ],
          [
            8.13623854300077,
            46.4324445988215
          ],
          [
            8.13619251694109,
            46.4324066486818
          ],
          [
            8.13616260884074,
            46.4323573545306
          ],
          [
            8.13611640952601,
            46.4323059114545
          ],
          [
            8.13609971370973,
            46.4322722790892
          ],
          [
            8.13607938980289,
            46.4322094320716
          ],
          [
            8.13608012823878,
            46.4321580950514
          ],
          [
            8.13611031570031,
            46.432095266919
          ],
          [
            8.13615001799217,
            46.4320307318337
          ],
          [
            8.13619695697684,
            46.4319727462419
          ],
          [
            8.13622011925964,
            46.4319198521914
          ],
          [
            8.1362479859686,
            46.4318619837549
          ],
          [
            8.1362641232353,
            46.4318190238099
          ],
          [
            8.13627796121096,
            46.4317826719586
          ],
          [
            8.13631523669334,
            46.4317148547398
          ],
          [
            8.13633833518725,
            46.4316570155792
          ],
          [
            8.13635194000211,
            46.4316025317383
          ],
          [
            8.13634404642051,
            46.4315448830229
          ],
          [
            8.13633388733629,
            46.4315129553647
          ],
          [
            8.13632694312179,
            46.4314788133099
          ],
          [
            8.13635330674741,
            46.4314382483297
          ],
          [
            8.13638211337079,
            46.4314071063844
          ],
          [
            8.13644958252391,
            46.4313541860029
          ],
          [
            8.13647022040968,
            46.4312934756204
          ],
          [
            8.13649652607819,
            46.4312192673882
          ],
          [
            8.13649588569995,
            46.4311694581916
          ],
          [
            8.13653169582992,
            46.4310416682835
          ],
          [
            8.13661797872037,
            46.4308885880508
          ],
          [
            8.1367579136958,
            46.4307900958065
          ],
          [
            8.13684482341328,
            46.430685827489
          ],
          [
            8.13691377011314,
            46.4305572616058
          ],
          [
            8.13690361143091,
            46.4304535901906
          ],
          [
            8.13691358032406,
            46.4303689623445
          ],
          [
            8.13689572550139,
            46.4302679555263
          ],
          [
            8.13697891857667,
            46.430193037274
          ],
          [
            8.13693471805819,
            46.4300816992717
          ],
          [
            8.13685379964339,
            46.4300115019865
          ],
          [
            8.13683115036951,
            46.429965876319
          ]
        ]
      }
    },
    {
      "type": "Feature",
      "properties": {
        "id": "17c0ec1779e049d8918aab55148e3c06",
        "name": "Segment 002",
        "order": 2,
        "structure_type": "canalized",
        "structure_types": [
          "canalized"
        ],
        "display_mode": "single",
        "bicolor_colors": [],
        "water_status": "unknown",
        "continuous": true
      },
      "geometry": {
        "type": "LineString",
        "coordinates": [
          [
            8.13745930422068,
            46.433504417883
          ],
          [
            8.13741644910782,
            46.4334334562175
          ],
          [
            8.1373720095146,
            46.4333832648104
          ],
          [
            8.13734197177062,
            46.4333178452945
          ],
          [
            8.13728161202782,
            46.4331962637486
          ],
          [
            8.13722945230932,
            46.4331133176094
          ],
          [
            8.13721420628235,
            46.4330629465191
          ],
          [
            8.13718241602499,
            46.4329537104472
          ],
          [
            8.13711171884205,
            46.4328481691009
          ],
          [
            8.13694471659343,
            46.4326321972893
          ],
          [
            8.13682925090396,
            46.432466099813
          ],
          [
            8.13679491617684,
            46.4323502416896
          ],
          [
            8.1367932611065,
            46.4322215663921
          ],
          [
            8.13679519021558,
            46.432087822566
          ],
          [
            8.13679454117032,
            46.4320373616647
          ],
          [
            8.13680969119733,
            46.4319859871435
          ],
          [
            8.13683038734178,
            46.4319305976569
          ],
          [
            8.1368270850614,
            46.4318957842985
          ],
          [
            8.1368433093895,
            46.4318256199269
          ],
          [
            8.13687260625387,
            46.4317731380178
          ],
          [
            8.1368950086337,
            46.431739448184
          ],
          [
            8.13694595595736,
            46.4316891102892
          ],
          [
            8.13698012516558,
            46.4316334222
          ],
          [
            8.13701734813669,
            46.4315439461408
          ],
          [
            8.1370230213377,
            46.4314426037184
          ],
          [
            8.13698686632185,
            46.4313439306633
          ],
          [
            8.13699991949012,
            46.4312738999405
          ],
          [
            8.13706467584238,
            46.4311553094971
          ],
          [
            8.13711943271037,
            46.4310729617917
          ],
          [
            8.1371456626903,
            46.4309425478857
          ],
          [
            8.13718294699199,
            46.4308578955572
          ],
          [
            8.13719893853631,
            46.4308077485802
          ],
          [
            8.13724467030163,
            46.4306755468052
          ],
          [
            8.13721515799829,
            46.4306064593617
          ],
          [
            8.13718209021403,
            46.430564381721
          ],
          [
            8.13715557351491,
            46.4305258621579
          ],
          [
            8.13712644338751,
            46.430486459069
          ],
          [
            8.13709571141667,
            46.4304236762839
          ],
          [
            8.13707147265456,
            46.4303599539493
          ],
          [
            8.13706533137944,
            46.4302871243049
          ],
          [
            8.13705139606161,
            46.4302152422029
          ],
          [
            8.13703909349624,
            46.4301691385266
          ],
          [
            8.13700607240782,
            46.4301306589408
          ],
          [
            8.13696654940954,
            46.4300924310076
          ],
          [
            8.13689432680008,
            46.4300406985346
          ],
          [
            8.13685483593544,
            46.4300049574889
          ],
          [
            8.13681800483866,
            46.4299736980627
          ],
          [
            8.13675972257232,
            46.42989309265
          ],
          [
            8.13673556542223,
            46.4298356669297
          ],
          [
            8.13671418370312,
            46.4297917181065
          ],
          [
            8.13671328716887,
            46.4297220047902
          ],
          [
            8.1367184036138,
            46.4296140215961
          ],
          [
            8.13675313784443,
            46.4295328442219
          ],
          [
            8.13685585211294,
            46.4294265098505
          ],
          [
            8.13691232653238,
            46.4293605807608
          ],
          [
            8.13694178377653,
            46.4292797967059
          ],
          [
            8.13689828902191,
            46.4291856064462
          ],
          [
            8.13685383249324,
            46.4291117519101
          ],
          [
            8.13683337006431,
            46.4290381107287
          ],
          [
            8.13683934239222,
            46.4289966925011
          ],
          [
            8.1368895453441,
            46.4289432504004
          ],
          [
            8.13692952635552,
            46.4289160165676
          ],
          [
            8.13701616638499,
            46.4288750017479
          ],
          [
            8.13712214624756,
            46.4288203739116
          ],
          [
            8.13719395511262,
            46.428738968295
          ],
          [
            8.13723075518787,
            46.4286667740329
          ],
          [
            8.13724521990758,
            46.4285776248387
          ],
          [
            8.13726386512095,
            46.4285100402662
          ],
          [
            8.13728104345062,
            46.4284014828811
          ],
          [
            8.13729528804377,
            46.4282952426742
          ],
          [
            8.13730571095416,
            46.4281953231685
          ],
          [
            8.13730067787894,
            46.4280064385875
          ],
          [
            8.13731413086761,
            46.4279397855549
          ],
          [
            8.13735360147557,
            46.4278729724001
          ],
          [
            8.13739819445637,
            46.4277998305186
          ],
          [
            8.13741967255926,
            46.4277502204388
          ],
          [
            8.13745239532881,
            46.4276645572248
          ],
          [
            8.13748739549032,
            46.4275536912405
          ],
          [
            8.13748717931299,
            46.4274358452456
          ],
          [
            8.13748150433648,
            46.4272396843813
          ],
          [
            8.13746918161446,
            46.4271381937828
          ],
          [
            8.13752694909549,
            46.4270616633399
          ],
          [
            8.13765061170862,
            46.4269694921925
          ],
          [
            8.13768248039065,
            46.426877886159
          ],
          [
            8.13768484430889,
            46.4267763051484
          ],
          [
            8.13767232514235,
            46.4266595808107
          ],
          [
            8.13766026374851,
            46.4265784019124
          ],
          [
            8.13765427075824,
            46.4263981583547
          ]
        ]
      }
    },
    {
      "type": "Feature",
      "properties": {
        "id": "19041964b3f2424c91c3cf00075d38a0",
        "name": "Segment 003",
        "order": 3,
        "structure_type": "open",
        "structure_types": [
          "open"
        ],
        "display_mode": "single",
        "bicolor_colors": [],
        "water_status": "unknown",
        "continuous": true
      },
      "geometry": {
        "type": "LineString",
        "coordinates": [
          [
            8.13765962772302,
            46.4263841697304
          ],
          [
            8.1376272027926,
            46.4262908111533
          ],
          [
            8.13762780868036,
            46.4262368315256
          ],
          [
            8.13763477978697,
            46.4261720175273
          ],
          [
            8.1376625527451,
            46.426106175848
          ],
          [
            8.13792479549319,
            46.4257697846778
          ],
          [
            8.13797918874582,
            46.4255657235903
          ],
          [
            8.13812937224569,
            46.4254202185662
          ],
          [
            8.13835515418781,
            46.42524138837
          ],
          [
            8.13840142602268,
            46.4251960177088
          ],
          [
            8.13848852547252,
            46.4249490395771
          ],
          [
            8.13849082006703,
            46.4247584442201
          ],
          [
            8.13838662309824,
            46.4246819774407
          ],
          [
            8.13834716991978,
            46.4246489354787
          ],
          [
            8.13836382531412,
            46.4246290416566
          ],
          [
            8.13847409224562,
            46.424604972393
          ],
          [
            8.13865331328751,
            46.4245813774524
          ],
          [
            8.13871916707327,
            46.4245431882283
          ],
          [
            8.13877953912534,
            46.424483442411
          ],
          [
            8.13882039904214,
            46.4244238169082
          ],
          [
            8.13883376397667,
            46.4243457328291
          ],
          [
            8.13892336697731,
            46.4242564524441
          ],
          [
            8.13899397107008,
            46.4241499764778
          ],
          [
            8.13908335012079,
            46.4240433846237
          ],
          [
            8.13914464979086,
            46.4239434582388
          ],
          [
            8.13920896672834,
            46.4238348568385
          ],
          [
            8.13927644164742,
            46.4236848208324
          ],
          [
            8.13926599285013,
            46.4236026498965
          ],
          [
            8.13927088275979,
            46.4234965793017
          ],
          [
            8.13924473230672,
            46.4234101770906
          ],
          [
            8.13918396566191,
            46.4233088398677
          ],
          [
            8.13913954308551,
            46.4232615040125
          ],
          [
            8.13911389553469,
            46.4232140522911
          ],
          [
            8.13914404229974,
            46.4231251385737
          ],
          [
            8.13918930414788,
            46.422995013859
          ],
          [
            8.13919128840566,
            46.4229062739193
          ],
          [
            8.13921532553556,
            46.4228289396983
          ],
          [
            8.1392361683055,
            46.4227465756423
          ],
          [
            8.13920088221004,
            46.4226797066151
          ],
          [
            8.13911189853251,
            46.4225742153104
          ],
          [
            8.13910195276316,
            46.4225309948787
          ],
          [
            8.13910404882812,
            46.4224509106113
          ],
          [
            8.13911287775639,
            46.4224075743302
          ],
          [
            8.1391406209329,
            46.4223749417843
          ],
          [
            8.13915554049973,
            46.4223185833745
          ],
          [
            8.13914207473408,
            46.4222450874061
          ],
          [
            8.13915660335158,
            46.4221584341466
          ],
          [
            8.13918403921738,
            46.4221019984939
          ],
          [
            8.13918929215711,
            46.4220240588318
          ],
          [
            8.13915696814187,
            46.4219441869727
          ],
          [
            8.13908399409967,
            46.4218667300279
          ],
          [
            8.13899185499392,
            46.4217590940175
          ],
          [
            8.13892826864556,
            46.4216815790567
          ],
          [
            8.13888331731454,
            46.42159312866
          ],
          [
            8.13880084532445,
            46.4215070737666
          ],
          [
            8.13876852218958,
            46.4214272017962
          ],
          [
            8.13869297841469,
            46.4213930422567
          ],
          [
            8.1386076290823,
            46.4213264817808
          ],
          [
            8.1385473681178,
            46.4212640947374
          ],
          [
            8.1385054910032,
            46.4211712970616
          ],
          [
            8.13852608314479,
            46.4210694578721
          ],
          [
            8.13851247906251,
            46.4209851422376
          ],
          [
            8.13845507177564,
            46.4209013371082
          ],
          [
            8.13846591423048,
            46.4207714248649
          ],
          [
            8.1385088836003,
            46.4207062372487
          ],
          [
            8.13850156554841,
            46.420624046947
          ],
          [
            8.13844960466543,
            46.420477209173
          ],
          [
            8.13845737384254,
            46.4203516440558
          ],
          [
            8.13841477240225,
            46.4202025844761
          ],
          [
            8.13838659309537,
            46.4201279581061
          ],
          [
            8.13838984293321,
            46.4200295061512
          ],
          [
            8.138333224164,
            46.4199048500621
          ],
          [
            8.13827590531421,
            46.4197258482183
          ],
          [
            8.13827923913206,
            46.4196796301341
          ],
          [
            8.13821553309261,
            46.4196148027184
          ],
          [
            8.13821399248384,
            46.4194952421197
          ],
          [
            8.13813720410831,
            46.4193299477091
          ],
          [
            8.13811598330872,
            46.4192077908814
          ],
          [
            8.13805971608457,
            46.4191103075182
          ],
          [
            8.1380266033638,
            46.4189800714421
          ],
          [
            8.13806859776375,
            46.4188847001177
          ],
          [
            8.13799640477772,
            46.4187710098423
          ],
          [
            8.13796136738568,
            46.4184913229923
          ],
          [
            8.13791948730153,
            46.4182904858477
          ],
          [
            8.13788420564244,
            46.4179917779666
          ],
          [
            8.13785881199617,
            46.4178506242864
          ],
          [
            8.13784822448631,
            46.4176387243429
          ],
          [
            8.13771030145557,
            46.4173026036039
          ],
          [
            8.13769101713011,
            46.4170255371607
          ],
          [
            8.13751513685521,
            46.4167929150334
          ],
          [
            8.13709699579169,
            46.4166650487111
          ],
          [
            8.13690673893476,
            46.4165533672378
          ],
          [
            8.13662031489514,
            46.4165850214091
          ],
          [
            8.13643256665008,
            46.4166513958024
          ],
          [
            8.13611338423893,
            46.4165799850074
          ],
          [
            8.13605406705537,
            46.4165504569649
          ],
          [
            8.1359084192946,
            46.4165296117547
          ],
          [
            8.1358683279321,
            46.4164673554926
          ],
          [
            8.13603892973655,
            46.4162896698209
          ],
          [
            8.13615161002802,
            46.4161911473834
          ],
          [
            8.13627729846113,
            46.4161876574381
          ],
          [
            8.13640218369851,
            46.4161216697521
          ],
          [
            8.13646326417306,
            46.4159827016643
          ],
          [
            8.13662593498649,
            46.4157996288419
          ],
          [
            8.13685178019233,
            46.4156406247028
          ],
          [
            8.13701546225024,
            46.4155363526406
          ],
          [
            8.13699882299341,
            46.4154646087351
          ],
          [
            8.13686560828809,
            46.4151882430975
          ],
          [
            8.13677199700471,
            46.4149360912429
          ],
          [
            8.13665773528863,
            46.4148375760101
          ],
          [
            8.13661135859103,
            46.4147347865569
          ],
          [
            8.13666554345663,
            46.4146361728605
          ],
          [
            8.13662971748691,
            46.4145453039538
          ],
          [
            8.13648287248828,
            46.4144455293263
          ],
          [
            8.13634725324151,
            46.414415156773
          ],
          [
            8.13626981128158,
            46.4143221464812
          ],
          [
            8.1361133408383,
            46.414282357663
          ],
          [
            8.13595027826146,
            46.4142689770615
          ],
          [
            8.13582852459514,
            46.4142337687307
          ],
          [
            8.13573066018714,
            46.414169648537
          ],
          [
            8.13560565677804,
            46.4141512395201
          ],
          [
            8.13557372909549,
            46.414093905539
          ],
          [
            8.13555909807209,
            46.4140340682615
          ],
          [
            8.13567998954754,
            46.4140021638028
          ],
          [
            8.13572825993529,
            46.4139826906754
          ],
          [
            8.13578861146338,
            46.4139583854707
          ],
          [
            8.13578808828863,
            46.4139176382447
          ],
          [
            8.13583957780686,
            46.413878968619
          ],
          [
            8.13584496985639,
            46.4137590812626
          ],
          [
            8.1359055012146,
            46.4136148843363
          ],
          [
            8.13605276048401,
            46.4134773457557
          ],
          [
            8.13604521389164,
            46.4134294504309
          ],
          [
            8.13595053907062,
            46.4133437370726
          ],
          [
            8.13587570294508,
            46.4131835921422
          ],
          [
            8.13580344018896,
            46.4129539159017
          ],
          [
            8.1356234125976,
            46.4126985335094
          ],
          [
            8.13554658960133,
            46.4126534606364
          ],
          [
            8.13538638231479,
            46.4125921200305
          ],
          [
            8.13537880567798,
            46.412541827765
          ],
          [
            8.13527382960278,
            46.4124633683469
          ],
          [
            8.1352063271401,
            46.412334340079
          ],
          [
            8.13521883563863,
            46.4122287915895
          ],
          [
            8.13520417476161,
            46.412166557369
          ],
          [
            8.13517586775449,
            46.412121186486
          ],
          [
            8.1351714492578,
            46.4120469039808
          ],
          [
            8.13516746122333,
            46.4120061780176
          ],
          [
            8.13510017478657,
            46.411893927957
          ],
          [
            8.13502678918485,
            46.411756157059
          ],
          [
            8.13493472360742,
            46.4116033085027
          ],
          [
            8.13485305446791,
            46.4114503961007
          ],
          [
            8.13472934132933,
            46.411261785246
          ],
          [
            8.13461939801534,
            46.411065898569
          ],
          [
            8.13448452007204,
            46.4108786635883
          ],
          [
            8.13433284178515,
            46.4106710470932
          ],
          [
            8.13420220174403,
            46.4104824781435
          ],
          [
            8.13406165805911,
            46.4103323230812
          ],
          [
            8.13381758798275,
            46.4102163612002
          ],
          [
            8.13367465461266,
            46.4101501182532
          ],
          [
            8.13329949055274,
            46.4100805026079
          ],
          [
            8.13309755755314,
            46.4100074287901
          ],
          [
            8.13295891831143,
            46.4100058799422
          ],
          [
            8.13282607575866,
            46.409915603362
          ],
          [
            8.1328251565059,
            46.4098436964651
          ],
          [
            8.13289651613442,
            46.4097329941055
          ],
          [
            8.13296836583834,
            46.4096606420453
          ],
          [
            8.13291086951288,
            46.4095003891532
          ],
          [
            8.13291117822648,
            46.4092534876106
          ],
          [
            8.13290210275781,
            46.4090857472464
          ],
          [
            8.13275296028183,
            46.408933055357
          ],
          [
            8.13263373620026,
            46.4088235186055
          ],
          [
            8.13252150412035,
            46.4087187331507
          ],
          [
            8.13231267760174,
            46.4086480972018
          ],
          [
            8.13218640234225,
            46.4085290147511
          ],
          [
            8.13212213235496,
            46.4083807882918
          ],
          [
            8.13200965734133,
            46.4082568271554
          ],
          [
            8.13187737143282,
            46.4082096936048
          ],
          [
            8.13177560469199,
            46.4081357790255
          ],
          [
            8.13178027088426,
            46.4079583663296
          ],
          [
            8.13165491606595,
            46.4079111901929
          ],
          [
            8.13139752155259,
            46.4078360549825
          ],
          [
            8.13123935084131,
            46.4079329037151
          ],
          [
            8.1310216007063,
            46.4079773798842
          ],
          [
            8.13083418053764,
            46.4079545523116
          ],
          [
            8.13077153406709,
            46.4079333606346
          ],
          [
            8.13079438430794,
            46.4078229554371
          ],
          [
            8.13074787197684,
            46.4077081790919
          ],
          [
            8.13076011314136,
            46.4075810590148
          ],
          [
            8.13078597005653,
            46.4074346792289
          ],
          [
            8.13089790122321,
            46.4073512535535
          ],
          [
            8.13088919895506,
            46.4072122757908
          ],
          [
            8.1307480924978,
            46.4070165755697
          ],
          [
            8.13048864153972,
            46.4067821653935
          ],
          [
            8.13038869016292,
            46.4065526546718
          ],
          [
            8.13011402564787,
            46.4062091485286
          ],
          [
            8.13005742641539,
            46.4061184042081
          ],
          [
            8.13000137663846,
            46.4060708040128
          ],
          [
            8.12992872107234,
            46.4058075674472
          ],
          [
            8.12983570372672,
            46.4055780140226
          ],
          [
            8.12963150479694,
            46.4053251667169
          ],
          [
            8.12951782209388,
            46.405105327203
          ],
          [
            8.12930529441665,
            46.4047422642076
          ],
          [
            8.12916814307503,
            46.4043116238715
          ],
          [
            8.12895610832705,
            46.4039869105818
          ],
          [
            8.12882340902482,
            46.4039062168971
          ],
          [
            8.12852543392424,
            46.4039080287567
          ],
          [
            8.12833808974876,
            46.4038899908524
          ],
          [
            8.12818582001177,
            46.4039052986832
          ],
          [
            8.1280061358203,
            46.4039447436742
          ],
          [
            8.12790851217297,
            46.403897395008
          ],
          [
            8.12797701767331,
            46.4038346547441
          ],
          [
            8.1281074028678,
            46.4037331851737
          ],
          [
            8.12823833781244,
            46.4036231149506
          ],
          [
            8.12830629469173,
            46.4035172303246
          ],
          [
            8.12846494488843,
            46.4034587360466
          ],
          [
            8.12858086008924,
            46.4033094122192
          ],
          [
            8.12859969993564,
            46.4031558843627
          ],
          [
            8.12840876608325,
            46.4028550126274
          ],
          [
            8.12839178255938,
            46.4027714056091
          ],
          [
            8.12837180497014,
            46.4026730589798
          ],
          [
            8.12828679435047,
            46.4025273535874
          ],
          [
            8.12818029586807,
            46.4023266457975
          ],
          [
            8.12808729189021,
            46.4020970909311
          ],
          [
            8.12789691215655,
            46.4018393624954
          ],
          [
            8.12786736950771,
            46.4016957169619
          ],
          [
            8.12783065433111,
            46.4015329383207
          ],
          [
            8.12766094411599,
            46.401265495639
          ],
          [
            8.12742236831858,
            46.401032029896
          ],
          [
            8.12731168208182,
            46.4010470841872
          ],
          [
            8.12711881659745,
            46.4011393436397
          ],
          [
            8.12698837503167,
            46.4012360182788
          ],
          [
            8.12680006873625,
            46.4011412770856
          ],
          [
            8.12656994447778,
            46.4010276124454
          ],
          [
            8.12661036643918,
            46.4009362782516
          ],
          [
            8.12676718877493,
            46.400733972442
          ],
          [
            8.12693148593358,
            46.4005747685561
          ],
          [
            8.12693647107867,
            46.4004213250312
          ],
          [
            8.12682311328543,
            46.4002254517894
          ],
          [
            8.126726511509,
            46.4001412791765
          ],
          [
            8.12656726194593,
            46.4001518330539
          ],
          [
            8.12642801065735,
            46.4000999413514
          ],
          [
            8.12631665837615,
            46.4000622629038
          ],
          [
            8.12635562322954,
            46.3998558776703
          ],
          [
            8.12638875133242,
            46.3997358227665
          ],
          [
            8.12612398835828,
            46.3996223671972
          ],
          [
            8.12580446090671,
            46.3995619784801
          ],
          [
            8.12577437920117,
            46.3993751882225
          ],
          [
            8.12564826115681,
            46.3992656860743
          ],
          [
            8.12532089815592,
            46.3991334309829
          ],
          [
            8.12514609328172,
            46.3989655441316
          ],
          [
            8.12477752262641,
            46.3988623017729
          ],
          [
            8.12468478119364,
            46.3986519193005
          ],
          [
            8.12450402222002,
            46.3986050703782
          ],
          [
            8.12409887441859,
            46.398348633674
          ],
          [
            8.12388997032494,
            46.3983065226264
          ],
          [
            8.12372186174136,
            46.3981637127998
          ],
          [
            8.12354803414419,
            46.3981168205189
          ],
          [
            8.12350555393751,
            46.398045164469
          ],
          [
            8.12341475286209,
            46.3979881825126
          ],
          [
            8.123024084708,
            46.3977414683021
          ],
          [
            8.122828377267,
            46.3976465399272
          ],
          [
            8.12250735617747,
            46.3974662969385
          ],
          [
            8.12239474472354,
            46.3973279448542
          ],
          [
            8.12220061715974,
            46.3973195261556
          ],
          [
            8.1221716953336,
            46.397223817127
          ],
          [
            8.12222561745606,
            46.3971036382201
          ],
          [
            8.12214078288505,
            46.396969912711
          ],
          [
            8.12201479839527,
            46.3968699941169
          ],
          [
            8.12183302260945,
            46.3967416463431
          ],
          [
            8.12197069283138,
            46.3966689049056
          ],
          [
            8.12212179787413,
            46.3965625232343
          ],
          [
            8.12214872852922,
            46.396500036896
          ]
        ]
      }
    }
  ]
}